<?xml version="1.0" encoding="UTF-8"?>
<kml xmlns="http://www.opengis.net/kml/2.2">
  <Document>
    <name>Silivri Ultra Trail — 8K Gölet Trail</name>
    <Style id="route">
      <LineStyle><color>ffe6b638</color><width>4</width></LineStyle>
    </Style>
    <Placemark>
      <name>Silivri Ultra Trail — 8K Gölet Trail</name>
      <styleUrl>#route</styleUrl>
      <LineString>
        <tessellate>1</tessellate>
        <altitudeMode>clampToGround</altitudeMode>
        <coordinates>
28.221330000000002,41.30111,187.47000000000003
28.221650000000004,41.30111,187.47000000000003
28.221850000000003,41.30104,186.7
28.222080000000002,41.301,186.7
28.22237,41.30097000000001,186.7
28.222360000000002,41.3006,185.95
28.222490000000004,41.300270000000005,185.95
28.222550000000002,41.30006,185.95
28.222440000000002,41.29946,185.95
28.222310000000004,41.299020000000006,185.95
28.222104997275142,41.29815500015613,192.64000000000001
28.2219,41.297290000000004,192.64000000000001
28.22173,41.29684,192.64000000000001
28.22171,41.29654,192.64000000000001
28.221740000000004,41.296380000000006,192.64000000000001
28.22211,41.295950000000005,192.64000000000001
28.222460002328432,41.29551500053709,192.64000000000001
28.222810000000003,41.295080000000006,192.64000000000001
28.222910000000002,41.29506000000001,192.64000000000001
28.223150000000004,41.29507,192.64000000000001
28.223290000000002,41.295,192.64000000000001
28.2235,41.29467,192.64000000000001
28.223900000000004,41.29430000000001,192.64000000000001
28.22444,41.293890000000005,192.64000000000001
28.224750000000004,41.29375,192.64000000000001
28.224930000000004,41.29363,192.64000000000001
28.225030000000004,41.29348,170.90000000000003
28.224970000000003,41.292860000000005,170.90000000000003
28.22529,41.29229,170.90000000000003
28.225430000000003,41.291990000000006,170.90000000000003
28.225510000000003,41.29162,170.90000000000003
28.225635004400043,41.29085500018558,170.90000000000003
28.2257600058685,41.290090000235935,170.90000000000003
28.22588500440553,41.28932500015108,170.90000000000003
28.226010000000002,41.288560000000004,170.90000000000003
28.22612,41.28797,166.35000000000002
28.22622,41.28779,166.35000000000002
28.22624,41.287670000000006,166.35000000000002
28.226620000000004,41.28797,166.22
28.2266,41.287960000000005,166.22
28.226760000000002,41.28808,166.22
28.227020000000003,41.28817,166.22
28.22764,41.28884,166.22
28.227770000000003,41.28893,166.22
28.22809,41.28889,166.22
28.228430000000003,41.288940000000004,166.22
28.22857,41.28898,165.02
28.228640000000002,41.28913,165.02
28.22875,41.289570000000005,165.02
28.228980000000004,41.29027000000001,165.02
28.228980000000004,41.290620000000004,165.02
28.229020000000002,41.2907,165.02
28.229020000000002,41.29088,165.02
28.22913,41.29139000000001,165.02
28.229210000000002,41.291560000000004,165.02
28.2295,41.29184,165.02
28.229660000000003,41.29211,165.02
28.229760000000002,41.29245,165.02
28.22978,41.292840000000005,165.02
28.229680000000002,41.29323,165.02
28.22942,41.29345,165.02
28.229100000000003,41.293760000000006,164.66
28.228690000000004,41.29426,164.66
28.228520000000003,41.29462,164.66
28.228510000000004,41.294920000000005,164.66
28.22867,41.29527,164.66
28.22905,41.29565,164.66
28.229750000000003,41.296290000000006,164.66
28.229720000000004,41.296260000000004,164.67000000000002
28.229820000000004,41.29636,164.67000000000002
28.230100000000004,41.29655,164.67000000000002
28.230570000000004,41.29672,164.67000000000002
28.231320000000004,41.29674000000001,164.67000000000002
28.231720000000003,41.29697,164.51000000000002
28.231880000000004,41.296850000000006,164.51000000000002
28.23243,41.29663,164.51000000000002
28.232730000000004,41.296380000000006,164.51000000000002
28.232830000000003,41.29637,164.51000000000002
28.233020000000003,41.2965,164.51000000000002
28.233220000000003,41.296710000000004,164.51000000000002
28.233320000000003,41.29692,164.51000000000002
28.233330000000002,41.29713,164.51000000000002
28.233220000000003,41.297320000000006,164.51000000000002
28.233210000000003,41.29764,164.51000000000002
28.233290000000004,41.29789,164.51000000000002
28.233220000000003,41.29804,164.51000000000002
28.23316,41.298230000000004,164.51000000000002
28.233150000000002,41.298410000000004,164.51000000000002
28.233240000000002,41.2986,164.51000000000002
28.233789996080073,41.299080001420506,164.51000000000002
28.234340000000003,41.29956000000001,158.93
28.234430000000003,41.29975,158.93
28.2345,41.30012000000001,158.93
28.234700000000004,41.300560000000004,158.93
28.23496,41.300900000000006,158.93
28.235180000000003,41.301320000000004,158.93
28.235200000000003,41.30162000000001,158.93
28.235110000000002,41.30189,158.93
28.235110000000002,41.3021,158.93
28.23522,41.30225,158.93
28.2358,41.3029,158.93
28.235820000000004,41.30308,159.78
28.235820000000004,41.3031,159.82999999999998
28.235830000000004,41.30315,159.82999999999998
28.235760000000003,41.30348,163.18
28.23552,41.303740000000005,163.18
28.23544,41.303650000000005,163.4
28.235110000000002,41.30346,163.61
28.23485,41.30341000000001,163.92000000000002
28.234510000000004,41.30350000000001,164.12
28.234650000000002,41.30373,164.12
28.23467,41.30397000000001,164.12
28.23486,41.304460000000006,164.12
28.23496,41.30467,164.12
28.234880000000004,41.30500000000001,164.12
28.235170000000004,41.30584,189.47000000000003
28.235450000000004,41.306340000000006,189.47000000000003
28.235560000000003,41.306400000000004,189.47000000000003
28.23542,41.306760000000004,189.47000000000003
28.23515,41.30711,189.47000000000003
28.234520000000003,41.30772,189.47000000000003
28.233980000000003,41.307930000000006,194.97
28.23372,41.30821,194.97
28.233430000000002,41.308350000000004,194.97
28.233290000000004,41.308460000000004,194.97
28.233120000000003,41.30868,194.97
28.232960000000002,41.30875,194.97
28.23288,41.308620000000005,194.01000000000002
28.232870000000002,41.308600000000006,193.88000000000002
28.232960000000002,41.30875,194.97
28.232870000000002,41.308820000000004,194.97
28.232460000000003,41.30892,194.97
28.23194,41.309000000000005,194.97
28.231720000000003,41.30908,194.97
28.231600000000004,41.309200000000004,194.97
28.231520000000003,41.30935,194.97
28.231420000000004,41.30944,194.97
28.23084,41.30969,194.97
28.230780000000003,41.30977,194.97
28.230750000000004,41.309850000000004,194.97
28.230770000000003,41.31007,194.97
28.230700000000002,41.310370000000006,203.39000000000001
28.230580000000003,41.310570000000006,203.39000000000001
28.23036,41.31085,203.39000000000001
28.230280000000004,41.31123,203.39000000000001
28.230300000000003,41.31129000000001,203.39000000000001
28.230230000000002,41.31166,203.39000000000001
28.230240000000002,41.31192,203.39000000000001
28.23009,41.31208,203.39000000000001
28.23006,41.312200000000004,203.39000000000001
28.230110000000003,41.31239,203.39000000000001
28.230050000000002,41.31259,203.39000000000001
28.230030000000003,41.313010000000006,203.39000000000001
28.23006,41.313300000000005,203.39000000000001
28.22999,41.31356,203.39000000000001
28.23006,41.314040000000006,203.39000000000001
28.23017,41.314370000000004,203.39000000000001
28.230120000000003,41.31483,202.74
28.229950000000002,41.31514000000001,202.74
28.22943,41.31561000000001,202.74
28.22932,41.31575,202.74
28.22912,41.31582,202.74
28.228910000000003,41.31584,202.74
28.22866,41.3158,202.74
28.228440000000003,41.31570000000001,202.74
28.228410000000004,41.31568,202.74
28.228170000000002,41.315470000000005,202.74
28.227960000000003,41.315340000000006,202.74
28.227960000000003,41.31521,202.74
28.227790000000002,41.31494,202.74
28.227400000000003,41.31463,202.74
28.226939997216828,41.314225000981516,202.74
28.226480000000002,41.31382000000001,202.04000000000002
28.226070000000004,41.31342,202.04000000000002
28.225970000000004,41.31306,202.04000000000002
28.22593,41.31268,202.04000000000002
28.225800000000003,41.312490000000004,202.04000000000002
28.225740000000002,41.31226,202.04000000000002
28.225805000780383,41.31148499992689,202.04000000000002
28.225870000000004,41.31071,202.04000000000002
28.22613,41.310460000000006,202.04000000000002
28.22604,41.310280000000006,202.04000000000002
28.22603,41.310120000000005,202.04000000000002
28.226315001933518,41.30969000027029,174.32
28.2266,41.30926,174.32
28.2268,41.30923000000001,174.32
28.226950000000002,41.308930000000004,174.32
28.22718,41.30838000000001,174.32
28.227090000000004,41.308170000000004,174.32
28.226659991080247,41.307493334941995,174.32
28.226229991085763,41.3068166682838,174.32
28.225800000000003,41.306140000000006,174.32
28.22531748418723,41.30542750302774,195.37
28.22483497891913,41.30471500404064,195.37
28.224352484195244,41.304002503038795,195.37
28.22387,41.303290000000004,195.37
28.223750000000003,41.30319,195.37
28.223860000000002,41.30315,195.38000000000002
28.224010000000003,41.30322,194.44000000000003
28.224120000000003,41.303250000000006,194.44000000000003
28.224110000000003,41.30324,194.47
28.224010000000003,41.30322,194.47
28.223860000000002,41.30315,195.38000000000002
28.223750000000003,41.30319,195.37
28.22315000038872,41.303200001552796,195.37
28.222550000000002,41.30321,192.70000000000002
28.222330000000003,41.303250000000006,192.70000000000002
28.222210000000004,41.303290000000004,192.70000000000002
28.222060000000003,41.30341000000001,192.70000000000002
28.22183,41.30348,192.70000000000002
28.221700000000002,41.3036,192.46
28.221500000000002,41.303630000000005,191.8
28.22134,41.303580000000004,191.39000000000001
28.221330000000002,41.303560000000004,191.33
28.220910000000003,41.30304,189.94000000000003
28.220900000000004,41.30292,189.94000000000003
28.220940000000002,41.30277,189.94000000000003
28.221000000000004,41.30266,189.94000000000003
28.221000000000004,41.302580000000006,189.94000000000003
28.220720000000004,41.30192,189.94000000000003
28.220550000000003,41.30145,187.45
28.220540000000003,41.301230000000004,187.45
28.220740000000003,41.301100000000005,187.45
28.220940000000002,41.301050000000004,187.45
28.22117,41.30111,187.45
28.221370000000004,41.30111,187.45
        </coordinates>
      </LineString>
    </Placemark>
  </Document>
</kml>
