<?xml version="1.0" encoding="UTF-8"?>
<kml xmlns="http://www.opengis.net/kml/2.2">
  <Document>
    <name>Silivri Ultra Trail — 18K Meşe Trail</name>
    <Style id="route">
      <LineStyle><color>ff57dda9</color><width>4</width></LineStyle>
    </Style>
    <Placemark>
      <name>Silivri Ultra Trail — 18K Meşe Trail</name>
      <styleUrl>#route</styleUrl>
      <LineString>
        <tessellate>1</tessellate>
        <altitudeMode>clampToGround</altitudeMode>
        <coordinates>
28.221210000000003,41.30111,187.56
28.221650000000004,41.30111,187.56
28.221850000000003,41.30104,186.7
28.222080000000002,41.301,186.7
28.22237,41.30097000000001,186.7
28.222360000000002,41.3006,185.95
28.222490000000004,41.300270000000005,185.95
28.222550000000002,41.30006,185.95
28.222440000000002,41.29946,185.95
28.222310000000004,41.299020000000006,185.95
28.222104997275142,41.29815500015613,192.64000000000001
28.2219,41.297290000000004,192.64000000000001
28.22173,41.29684,192.64000000000001
28.22171,41.29654,192.64000000000001
28.221740000000004,41.296380000000006,192.64000000000001
28.22211,41.295950000000005,192.64000000000001
28.222460002328432,41.29551500053709,192.64000000000001
28.222810000000003,41.295080000000006,192.64000000000001
28.222910000000002,41.29506000000001,192.64000000000001
28.223150000000004,41.29507,192.64000000000001
28.223290000000002,41.295,192.64000000000001
28.2235,41.29467,192.64000000000001
28.223900000000004,41.29430000000001,192.64000000000001
28.22444,41.293890000000005,192.64000000000001
28.224750000000004,41.29375,192.64000000000001
28.224930000000004,41.29363,192.64000000000001
28.225030000000004,41.29348,170.90000000000003
28.224970000000003,41.292860000000005,170.90000000000003
28.22529,41.29229,170.90000000000003
28.225430000000003,41.291990000000006,170.90000000000003
28.225510000000003,41.29162,170.90000000000003
28.225635004400043,41.29085500018558,170.90000000000003
28.2257600058685,41.290090000235935,170.90000000000003
28.22588500440553,41.28932500015108,170.90000000000003
28.226010000000002,41.288560000000004,170.90000000000003
28.22612,41.28797,166.35000000000002
28.22622,41.28779,166.35000000000002
28.22624,41.287670000000006,166.35000000000002
28.226200000000002,41.28752,166.35000000000002
28.226210000000002,41.28727000000001,165.91
28.226270000000003,41.2871,165.91
28.226260000000003,41.287130000000005,165.94
28.226260000000003,41.28712,165.93
28.226360000000003,41.28689000000001,165.93
28.226550000000003,41.286660000000005,165.56
28.22622,41.28671000000001,165.56
28.225970000000004,41.28696,165.56
28.22538,41.28725,165.56
28.22509,41.28736000000001,165.56
28.224420000000002,41.28757,165.56
28.22434,41.28763,165.56
28.223689999424263,41.28758000182208,165.56
28.22304,41.287530000000004,165.56
28.22256,41.28752,165.56
28.22237,41.28755,165.56
28.221850000000003,41.287690000000005,165.56
28.22144,41.28788,165.56
28.221210000000003,41.2881,193.44000000000003
28.22089,41.28817,193.44000000000003
28.220570000000002,41.28811,193.44000000000003
28.220290000000002,41.287940000000006,193.44000000000003
28.21985,41.287530000000004,193.44000000000003
28.219770000000004,41.28736000000001,193.44000000000003
28.219600000000003,41.28719,193.44000000000003
28.2188,41.2871,193.44000000000003
28.218370000000004,41.28698000000001,193.44000000000003
28.218040000000002,41.28692,193.44000000000003
28.21786,41.286840000000005,193.44000000000003
28.217730000000003,41.28667,193.44000000000003
28.217260000000003,41.28625,193.44000000000003
28.217200000000002,41.286,193.44000000000003
28.217050000000004,41.28578,193.44000000000003
28.216800000000003,41.28575,193.44000000000003
28.216430000000003,41.28577000000001,193.44000000000003
28.215750000000003,41.28591,193.44000000000003
28.215640000000004,41.28586000000001,193.44000000000003
28.215310000000002,41.285360000000004,193.44000000000003
28.21515,41.28484,196.16000000000003
28.2146,41.284530000000004,196.16000000000003
28.21415499733523,41.2841550007662,196.16000000000003
28.213710000000003,41.28378,196.16000000000003
28.21357,41.283570000000005,196.16000000000003
28.213320000000003,41.28354,196.16000000000003
28.212790000000002,41.283280000000005,196.16000000000003
28.211910000000003,41.28316,200.55
28.21167,41.283100000000005,200.55
28.211440000000003,41.282920000000004,200.55
28.21141,41.28291,200.59
28.211170000000003,41.282770000000006,200.59
28.210960000000004,41.282700000000006,200.59
28.210580000000004,41.28222,200.59
28.21007,41.281780000000005,206.41
28.21,41.281530000000004,206.41
28.209850000000003,41.28137,206.41
28.20944,41.281180000000006,206.41
28.209300000000002,41.281220000000005,206.41
28.209100000000003,41.28121,206.41
28.208750000000002,41.28123,206.41
28.208350000000003,41.281310000000005,206.41
28.20812,41.281330000000004,206.41
28.20784,41.28128,206.41
28.207600000000003,41.28126,206.41
28.207340000000002,41.2813,208.04000000000002
28.207060000000002,41.28152,208.04000000000002
28.206770000000002,41.28161,208.04000000000002
28.206020000000002,41.282140000000005,208.04000000000002
28.205810000000003,41.28239000000001,208.04000000000002
28.20566,41.28251,208.04000000000002
28.205510000000004,41.282540000000004,208.04000000000002
28.205230000000004,41.282500000000006,208.04000000000002
28.204870000000003,41.282520000000005,208.04000000000002
28.20473,41.28267,208.04000000000002
28.204760000000004,41.28286000000001,209.1
28.20484,41.28293,209.1
28.204880000000003,41.28302,209.1
28.204950000000004,41.28338,209.1
28.20493,41.283860000000004,209.1
28.204790000000003,41.284240000000004,209.1
28.204760000000004,41.284560000000006,209.1
28.204590000000003,41.28544,209.1
28.203770000000002,41.28605,213.71
28.20332,41.286640000000006,213.71
28.203300000000002,41.28667,213.75000000000003
28.20315,41.286910000000006,213.75000000000003
28.203000000000003,41.28698000000001,213.75000000000003
28.202720001796653,41.2874000003478,213.75000000000003
28.202440000000003,41.28782,213.75000000000003
28.201940000000004,41.28844,213.75000000000003
28.201710000000002,41.288610000000006,213.75000000000003
28.201570000000004,41.288900000000005,213.75000000000003
28.20125,41.289210000000004,222.52
28.200920000000004,41.289460000000005,222.52
28.200650000000003,41.2896,222.52
28.20022,41.289970000000004,222.52
28.200200000000002,41.290310000000005,222.52
28.200070000000004,41.29057,222.52
28.199800000000003,41.29083000000001,222.52
28.199810000000003,41.29086,222.52
28.19901,41.29111,221.95000000000002
28.198990000000002,41.291270000000004,221.95000000000002
28.19854,41.291990000000006,221.95000000000002
28.19836,41.29245,220.34
28.19825,41.292880000000004,220.34
28.19808,41.293220000000005,220.34
28.1979,41.293870000000005,220.34
28.197910000000004,41.294360000000005,220.34
28.197750000000003,41.294760000000004,220.34
28.19741,41.295100000000005,224.49
28.19714,41.29542,224.49
28.196590000000004,41.295660000000005,224.49
28.196180000000002,41.29599,224.49
28.196,41.29621,224.49
28.195610000000002,41.296490000000006,224.49
28.195200000000003,41.29681,224.49
28.19508,41.296960000000006,224.49
28.194820000000004,41.297380000000004,224.49
28.194620000000004,41.29762,224.49
28.19452,41.29827,228.58
28.1946,41.29838,228.58
28.19443,41.298680000000004,228.58
28.194270000000003,41.2988,228.58
28.194100000000002,41.299040000000005,228.58
28.19375,41.29937,228.58
28.1932,41.299760000000006,228.58
28.192690000000002,41.300090000000004,228.58
28.1922150028155,41.300455000855564,228.58
28.191740000000003,41.30082,228.58
28.19121,41.30118,228.58
28.190700000000003,41.30147,228.58
28.19038,41.301590000000004,228.58
28.190120000000004,41.301640000000006,228.58
28.189740000000004,41.301820000000006,228.58
28.189380000000003,41.30194,228.58
28.188760000000002,41.30238000000001,223.13000000000002
28.188250000000004,41.30266,223.13000000000002
28.188050000000004,41.30284,223.13000000000002
28.187990000000003,41.302980000000005,223.13000000000002
28.187810000000002,41.303270000000005,223.13000000000002
28.187730000000002,41.30348,223.13000000000002
28.187730000000002,41.30364,223.13000000000002
28.187810000000002,41.303760000000004,223.13000000000002
28.18775,41.304320000000004,223.13000000000002
28.187530000000002,41.30507,223.13000000000002
28.187400000000004,41.305420000000005,223.13000000000002
28.18729,41.305490000000006,223.13000000000002
28.187040000000003,41.305930000000004,223.13000000000002
28.18661,41.30595,223.13000000000002
28.186120000000003,41.30577,223.13000000000002
28.18558,41.305780000000006,223.13000000000002
28.18456,41.305910000000004,214.13000000000002
28.183660000000003,41.30584,214.13000000000002
28.183460000000004,41.3059,214.13000000000002
28.18267,41.30621,214.13000000000002
28.182125001325073,41.30639500136036,213.59000000000003
28.181580000000004,41.306580000000004,213.53000000000003
28.181130000000003,41.30695,213.53000000000003
28.18109,41.307140000000004,213.53000000000003
28.180860000000003,41.30736,213.53000000000003
28.180650000000004,41.307610000000004,203.34
28.180450000000004,41.307880000000004,203.34
28.18024,41.308020000000006,203.34
28.179890000000004,41.30816,203.34
28.17969,41.30872,199.56
28.179520000000004,41.30895,199.56
28.179195002358686,41.30938500020241,199.54000000000002
28.178870000000003,41.30982,199.54000000000002
28.178150000000002,41.310520000000004,200.12
28.178030000000003,41.310790000000004,200.12
28.178,41.310930000000006,200.12
28.178040000000003,41.31109,200.12
28.17808,41.31157,200.12
28.178050000000002,41.311930000000004,200.12
28.17779,41.31224,200.8
28.177345002454302,41.31256000066282,200.8
28.176900000000003,41.31288000000001,200.8
28.17757999644147,41.31321000194454,202.01000000000002
28.17826,41.31354,204.22
28.178963325806837,41.313886670925314,205.41
28.179666659094423,41.31423333756948,206.03
28.180370000000003,41.31458000000001,206.52
28.180370000000003,41.31457,206.52
28.18123499420349,41.3150150032937,207.51000000000002
28.182100000000002,41.31546,209.29
28.182764997544474,41.3157000019111,210.69
28.18343,41.315940000000005,210.8
28.1843566578033,41.31625334078063,210.21
28.18528332451585,41.31656667412952,210.81000000000003
28.186210000000003,41.316880000000005,211.38
28.187139995091368,41.31722000372172,210.62000000000003
28.188070000000003,41.31756,211.75000000000003
28.188660000000002,41.317660000000004,213.15
28.189610000000002,41.317660000000004,217.25000000000003
28.18964,41.317660000000004,217.32000000000002
28.190020000000004,41.3183,217.55
28.190396658850663,41.31897666790423,217.55
28.190773325522596,41.31965333458059,217.94000000000003
28.191150000000004,41.320330000000006,217.94000000000003
28.191240000000004,41.32045,217.94000000000003
28.19123,41.32043,217.94000000000003
28.191270000000003,41.32049000000001,217.94000000000003
28.19142,41.32059,217.98
28.192100000000003,41.32086,220.25000000000003
28.192854997103236,41.321100002429745,220.25000000000003
28.193610000000003,41.321340000000006,220.25000000000003
28.194440000000004,41.32173,231.32000000000002
28.195059998118023,41.32194500172015,231.32000000000002
28.195680000000003,41.322160000000004,231.32000000000002
28.1961,41.322280000000006,231.32000000000002
28.19639,41.32231,231.32000000000002
28.19668,41.32246000000001,231.32000000000002
28.197359998399563,41.32262000201728,231.82000000000002
28.198040000000002,41.32278,231.82000000000002
28.198220000000003,41.32289,231.82000000000002
28.198320000000002,41.32289,231.82000000000002
28.198280000000004,41.32289,231.81
28.198480000000004,41.322900000000004,231.81
28.199050000000003,41.323100000000004,231.81
28.2000033187147,41.32360000787176,231.81
28.20095665205908,41.32410000787768,232.85000000000002
28.20191,41.324600000000004,232.85000000000002
28.201940000000004,41.324630000000006,232.85000000000002
28.20191,41.324600000000004,232.84
28.202130000000004,41.3248,232.84
28.20229,41.32509,232.84
28.202880000000004,41.325500000000005,233.33
28.203080000000003,41.325660000000006,233.33
28.20324,41.32576,233.33
28.20322,41.32574,233.33
28.203480000000003,41.32591,233.33
28.20369,41.3262,233.33
28.204030000000003,41.326480000000004,233.9
28.204220000000003,41.326840000000004,233.9
28.204580000000004,41.32717,233.9
28.204510000000003,41.3277,232.95000000000002
28.204520000000002,41.32790000000001,232.95000000000002
28.204520000000002,41.32793,232.93000000000004
28.20465,41.32811,232.31
28.20549,41.32867,230.83
28.205980000000004,41.32914,230.83
28.206020000000002,41.32925,230.83
28.206190000000003,41.32952,230.83
28.206260000000004,41.32969000000001,230.83
28.206500000000002,41.33005,230.83
28.206970000000002,41.330690000000004,230.83
28.207120000000003,41.3308,230.83
28.207900000000002,41.33106,230.83
28.208180000000002,41.33127,230.98000000000002
28.208460000000002,41.33153,230.98000000000002
28.208710000000004,41.33164,230.98000000000002
28.208990000000004,41.33187,230.98000000000002
28.20925,41.33221,230.98000000000002
28.209360000000004,41.33243,230.98000000000002
28.20961,41.33269000000001,230.98000000000002
28.20979,41.33281,230.98000000000002
28.2099,41.33308,230.98000000000002
28.210060000000002,41.33334000000001,230.98000000000002
28.210340000000002,41.333490000000005,230.98000000000002
28.210350000000002,41.3335,230.98000000000002
28.21065,41.333490000000005,230.99000000000004
28.210880000000003,41.333400000000005,230.99000000000004
28.21167,41.33317,230.99000000000004
28.212130000000002,41.33317,230.99000000000004
28.21224,41.332980000000006,230.99000000000004
28.21263,41.33279,230.99000000000004
28.212960000000002,41.33268,230.99000000000004
28.213300000000004,41.33265,230.99000000000004
28.213630000000002,41.33265,217.67000000000002
28.213950000000004,41.33268,217.67000000000002
28.214430000000004,41.33263,217.67000000000002
28.214720000000003,41.332660000000004,217.67000000000002
28.215570000000003,41.33296,217.67000000000002
28.216130000000003,41.33324,217.67000000000002
28.216450000000002,41.33352,217.67000000000002
28.21657,41.333800000000004,217.67000000000002
28.21684,41.333850000000005,217.47000000000003
28.217170000000003,41.333780000000004,217.47000000000003
28.217830001937777,41.33359000188147,215.8
28.218490000000003,41.333400000000005,215.8
28.218940000000003,41.33343,215.8
28.219780000000004,41.33357,215.8
28.22031,41.33357,217.7
28.22106,41.33335,217.7
28.221190000000004,41.33335,217.7
28.221220000000002,41.33335,217.72000000000003
28.22164,41.333360000000006,217.72000000000003
28.222220000000004,41.33326,218.65
28.222320000000003,41.33321,218.65
28.22185597995192,41.33250600374079,218.65
28.22139196993288,41.33180200561803,218.65
28.220927969942444,41.3310980056318,218.65
28.22046397998018,41.33039400378219,210.44
28.220000000000002,41.32969000000001,210.44
28.219910000000002,41.32943,210.44
28.219880000000003,41.329,210.44
28.21976,41.328590000000005,210.44
28.21947,41.328070000000004,210.44
28.219450000000002,41.327920000000006,210.44
28.219520000000003,41.327690000000004,211.41
28.219310000000004,41.32779,211.41
28.219130000000003,41.32797,211.41
28.21901,41.328,211.41
28.218890000000002,41.32795,211.41
28.218790000000002,41.32784,211.41
28.218393325640616,41.327206668058274,219.04000000000002
28.217996658992703,41.3265733347547,219.04000000000002
28.2176,41.32594,219.04000000000002
28.217095768440668,41.3251775121009,221.47000000000003
28.216591548681908,41.32441502200134,223.20000000000002
28.216087340723167,41.32365252970143,223.18
28.215583144563883,41.32289003520126,223.09
28.215078960203492,41.322127538500986,222.72000000000003
28.214574787641446,41.32136503960066,223.19000000000003
28.21407062687717,41.320602538500445,223.19000000000003
28.213566477910124,41.319840035200414,223.19000000000003
28.21306234073974,41.3190775297007,224.18
28.212558215365462,41.31831502200141,224.18
28.21205410178673,41.317552512102644,224.18
28.211550000000003,41.316790000000005,229.11
28.21215,41.316460000000006,229.11
28.21253,41.31627,229.11
28.212730000000004,41.316120000000005,229.11
28.213,41.315960000000004,229.11
28.21338,41.315780000000004,229.11
28.214270000000003,41.315670000000004,217.00000000000003
28.214720000000003,41.31557,217.00000000000003
28.21525,41.31535,217.00000000000003
28.215680000000003,41.31513,217.00000000000003
28.215960000000003,41.314840000000004,217.00000000000003
28.216610000000003,41.31436,217.00000000000003
28.21685,41.31412,217.00000000000003
28.216790000000003,41.313680000000005,217.00000000000003
28.216820000000002,41.31311,217.00000000000003
28.21703,41.31262,217.00000000000003
28.21720000136852,41.31209500012672,217.00000000000003
28.217370000000003,41.31157,217.00000000000003
28.217610000000004,41.311220000000006,217.00000000000003
28.21805000235438,41.31084500098822,194.38000000000002
28.218490000000003,41.31047,194.38000000000002
28.218970000000002,41.30984,194.38000000000002
28.219410000000003,41.309610000000006,194.38000000000002
28.220050000000004,41.30901,194.38000000000002
28.22033,41.30886,194.38000000000002
28.220750000000002,41.308420000000005,194.38000000000002
28.22108,41.308150000000005,194.38000000000002
28.22117,41.307950000000005,194.38000000000002
28.22108,41.307700000000004,194.38000000000002
28.22125,41.306830000000005,194.38000000000002
28.22131500048197,41.306359999921135,194.38000000000002
28.221380000000003,41.305890000000005,194.38000000000002
28.221530003692127,41.30508666688169,192.70000000000002
28.22168000368827,41.30428333356868,192.70000000000002
28.22183,41.30348,192.57000000000002
28.221700000000002,41.3036,192.32000000000002
28.221500000000002,41.303630000000005,191.65
28.22134,41.303580000000004,190.99
28.220910000000003,41.30304,189.94000000000003
28.220900000000004,41.30292,189.94000000000003
28.220940000000002,41.30277,189.94000000000003
28.221000000000004,41.30266,189.94000000000003
28.221000000000004,41.302580000000006,189.94000000000003
28.220720000000004,41.30192,188.13000000000002
28.220550000000003,41.30145,188.13000000000002
28.220540000000003,41.301230000000004,188.13000000000002
28.220540000000003,41.30125,188.14
28.220540000000003,41.301230000000004,188.14
28.220740000000003,41.301100000000005,188.14
28.220940000000002,41.301050000000004,187.53
28.22117,41.30111,187.53
28.22125,41.30111,187.53
        </coordinates>
      </LineString>
    </Placemark>
  </Document>
</kml>
