<?xml version="1.0" encoding="UTF-8"?>
<kml xmlns="http://www.opengis.net/kml/2.2">
  <Document>
    <name>Silivri Ultra Trail — 38K Orman Trail</name>
    <Style id="route">
      <LineStyle><color>ff2a76e0</color><width>4</width></LineStyle>
    </Style>
    <Placemark>
      <name>Silivri Ultra Trail — 38K Orman Trail</name>
      <styleUrl>#route</styleUrl>
      <LineString>
        <tessellate>1</tessellate>
        <altitudeMode>clampToGround</altitudeMode>
        <coordinates>
28.22173,41.301080000000006,187.17
28.221850000000003,41.30104,187.17
28.222080000000002,41.301,186.7
28.22237,41.30097000000001,186.7
28.222360000000002,41.3006,185.95
28.222490000000004,41.300270000000005,185.95
28.222550000000002,41.30006,185.95
28.222440000000002,41.29946,185.95
28.222310000000004,41.299020000000006,185.95
28.222104997275142,41.29815500015613,192.64000000000001
28.2219,41.297290000000004,192.64000000000001
28.22173,41.29684,192.64000000000001
28.22171,41.29661,192.07000000000002
28.22171,41.296600000000005,192.05
28.22171,41.29654,192.05
28.221740000000004,41.296380000000006,192.05
28.22211,41.295950000000005,192.05
28.222460002328432,41.29551500053709,192.05
28.222810000000003,41.295080000000006,192.05
28.222910000000002,41.29506000000001,192.05
28.223150000000004,41.29507,192.05
28.223290000000002,41.295,192.05
28.2235,41.29467,192.05
28.223900000000004,41.29430000000001,192.05
28.22444,41.293890000000005,192.05
28.224750000000004,41.29375,192.05
28.224930000000004,41.29363,192.05
28.225030000000004,41.29348,192.05
28.224970000000003,41.292860000000005,170.90000000000003
28.22529,41.29229,170.90000000000003
28.225430000000003,41.291990000000006,170.90000000000003
28.225510000000003,41.29162,170.90000000000003
28.225635004400043,41.29085500018558,170.90000000000003
28.2257600058685,41.290090000235935,170.90000000000003
28.22588500440553,41.28932500015108,170.90000000000003
28.226010000000002,41.288560000000004,170.90000000000003
28.22612,41.28797,166.67000000000002
28.226210000000002,41.28779,166.67000000000002
28.22624,41.287670000000006,166.35000000000002
28.226200000000002,41.28752,166.35000000000002
28.226210000000002,41.28727000000001,166.35000000000002
28.226360000000003,41.28689000000001,165.56
28.226550000000003,41.286660000000005,165.56
28.22622,41.28671000000001,165.56
28.225970000000004,41.28696,165.56
28.22538,41.28725,165.56
28.22509,41.28736000000001,165.56
28.224420000000002,41.28757,165.56
28.22434,41.28763,165.56
28.223689999424263,41.28758000182208,165.56
28.22304,41.287530000000004,165.56
28.22256,41.28752,165.56
28.22237,41.28755,165.56
28.221850000000003,41.287690000000005,165.56
28.22144,41.28788,165.56
28.221210000000003,41.2881,193.44000000000003
28.22089,41.28817,193.44000000000003
28.220570000000002,41.28811,193.44000000000003
28.220290000000002,41.287940000000006,193.44000000000003
28.21985,41.287530000000004,193.44000000000003
28.219770000000004,41.28736000000001,193.44000000000003
28.219600000000003,41.28719,193.44000000000003
28.2188,41.2871,193.44000000000003
28.218370000000004,41.28698000000001,193.44000000000003
28.218040000000002,41.28692,193.44000000000003
28.21786,41.286840000000005,193.44000000000003
28.217730000000003,41.28667,193.44000000000003
28.217260000000003,41.28625,193.44000000000003
28.217200000000002,41.286,193.44000000000003
28.217050000000004,41.28578,193.44000000000003
28.216800000000003,41.28575,193.44000000000003
28.216430000000003,41.28577000000001,193.44000000000003
28.215750000000003,41.28591,193.44000000000003
28.215640000000004,41.28586000000001,193.44000000000003
28.215310000000002,41.285360000000004,195.03
28.21515,41.28484,195.03
28.215030000000002,41.28477,195.03
28.214990000000004,41.28475,195.05
28.2146,41.284530000000004,195.05
28.21415499733523,41.2841550007662,196.16000000000003
28.213710000000003,41.28378,196.16000000000003
28.21357,41.283570000000005,196.16000000000003
28.213320000000003,41.28354,196.16000000000003
28.212790000000002,41.283280000000005,196.16000000000003
28.211910000000003,41.28316,196.16000000000003
28.21167,41.283100000000005,196.16000000000003
28.2115,41.28296,196.16000000000003
28.211170000000003,41.282770000000006,196.16000000000003
28.210960000000004,41.282700000000006,206.41
28.210580000000004,41.28222,206.41
28.21007,41.281780000000005,206.41
28.21,41.281530000000004,206.41
28.209850000000003,41.28137,206.41
28.20944,41.281180000000006,206.41
28.20897197947171,41.28046400380437,206.41
28.208503969212522,41.27974800571334,206.41
28.208035969221978,41.279032005727025,182.84
28.20756797949963,41.278316003845504,182.84
28.207100000000004,41.27760000000001,182.84
28.207790000000003,41.27754,182.84
28.208380000000002,41.27776,182.84
28.2086,41.277750000000005,182.84
28.209540000000004,41.27752,182.84
28.20991,41.27747,182.84
28.210420000000003,41.277480000000004,182.84
28.210690000000003,41.27747,182.84
28.2112,41.277280000000005,178.33
28.211710000000004,41.277210000000004,178.33
28.21234,41.27694,178.33
28.212770000000003,41.27682,178.33
28.213210000000004,41.276450000000004,178.33
28.213680000000004,41.276300000000006,178.33
28.213800000000003,41.27629,178.33
28.21412,41.27651,178.33
28.214290000000002,41.27675,178.33
28.214420000000004,41.276770000000006,178.33
28.214660000000002,41.276920000000004,177.22
28.214900000000004,41.276970000000006,177.22
28.214940000000002,41.276920000000004,177.22
28.21496,41.27691,177.19
28.215380000000003,41.27655,177.19
28.215410000000002,41.276300000000006,177.19
28.215500000000002,41.276070000000004,177.19
28.215460000000004,41.275710000000004,177.19
28.215470000000003,41.27553,177.19
28.215550000000004,41.27517,177.19
28.215690000000002,41.275040000000004,168.55
28.21571,41.27479,168.55
28.215830000000004,41.27463,168.55
28.216020000000004,41.274550000000005,168.55
28.216250000000002,41.27427,168.55
28.21664,41.274080000000005,168.55
28.216710000000003,41.274010000000004,168.55
28.21713,41.273790000000005,168.55
28.21722,41.27369,168.55
28.21723,41.273340000000005,168.55
28.217050000000004,41.273070000000004,168.55
28.216880000000003,41.272870000000005,168.55
28.21676,41.27261,168.55
28.216690000000003,41.2723,168.55
28.21664,41.27179,176.70000000000002
28.21676,41.2715,176.70000000000002
28.216620000000002,41.271100000000004,176.70000000000002
28.21627,41.27056,176.70000000000002
28.2159,41.27042,176.70000000000002
28.215590000000002,41.270410000000005,176.70000000000002
28.21533,41.270450000000004,176.70000000000002
28.21488,41.27038,181.92000000000002
28.21459,41.27038,181.92000000000002
28.214440000000003,41.270570000000006,181.92000000000002
28.214270000000003,41.270480000000006,181.92000000000002
28.213890000000003,41.2704,181.92000000000002
28.213510000000003,41.27047,181.92000000000002
28.21298,41.27035,188.44000000000003
28.212730000000004,41.27,188.44000000000003
28.212690000000002,41.26973,188.44000000000003
28.212580000000003,41.26955,188.44000000000003
28.21199999752158,41.269280001418224,188.44000000000003
28.211420000000004,41.26901,188.44000000000003
28.211150000000004,41.26883,188.44000000000003
28.210780000000003,41.26843,188.44000000000003
28.210530000000002,41.267900000000004,188.44000000000003
28.21029,41.267720000000004,208.48000000000002
28.20982,41.267680000000006,208.48000000000002
28.209650000000003,41.267720000000004,208.48000000000002
28.209400000000002,41.267860000000006,208.48000000000002
28.209200000000003,41.267900000000004,208.48000000000002
28.208140000000004,41.26778,208.48000000000002
28.207570000000004,41.267630000000004,208.48000000000002
28.206970000000002,41.267390000000006,208.48000000000002
28.20699,41.2674,208.46
28.2066,41.267250000000004,208.46
28.205810000000003,41.267120000000006,208.46
28.20538,41.26726,208.46
28.204840002636097,41.26758500129273,219.58
28.204300000000003,41.26791,219.58
28.20341,41.267880000000005,219.58
28.203180000000003,41.267920000000004,219.58
28.20333,41.26765,219.58
28.203630000000004,41.26751,219.58
28.20417,41.26671,215.21
28.204520000000002,41.266420000000004,215.21
28.20435,41.26628,215.21
28.20408,41.26594,215.21
28.203860000000002,41.26579,215.21
28.203310000000002,41.265600000000006,215.21
28.203090000000003,41.265390000000004,215.21
28.20275499765142,41.264945000398356,215.21
28.202420000000004,41.264500000000005,215.21
28.202170000000002,41.26404,215.21
28.201719991862586,41.263446668471424,213.47000000000003
28.201269991902585,41.26285333519066,213.47000000000003
28.200820000000004,41.262260000000005,213.47000000000003
28.20030999420244,41.26151500115499,213.47000000000003
28.199800000000003,41.26077,213.47000000000003
28.199550000000002,41.26044,213.47000000000003
28.19893,41.259750000000004,213.47000000000003
28.198860000000003,41.25945,213.47000000000003
28.19842499572241,41.2588050008457,225.11
28.19799,41.258160000000004,225.11
28.197554995947446,41.25755500078622,224.65
28.19712,41.25695,224.65
28.196789997217255,41.25641500034168,220.50000000000003
28.196460000000002,41.255880000000005,220.50000000000003
28.19589998762748,41.255160002678004,220.50000000000003
28.19533998760017,41.25444000264262,220.50000000000003
28.19478,41.25372,220.50000000000003
28.194233320085065,41.25293000254725,220.50000000000003
28.19368665339204,41.25214000250881,220.50000000000003
28.193140000000003,41.25135,234.81
28.192669980904707,41.250686003839235,234.81
28.192199971363365,41.25002200576714,234.81
28.191729971375583,41.24935800578377,234.81
28.191259980940977,41.24869400388921,234.81
28.190790000000003,41.24803,234.81
28.191080000000003,41.247400000000006,234.81
28.19114,41.24714,234.81
28.191290000000002,41.246970000000005,234.81
28.191760000000002,41.24653,234.81
28.191850000000002,41.246410000000004,230.52000000000004
28.191910000000004,41.246,230.52000000000004
28.191910000000004,41.24573,230.52000000000004
28.191750000000003,41.245380000000004,230.52000000000004
28.191710000000004,41.245180000000005,230.52000000000004
28.191830000000003,41.244910000000004,230.52000000000004
28.191940000000002,41.24477,230.52000000000004
28.192020000000003,41.24456,230.52000000000004
28.192040000000002,41.244350000000004,230.52000000000004
28.192020000000003,41.24412,230.52000000000004
28.192100000000003,41.24389,230.52000000000004
28.192330000000002,41.243590000000005,219.61
28.192460000000004,41.24334,219.61
28.19255,41.242850000000004,219.61
28.192580000000003,41.24212,219.61
28.192660000000004,41.24193,219.61
28.19262,41.24181,219.61
28.192680000000003,41.24161,212.17000000000002
28.19282,41.24132,212.17000000000002
28.19301,41.241130000000005,212.17000000000002
28.193080000000002,41.24072,212.17000000000002
28.193310000000004,41.24015,212.17000000000002
28.193360000000002,41.23977,212.17000000000002
28.193340000000003,41.23953,201.75
28.19321,41.23906,201.75
28.19299,41.23884,201.75
28.193120000000004,41.23856000000001,201.75
28.193430000000003,41.23812,194.03
28.193710000000003,41.237820000000006,194.03
28.193880000000004,41.23772,194.03
28.194000000000003,41.237680000000005,194.03
28.19413,41.237730000000006,194.03
28.19431,41.23772,194.03
28.194560000000003,41.237840000000006,194.03
28.1947,41.237820000000006,194.03
28.195490000000003,41.23715000000001,193.73000000000002
28.1947,41.237820000000006,194.03
28.194560000000003,41.237840000000006,194.03
28.19431,41.23772,194.03
28.19413,41.237730000000006,194.03
28.194000000000003,41.237680000000005,194.03
28.193880000000004,41.23772,194.03
28.193710000000003,41.237820000000006,194.03
28.193430000000003,41.23812,194.03
28.193120000000004,41.23856000000001,201.75
28.19292,41.23899,200.60000000000002
28.19271,41.239110000000004,200.60000000000002
28.192380000000004,41.23919,200.60000000000002
28.191484997498037,41.23900500347153,200.60000000000002
28.190590000000004,41.238820000000004,215.76
28.189930000000004,41.238820000000004,215.76
28.18971,41.238780000000006,215.76
28.189289992474926,41.23819666815361,215.76
28.18886999244679,41.23761333478105,220.76000000000002
28.188450000000003,41.237030000000004,220.76000000000002
28.188760000000002,41.23659000000001,220.76000000000002
28.18877,41.236360000000005,220.76000000000002
28.188840000000003,41.23619,220.76000000000002
28.188910000000003,41.2359,220.76000000000002
28.188900000000004,41.235730000000004,220.76000000000002
28.188670000000002,41.235510000000005,220.76000000000002
28.188720000000004,41.235310000000005,220.76000000000002
28.188740000000003,41.23508,220.76000000000002
28.188910000000003,41.234880000000004,220.76000000000002
28.189040000000002,41.23481,220.76000000000002
28.189310000000003,41.23481,220.76000000000002
28.18943,41.23463,220.76000000000002
28.189470000000004,41.234190000000005,220.76000000000002
28.18943,41.23396,204.17000000000002
28.189500000000002,41.233760000000004,204.17000000000002
28.189490000000003,41.23364,204.17000000000002
28.189270000000004,41.23319,204.17000000000002
28.189100000000003,41.23299,204.17000000000002
28.188820000000003,41.23225,204.17000000000002
28.18859,41.231910000000006,204.17000000000002
28.18831,41.23167,204.17000000000002
28.188060000000004,41.23163,204.17000000000002
28.187900000000003,41.231550000000006,204.17000000000002
28.187780000000004,41.23129,204.17000000000002
28.187580000000004,41.23105,204.17000000000002
28.18738,41.23091,204.17000000000002
28.18711,41.230830000000005,204.17000000000002
28.186760000000003,41.230540000000005,204.17000000000002
28.186790000000002,41.230290000000004,204.17000000000002
28.186890000000002,41.22974000000001,217.53000000000003
28.18681,41.229670000000006,217.53000000000003
28.186590000000002,41.22968,217.53000000000003
28.186370000000004,41.229470000000006,217.53000000000003
28.186200000000003,41.229470000000006,217.53000000000003
28.185830000000003,41.22925,217.53000000000003
28.185540000000003,41.22923,219.46
28.185280000000002,41.22925,219.46
28.184990000000003,41.229330000000004,219.46
28.184630000000002,41.2295,219.46
28.184260000000002,41.22959,219.46
28.183310000000002,41.22965000000001,219.46
28.182420000000004,41.22986,219.46
28.181340000000002,41.230160000000005,212.52
28.180480000000003,41.23049,212.52
28.17985000064299,41.23055500171512,212.52
28.17922,41.23062,212.52
28.17902,41.230760000000004,212.52
28.17856,41.23082,212.69000000000003
28.177920000000004,41.230740000000004,212.69000000000003
28.177660000000003,41.230740000000004,212.69000000000003
28.176750000000002,41.23106000000001,217.43
28.17586001119028,41.23147000684015,217.43
28.174970011217415,41.23188000682774,217.43
28.174080000000004,41.232290000000006,217.43
28.173257512503177,41.232620008759966,217.43
28.172435016702433,41.2329500116674,241.03000000000003
28.17161251259775,41.23328000872216,241.03000000000003
28.170790000000004,41.233610000000006,241.03000000000003
28.170460000000002,41.23369,241.03000000000003
28.169276669496615,41.23376667877742,241.03000000000003
28.168093336217385,41.233843345440604,241.03000000000003
28.16691,41.233920000000005,242.50000000000003
28.166410000000003,41.23391,241.35
28.16617,41.23384,241.35
28.166140000000002,41.233830000000005,241.31000000000003
28.165830000000003,41.23375,241.31000000000003
28.165020000000002,41.233650000000004,241.31000000000003
28.16437000015941,41.233650001827606,236.91
28.16372,41.233650000000004,236.91
28.16325,41.233560000000004,236.91
28.163050000000002,41.23386,236.91
28.16257500247238,41.23418000087685,236.91
28.162100000000002,41.234500000000004,236.91
28.16184,41.23487,236.91
28.161690000000004,41.235130000000005,234.93000000000004
28.161625000535363,41.2356249996898,234.93000000000004
28.16156,41.23612000000001,234.93000000000004
28.161450000000002,41.236320000000006,234.93000000000004
28.161040000000003,41.23659000000001,234.93000000000004
28.160205005844823,41.237045002998414,234.93000000000004
28.159370000000003,41.237500000000004,234.03
28.158586673917252,41.23780000528578,234.03
28.157803340643675,41.23810000526293,234.03
28.157020000000003,41.238400000000006,234.03
28.15639000201587,41.238605001703924,234.03
28.15576,41.23881,234.03
28.15538,41.239140000000006,240.94
28.155310000000004,41.239430000000006,240.94
28.155400000000004,41.23964,240.94
28.155130000000003,41.240260000000006,240.94
28.15499,41.24053000000001,240.94
28.154760000000003,41.24065,240.94
28.15435,41.24074,240.94
28.15417,41.241170000000004,240.94
28.154000000000003,41.2417,240.94
28.153840000000002,41.241800000000005,240.94
28.153720000000003,41.24192,240.94
28.15369,41.242110000000004,240.94
28.15313500582186,41.24279000127515,240.94
28.152580000000004,41.24347,229.22
28.152230000000003,41.24385,229.22
28.151770003084458,41.2442750008297,229.22
28.151310000000002,41.2447,229.22
28.151030000000002,41.24522,229.22
28.150965000881133,41.24611000007594,238.23000000000002
28.150900000000004,41.247,238.23000000000002
28.150820000000003,41.247220000000006,238.23000000000002
28.15021,41.247260000000004,238.23000000000002
28.149700000000003,41.24736,238.23000000000002
28.149510000000003,41.2475,238.23000000000002
28.149060000000002,41.248000000000005,238.23000000000002
28.149050000000003,41.248310000000004,238.23000000000002
28.1488,41.24862,244.72000000000003
28.148750000000003,41.249100000000006,244.72000000000003
28.14862,41.24942,244.72000000000003
28.148560000000003,41.24982000000001,244.72000000000003
28.148390000000003,41.25025,244.72000000000003
28.147890000000004,41.250870000000006,244.72000000000003
28.14769,41.251540000000006,244.72000000000003
28.14769,41.25168,244.72000000000003
28.147730000000003,41.251810000000006,244.72000000000003
28.148100000000003,41.252370000000006,245.79
28.148513326342645,41.25292333482678,245.79
28.14892665968732,41.253476668175416,245.79
28.149340000000002,41.25403,244.73000000000002
28.149330000000003,41.254020000000004,244.74
28.149160000000002,41.25381,244.97000000000003
28.149160000000002,41.253800000000005,244.98000000000002
28.149420000000003,41.25415,244.61
28.149310000000003,41.25439,244.61
28.14918,41.25459,244.61
28.148950000000003,41.25471,244.61
28.14843,41.254760000000005,244.61
28.148180000000004,41.25498,238.15000000000003
28.147660000000002,41.25569,238.15000000000003
28.147450000000003,41.25585,238.15000000000003
28.14674,41.25656,239.01000000000002
28.14641500349194,41.257260000437775,239.01000000000002
28.14609,41.257960000000004,239.01000000000002
28.14609,41.258300000000006,239.01000000000002
28.146010000000004,41.258770000000005,233.75
28.145940000000003,41.25936,233.75
28.145730000000004,41.25958000000001,233.75
28.145690000000002,41.25977,233.75
28.145560000000003,41.26005000000001,233.75
28.14543,41.260180000000005,233.75
28.14515,41.260310000000004,233.75
28.144890000000004,41.260360000000006,233.75
28.14457,41.26033,232.9
28.144350000000003,41.260270000000006,232.9
28.14394,41.260270000000006,232.9
28.14373,41.26042,232.9
28.143670000000004,41.2605,232.9
28.142980003032456,41.26078500205089,232.9
28.142290000000003,41.261070000000004,242.69
28.142260000000004,41.26122,242.69
28.142280000000003,41.26138,242.69
28.141920000000002,41.26176,242.69
28.141550000000002,41.262080000000005,242.69
28.141510000000004,41.26231000000001,242.59000000000003
28.14167,41.262750000000004,242.68
28.141610000000004,41.26278000000001,242.68
28.141430000000003,41.26357,242.68
28.141440000000003,41.26384,242.68
28.141530000000003,41.26418,242.68
28.14158,41.26428000000001,246.58
28.14185,41.26467,246.58
28.141900000000003,41.26482,246.58
28.141880000000004,41.26512,246.58
28.141600000000004,41.265730000000005,246.58
28.14139,41.26596000000001,245.59000000000003
28.141230000000004,41.26623,245.59000000000003
28.141080000000002,41.266580000000005,245.27
28.14101,41.266690000000004,245.27
28.140860000000004,41.266940000000005,245.06000000000003
28.14082,41.267340000000004,243.01000000000002
28.140620000000002,41.26766000000001,243.01000000000002
28.14044,41.26793000000001,240.43000000000004
28.14028,41.268,240.43000000000004
28.140889996100398,41.26842500165936,239.64000000000001
28.1415,41.26885,239.64000000000001
28.141360000000002,41.26912,239.64000000000001
28.141360000000002,41.26944,239.64000000000001
28.141320000000004,41.26961,239.64000000000001
28.141060000000003,41.27018,239.64000000000001
28.141040000000004,41.270270000000004,239.64000000000001
28.141080000000002,41.270340000000004,239.64000000000001
28.141620000000003,41.270830000000004,224.73000000000002
28.14168,41.27102,224.73000000000002
28.14168,41.271480000000004,224.73000000000002
28.141610000000004,41.2717,224.73000000000002
28.141420000000004,41.27212,224.73000000000002
28.141360000000002,41.272220000000004,224.73000000000002
28.141240000000003,41.2723,224.73000000000002
28.14083,41.27248,224.73000000000002
28.14130499480299,41.27319500098455,220.67
28.14178,41.27391,218.25000000000003
28.142201980249208,41.27467400309263,214.23
28.142623970376313,41.275438004644414,209.20000000000002
28.143045970381788,41.27620200465526,203.37
28.143467980266117,41.276966003125104,196.09
28.143890000000003,41.277730000000005,187.76000000000002
28.144370000000002,41.27785,185.19000000000003
28.145170000000004,41.27796,185.09
28.145760000000003,41.278090000000006,185.26
28.146150000000002,41.27814,185.29000000000002
28.146790000000003,41.278290000000005,185.69000000000003
28.146950000000004,41.278200000000005,186.50000000000003
28.146790000000003,41.278290000000005,185.69000000000003
28.1475,41.278620000000004,186.03000000000003
28.14767,41.27859,186.17
28.14787,41.278580000000005,186.32000000000002
28.148500000000002,41.27879,186.87
28.148920000000004,41.278890000000004,186.97000000000003
28.14975,41.279050000000005,187.02
28.150340000000003,41.279250000000005,186.06
28.15068,41.27917,185.46
28.151090000000003,41.27942,190.14
28.151929997364913,41.27963000306976,189.3
28.152770000000004,41.27984,189.61
28.153360000000003,41.280150000000006,189.61
28.153850000000002,41.280330000000006,193.69000000000003
28.15415,41.28041,193.69000000000003
28.15473,41.28041,193.69000000000003
28.155359998689644,41.280555001737795,193.69000000000003
28.155990000000003,41.2807,193.69000000000003
28.156470000000002,41.280710000000006,195.71
28.156990000000004,41.28065,195.71
28.15743,41.28041,195.71
28.157700000000002,41.28018,195.71
28.157870000000003,41.28009,195.71
28.158430000000003,41.280120000000004,195.71
28.159380000099386,41.280125003905646,195.71
28.160330000000002,41.28013000000001,212.44000000000003
28.160670000000003,41.28004000000001,212.44000000000003
28.161160000000002,41.28007,212.44000000000003
28.161600000000004,41.28025,212.44000000000003
28.161980000000003,41.28034,212.44000000000003
28.16251,41.28036,212.44000000000003
28.162830000000003,41.280440000000006,212.44000000000003
28.163310000000003,41.28072,220.9
28.163500000000003,41.280770000000004,220.9
28.16374,41.28087,220.9
28.164050000000003,41.28098000000001,220.9
28.164500000000004,41.28097,220.9
28.164710000000003,41.28099,225.64000000000001
28.165000000000003,41.2811,225.64000000000001
28.16542,41.281180000000006,225.64000000000001
28.165670000000002,41.281270000000006,225.64000000000001
28.166290000000004,41.281600000000005,225.64000000000001
28.167030000000004,41.281780000000005,231.05
28.167740000000002,41.282030000000006,231.05
28.16805,41.28222,232.02000000000004
28.168590000000002,41.28247,232.34
28.16889,41.28264,232.88000000000002
28.168910000000004,41.28273,232.88000000000002
28.169140000000002,41.282720000000005,232.88000000000002
28.170069996581876,41.282965003761454,232.88000000000002
28.171000000000003,41.283210000000004,232.88000000000002
28.171380000000003,41.28349,232.88000000000002
28.172220000000003,41.28399,240.69
28.17278499768635,41.28424500133345,240.69
28.173350000000003,41.2845,240.69
28.17368,41.28473,240.69
28.173900000000003,41.284760000000006,240.69
28.17406,41.2847,240.69
28.174290000000003,41.28445000000001,240.69
28.174280000000003,41.284130000000005,240.69
28.174210000000002,41.28401,240.69
28.174190000000003,41.283970000000004,240.74
28.174100000000003,41.28380000000001,240.74
28.17376,41.283,240.74
28.173790000000004,41.282590000000006,240.74
28.174170000000004,41.282160000000005,245.19000000000003
28.17499,41.28181,245.19000000000003
28.17538,41.281710000000004,245.19000000000003
28.175524998555932,41.28237000019293,247.24
28.175670000000004,41.283030000000004,248.27
28.175754999312193,41.283555000006764,248.49
28.17584,41.28408,248.55
28.176180000000002,41.28412,248.55
28.176540000000003,41.28427000000001,248.55
28.17686,41.28445000000001,248.55
28.17723,41.28473,248.69000000000003
28.177580000000003,41.285120000000006,248.69000000000003
28.1777,41.28537,248.69000000000003
28.177920000000004,41.28562,248.69000000000003
28.178230000000003,41.28576,248.69000000000003
28.178510000000003,41.28582,248.69000000000003
28.179060000000003,41.285790000000006,248.69000000000003
28.17969,41.285830000000004,248.69000000000003
28.18007,41.286,239.23000000000002
28.18035,41.2862,239.23000000000002
28.180590000000002,41.28631,239.23000000000002
28.180940000000003,41.286410000000004,239.23000000000002
28.181340000000002,41.286570000000005,239.23000000000002
28.18145,41.28663,239.23000000000002
28.181700000000003,41.287060000000004,239.23000000000002
28.18199999692172,41.28772500034364,239.23000000000002
28.1823,41.28839000000001,239.23000000000002
28.182830000000003,41.28904,239.23000000000002
28.18325,41.289680000000004,239.23000000000002
28.183780000000002,41.29027000000001,239.23000000000002
28.184320000000003,41.29106,236.73000000000002
28.18457,41.291340000000005,236.73000000000002
28.185200000000002,41.291700000000006,236.73000000000002
28.185470000000002,41.292,236.73000000000002
28.185709998211937,41.29248500024163,236.73000000000002
28.185950000000002,41.292970000000004,236.73000000000002
28.186390000000003,41.29343,236.73000000000002
28.186899997367615,41.2937750011693,236.73000000000002
28.187410000000003,41.29412000000001,236.73000000000002
28.187790000000003,41.29428,236.95000000000002
28.188240000000004,41.29496,236.95000000000002
28.18877,41.29554,236.95000000000002
28.189000000000004,41.29574,236.95000000000002
28.18963,41.29634,236.95000000000002
28.189680000000003,41.29646,236.95000000000002
28.189860000000003,41.296710000000004,236.95000000000002
28.190484996206553,41.29712500181183,228.58
28.191110000000002,41.297540000000005,228.58
28.191250000000004,41.29775,228.58
28.191240000000004,41.29791,228.58
28.19169,41.29852,228.58
28.19215,41.29887,228.58
28.192370000000004,41.298950000000005,228.58
28.192510000000002,41.29914,228.58
28.1932,41.299760000000006,228.58
28.192690000000002,41.300090000000004,228.58
28.1922150028155,41.300455000855564,228.58
28.191740000000003,41.30082,228.58
28.19121,41.30118,228.58
28.190700000000003,41.30147,228.58
28.19038,41.301590000000004,228.58
28.190120000000004,41.301640000000006,228.58
28.189740000000004,41.301820000000006,228.58
28.189380000000003,41.30194,228.58
28.188760000000002,41.30238000000001,223.13000000000002
28.188250000000004,41.30266,223.13000000000002
28.188050000000004,41.30284,223.13000000000002
28.187990000000003,41.302980000000005,223.13000000000002
28.187810000000002,41.303270000000005,223.13000000000002
28.187730000000002,41.30348,223.13000000000002
28.187730000000002,41.30364,223.13000000000002
28.187810000000002,41.303760000000004,223.13000000000002
28.18775,41.304320000000004,223.13000000000002
28.187530000000002,41.30507,223.13000000000002
28.187400000000004,41.305420000000005,223.13000000000002
28.18729,41.305490000000006,223.13000000000002
28.187040000000003,41.305930000000004,223.13000000000002
28.187780000000004,41.30595,223.13000000000002
28.188150000000004,41.30585000000001,223.13000000000002
28.18917,41.30572,223.13000000000002
28.189860000000003,41.30581,231.27000000000004
28.190599998171596,41.30596000234397,231.27000000000004
28.191340000000004,41.306110000000004,231.27000000000004
28.192300000000003,41.30622,231.27000000000004
28.19255,41.30641000000001,231.27000000000004
28.192780000000003,41.30655,231.27000000000004
28.193484996829937,41.30684000213651,231.27000000000004
28.194190000000003,41.30713,231.27000000000004
28.194830000000003,41.307550000000006,231.27000000000004
28.195140000000002,41.307790000000004,231.27000000000004
28.19543,41.308130000000006,231.27000000000004
28.19572,41.30836,222.06
28.195940000000004,41.30848,222.06
28.19611,41.308710000000005,222.06
28.19656,41.30895,222.06
28.197360000000003,41.30959,222.06
28.197680000000002,41.31002,222.06
28.198129997519665,41.31038500090793,222.06
28.198580000000003,41.310750000000006,222.06
28.198980000000002,41.311,222.06
28.199810000000003,41.311460000000004,222.84
28.20003,41.31172,222.84
28.200400000000002,41.31201,222.84
28.200570000000003,41.3121,222.84
28.20088,41.31248,222.84
28.201150000000002,41.31291,222.84
28.201520000000002,41.31331,222.84
28.201880000000003,41.31374,222.84
28.202080000000002,41.313900000000004,222.84
28.20258,41.314530000000005,222.84
28.20294,41.314840000000004,231.16000000000003
28.20306,41.31521,231.16000000000003
28.203260000000004,41.31546,231.16000000000003
28.203360000000004,41.31577,231.16000000000003
28.203360000000004,41.31606,231.16000000000003
28.203480000000003,41.316320000000005,231.16000000000003
28.203740000000003,41.316590000000005,231.16000000000003
28.203960000000002,41.31691,231.16000000000003
28.203930000000003,41.316860000000005,231.09
28.204220000000003,41.317330000000005,231.09
28.204430000000002,41.31754,232.79000000000002
28.204580000000004,41.317600000000006,232.79000000000002
28.20465,41.317750000000004,232.79000000000002
28.20358714188917,41.31774002933071,229.92000000000002
28.202524284103678,41.31773004888453,224.61
28.201461426643856,41.31772005866148,222.65
28.20039856951001,41.31771005866155,217.73
28.199335712702464,41.317700048884774,214.03000000000003
28.19827285622154,41.31769002933114,216.44000000000003
28.197210000000002,41.31768,220.41000000000003
28.196053333026907,41.31767669561381,221.81
28.194896666171296,41.31767337964875,222.35000000000002
28.19373999943359,41.31767005210483,220.18
28.19258333281419,41.317666712982025,216.3
28.191426666313507,41.317663362280356,216.75000000000003
28.19027,41.317660000000004,217.74
28.190330000000003,41.31756,217.39000000000001
28.19027,41.317660000000004,217.74
28.18964,41.317660000000004,217.32000000000002
28.190020000000004,41.3183,217.55
28.190396658850663,41.31897666790423,217.55
28.190773325522596,41.31965333458059,217.98
28.191150000000004,41.320330000000006,217.98
28.191270000000003,41.32049000000001,217.98
28.19142,41.32059,217.98
28.191460000000003,41.320750000000004,217.98
28.191899985060086,41.321487502510486,217.98
28.19233998007867,41.322225003345444,216.00000000000003
28.19277998505622,41.32296250250484,216.00000000000003
28.193220000000004,41.3237,216.00000000000003
28.193645981784655,41.324396003117336,216.00000000000003
28.194071972669267,41.32509200466411,216.00000000000003
28.194497972654222,41.325788004640245,216.00000000000003
28.19492398173991,41.326484003045685,216.00000000000003
28.19535,41.327180000000006,216.00000000000003
28.195753983269107,41.32785400280236,216.63000000000002
28.19615797489644,41.328528004192144,216.63000000000002
28.19656197488237,41.32920200416933,216.63000000000002
28.196965983227248,41.329876002733826,216.63000000000002
28.197370000000003,41.33055,216.63000000000002
28.197490000000002,41.33059,216.63000000000002
28.197540000000004,41.330690000000004,216.63000000000002
28.19742,41.33082,216.63000000000002
28.19743,41.330920000000006,216.63000000000002
28.197570000000002,41.33095,216.63000000000002
28.197940000000003,41.33149,216.63000000000002
28.198100000000004,41.331590000000006,216.63000000000002
28.198330000000002,41.331810000000004,216.63000000000002
28.19874,41.332,216.63000000000002
28.19873,41.332280000000004,216.63000000000002
28.198680000000003,41.33236,216.63000000000002
28.19855,41.332480000000004,216.63000000000002
28.198849997513374,41.33301500034881,216.63000000000002
28.199150000000003,41.33355,216.63000000000002
28.199596656611238,41.334283335062835,236.61
28.200043323279385,41.33501666839888,236.61
28.200490000000002,41.335750000000004,236.61
28.200390000000002,41.33587,236.71000000000004
28.200400000000002,41.33587,236.70000000000002
28.200490000000002,41.335750000000004,236.61
28.20061,41.33545,236.61
28.200930000000003,41.334920000000004,236.61
28.201240000000002,41.33435,236.61
28.201660000000004,41.33381000000001,233.25
28.201870000000003,41.3333,233.25
28.202170000000002,41.33279,233.25
28.202735006129053,41.33208500136326,235.02
28.203300000000002,41.33138,235.02
28.20361,41.330850000000005,234.36
28.2037,41.33053,234.36
28.203960000000002,41.33037,234.36
28.204040000000003,41.3299,234.16
28.20416,41.32968,234.16
28.204250000000002,41.328880000000005,233.37
28.20435,41.32853,233.37
28.204500000000003,41.32836,232.31
28.20465,41.32811,232.31
28.204520000000002,41.32793,232.93000000000004
28.204510000000003,41.3277,232.93000000000004
28.204580000000004,41.32717,233.9
28.20473,41.32654,233.9
28.20502,41.32594,233.9
28.2052,41.325720000000004,235.5
28.20557,41.324940000000005,235.5
28.205730000000003,41.32446,235.5
28.2059750020412,41.32390000040667,236.41
28.206220000000002,41.32334,236.41
28.206480000000003,41.322880000000005,236.41
28.206845004449864,41.32209000052214,238.61
28.207210000000003,41.3213,238.61
28.207320000000003,41.32065,238.61
28.207420000000003,41.320440000000005,238.61
28.207600000000003,41.320280000000004,238.61
28.207880000000003,41.320130000000006,238.61
28.20822,41.319840000000006,238.61
28.20872500484311,41.31922500100883,232.20000000000002
28.20923,41.31861000000001,232.20000000000002
28.20972,41.31804,232.20000000000002
28.20981,41.317730000000005,232.20000000000002
28.210060000000002,41.317730000000005,231.73000000000002
28.210030000000003,41.317730000000005,231.76000000000002
28.21036,41.317730000000005,231.07000000000002
28.211070000000003,41.317080000000004,229.11
28.211330000000004,41.31689,229.11
28.211550000000003,41.316790000000005,229.11
28.21215,41.316460000000006,229.11
28.21253,41.31627,229.11
28.212730000000004,41.316120000000005,229.11
28.213,41.315960000000004,229.11
28.21338,41.315780000000004,229.11
28.214270000000003,41.315670000000004,217.00000000000003
28.214720000000003,41.31557,217.00000000000003
28.21525,41.31535,217.00000000000003
28.215680000000003,41.31513,217.00000000000003
28.215960000000003,41.314840000000004,217.00000000000003
28.216610000000003,41.31436,217.00000000000003
28.21685,41.31412,217.00000000000003
28.216790000000003,41.313680000000005,217.00000000000003
28.216820000000002,41.31311,217.00000000000003
28.21703,41.31262,217.00000000000003
28.21720000136852,41.31209500012672,217.00000000000003
28.217370000000003,41.31157,217.00000000000003
28.217610000000004,41.311220000000006,217.00000000000003
28.21805000235438,41.31084500098822,194.38000000000002
28.218490000000003,41.31047,194.38000000000002
28.218970000000002,41.30984,194.38000000000002
28.219410000000003,41.309610000000006,194.38000000000002
28.220050000000004,41.30901,194.38000000000002
28.22033,41.30886,194.38000000000002
28.220750000000002,41.308420000000005,194.38000000000002
28.22108,41.308150000000005,194.38000000000002
28.22117,41.307950000000005,194.38000000000002
28.22108,41.307700000000004,194.38000000000002
28.22125,41.306830000000005,194.38000000000002
28.22131500048197,41.306359999921135,194.38000000000002
28.221380000000003,41.305890000000005,194.38000000000002
28.221530003692127,41.30508666688169,192.70000000000002
28.22168000368827,41.30428333356868,192.70000000000002
28.22183,41.30348,192.70000000000002
28.221700000000002,41.3036,192.32000000000002
28.221500000000002,41.303630000000005,191.65
28.22134,41.303580000000004,191.65
28.220910000000003,41.30304,189.94000000000003
28.220900000000004,41.30292,189.94000000000003
28.220940000000002,41.30277,189.94000000000003
28.221000000000004,41.30266,189.94000000000003
28.221000000000004,41.302580000000006,189.94000000000003
28.220720000000004,41.30192,189.94000000000003
28.220550000000003,41.30145,187.14000000000001
28.220540000000003,41.301230000000004,187.14000000000001
28.220740000000003,41.301100000000005,187.14000000000001
28.220940000000002,41.301050000000004,187.14000000000001
28.22117,41.30111,187.14000000000001
28.221410000000002,41.301120000000004,187.14000000000001
28.221650000000004,41.30111,187.14000000000001
28.221770000000003,41.30106000000001,187.14000000000001
        </coordinates>
      </LineString>
    </Placemark>
  </Document>
</kml>
