<?xml version="1.0" encoding="UTF-8"?>
<gpx creator="StravaGPX" version="1.1" xmlns="http://www.topografix.com/GPX/1/1" xmlns:xsi="http://www.w3.org/2001/XMLSchema-instance" xsi:schemaLocation="http://www.topografix.com/GPX/1/1 http://www.topografix.com/GPX/1/1/gpx.xsd">
 <metadata>
  <name>SİLİVRİ ULTRA TRAİL 8K</name>
  <author>
   <name>Özgür Ak</name>
   <link href="https://www.strava.com/athletes/49360761"/>
  </author>
  <copyright author="OpenStreetMap contributors">
   <year>2020</year>
   <license>https://www.openstreetmap.org/copyright</license>
  </copyright>
  <link href="https://www.strava.com/routes/3528357568846090446"/>
 </metadata>
 <trk>
  <name>SİLİVRİ ULTRA TRAİL 8K</name>
  <link href="https://www.strava.com/routes/3528357568846090446"/>
  <type>running</type>
  <trkseg>
   <trkpt lat="41.30111" lon="28.221330000000002">
    <ele>187.47000000000003</ele>
   </trkpt>
   <trkpt lat="41.30111" lon="28.221650000000004">
    <ele>187.47000000000003</ele>
   </trkpt>
   <trkpt lat="41.30104" lon="28.221850000000003">
    <ele>186.7</ele>
   </trkpt>
   <trkpt lat="41.301" lon="28.222080000000002">
    <ele>186.7</ele>
   </trkpt>
   <trkpt lat="41.30097000000001" lon="28.22237">
    <ele>186.7</ele>
   </trkpt>
   <trkpt lat="41.3006" lon="28.222360000000002">
    <ele>185.95</ele>
   </trkpt>
   <trkpt lat="41.300270000000005" lon="28.222490000000004">
    <ele>185.95</ele>
   </trkpt>
   <trkpt lat="41.30006" lon="28.222550000000002">
    <ele>185.95</ele>
   </trkpt>
   <trkpt lat="41.29946" lon="28.222440000000002">
    <ele>185.95</ele>
   </trkpt>
   <trkpt lat="41.299020000000006" lon="28.222310000000004">
    <ele>185.95</ele>
   </trkpt>
   <trkpt lat="41.29815500015613" lon="28.222104997275142">
    <ele>192.64000000000001</ele>
   </trkpt>
   <trkpt lat="41.297290000000004" lon="28.2219">
    <ele>192.64000000000001</ele>
   </trkpt>
   <trkpt lat="41.29684" lon="28.22173">
    <ele>192.64000000000001</ele>
   </trkpt>
   <trkpt lat="41.29654" lon="28.22171">
    <ele>192.64000000000001</ele>
   </trkpt>
   <trkpt lat="41.296380000000006" lon="28.221740000000004">
    <ele>192.64000000000001</ele>
   </trkpt>
   <trkpt lat="41.295950000000005" lon="28.22211">
    <ele>192.64000000000001</ele>
   </trkpt>
   <trkpt lat="41.29551500053709" lon="28.222460002328432">
    <ele>192.64000000000001</ele>
   </trkpt>
   <trkpt lat="41.295080000000006" lon="28.222810000000003">
    <ele>192.64000000000001</ele>
   </trkpt>
   <trkpt lat="41.29506000000001" lon="28.222910000000002">
    <ele>192.64000000000001</ele>
   </trkpt>
   <trkpt lat="41.29507" lon="28.223150000000004">
    <ele>192.64000000000001</ele>
   </trkpt>
   <trkpt lat="41.295" lon="28.223290000000002">
    <ele>192.64000000000001</ele>
   </trkpt>
   <trkpt lat="41.29467" lon="28.2235">
    <ele>192.64000000000001</ele>
   </trkpt>
   <trkpt lat="41.29430000000001" lon="28.223900000000004">
    <ele>192.64000000000001</ele>
   </trkpt>
   <trkpt lat="41.293890000000005" lon="28.22444">
    <ele>192.64000000000001</ele>
   </trkpt>
   <trkpt lat="41.29375" lon="28.224750000000004">
    <ele>192.64000000000001</ele>
   </trkpt>
   <trkpt lat="41.29363" lon="28.224930000000004">
    <ele>192.64000000000001</ele>
   </trkpt>
   <trkpt lat="41.29348" lon="28.225030000000004">
    <ele>170.90000000000003</ele>
   </trkpt>
   <trkpt lat="41.292860000000005" lon="28.224970000000003">
    <ele>170.90000000000003</ele>
   </trkpt>
   <trkpt lat="41.29229" lon="28.22529">
    <ele>170.90000000000003</ele>
   </trkpt>
   <trkpt lat="41.291990000000006" lon="28.225430000000003">
    <ele>170.90000000000003</ele>
   </trkpt>
   <trkpt lat="41.29162" lon="28.225510000000003">
    <ele>170.90000000000003</ele>
   </trkpt>
   <trkpt lat="41.29085500018558" lon="28.225635004400043">
    <ele>170.90000000000003</ele>
   </trkpt>
   <trkpt lat="41.290090000235935" lon="28.2257600058685">
    <ele>170.90000000000003</ele>
   </trkpt>
   <trkpt lat="41.28932500015108" lon="28.22588500440553">
    <ele>170.90000000000003</ele>
   </trkpt>
   <trkpt lat="41.288560000000004" lon="28.226010000000002">
    <ele>170.90000000000003</ele>
   </trkpt>
   <trkpt lat="41.28797" lon="28.22612">
    <ele>166.35000000000002</ele>
   </trkpt>
   <trkpt lat="41.28779" lon="28.22622">
    <ele>166.35000000000002</ele>
   </trkpt>
   <trkpt lat="41.287670000000006" lon="28.22624">
    <ele>166.35000000000002</ele>
   </trkpt>
   <trkpt lat="41.28797" lon="28.226620000000004">
    <ele>166.22</ele>
   </trkpt>
   <trkpt lat="41.287960000000005" lon="28.2266">
    <ele>166.22</ele>
   </trkpt>
   <trkpt lat="41.28808" lon="28.226760000000002">
    <ele>166.22</ele>
   </trkpt>
   <trkpt lat="41.28817" lon="28.227020000000003">
    <ele>166.22</ele>
   </trkpt>
   <trkpt lat="41.28884" lon="28.22764">
    <ele>166.22</ele>
   </trkpt>
   <trkpt lat="41.28893" lon="28.227770000000003">
    <ele>166.22</ele>
   </trkpt>
   <trkpt lat="41.28889" lon="28.22809">
    <ele>166.22</ele>
   </trkpt>
   <trkpt lat="41.288940000000004" lon="28.228430000000003">
    <ele>166.22</ele>
   </trkpt>
   <trkpt lat="41.28898" lon="28.22857">
    <ele>165.02</ele>
   </trkpt>
   <trkpt lat="41.28913" lon="28.228640000000002">
    <ele>165.02</ele>
   </trkpt>
   <trkpt lat="41.289570000000005" lon="28.22875">
    <ele>165.02</ele>
   </trkpt>
   <trkpt lat="41.29027000000001" lon="28.228980000000004">
    <ele>165.02</ele>
   </trkpt>
   <trkpt lat="41.290620000000004" lon="28.228980000000004">
    <ele>165.02</ele>
   </trkpt>
   <trkpt lat="41.2907" lon="28.229020000000002">
    <ele>165.02</ele>
   </trkpt>
   <trkpt lat="41.29088" lon="28.229020000000002">
    <ele>165.02</ele>
   </trkpt>
   <trkpt lat="41.29139000000001" lon="28.22913">
    <ele>165.02</ele>
   </trkpt>
   <trkpt lat="41.291560000000004" lon="28.229210000000002">
    <ele>165.02</ele>
   </trkpt>
   <trkpt lat="41.29184" lon="28.2295">
    <ele>165.02</ele>
   </trkpt>
   <trkpt lat="41.29211" lon="28.229660000000003">
    <ele>165.02</ele>
   </trkpt>
   <trkpt lat="41.29245" lon="28.229760000000002">
    <ele>165.02</ele>
   </trkpt>
   <trkpt lat="41.292840000000005" lon="28.22978">
    <ele>165.02</ele>
   </trkpt>
   <trkpt lat="41.29323" lon="28.229680000000002">
    <ele>165.02</ele>
   </trkpt>
   <trkpt lat="41.29345" lon="28.22942">
    <ele>165.02</ele>
   </trkpt>
   <trkpt lat="41.293760000000006" lon="28.229100000000003">
    <ele>164.66</ele>
   </trkpt>
   <trkpt lat="41.29426" lon="28.228690000000004">
    <ele>164.66</ele>
   </trkpt>
   <trkpt lat="41.29462" lon="28.228520000000003">
    <ele>164.66</ele>
   </trkpt>
   <trkpt lat="41.294920000000005" lon="28.228510000000004">
    <ele>164.66</ele>
   </trkpt>
   <trkpt lat="41.29527" lon="28.22867">
    <ele>164.66</ele>
   </trkpt>
   <trkpt lat="41.29565" lon="28.22905">
    <ele>164.66</ele>
   </trkpt>
   <trkpt lat="41.296290000000006" lon="28.229750000000003">
    <ele>164.66</ele>
   </trkpt>
   <trkpt lat="41.296260000000004" lon="28.229720000000004">
    <ele>164.67000000000002</ele>
   </trkpt>
   <trkpt lat="41.29636" lon="28.229820000000004">
    <ele>164.67000000000002</ele>
   </trkpt>
   <trkpt lat="41.29655" lon="28.230100000000004">
    <ele>164.67000000000002</ele>
   </trkpt>
   <trkpt lat="41.29672" lon="28.230570000000004">
    <ele>164.67000000000002</ele>
   </trkpt>
   <trkpt lat="41.29674000000001" lon="28.231320000000004">
    <ele>164.67000000000002</ele>
   </trkpt>
   <trkpt lat="41.29697" lon="28.231720000000003">
    <ele>164.51000000000002</ele>
   </trkpt>
   <trkpt lat="41.296850000000006" lon="28.231880000000004">
    <ele>164.51000000000002</ele>
   </trkpt>
   <trkpt lat="41.29663" lon="28.23243">
    <ele>164.51000000000002</ele>
   </trkpt>
   <trkpt lat="41.296380000000006" lon="28.232730000000004">
    <ele>164.51000000000002</ele>
   </trkpt>
   <trkpt lat="41.29637" lon="28.232830000000003">
    <ele>164.51000000000002</ele>
   </trkpt>
   <trkpt lat="41.2965" lon="28.233020000000003">
    <ele>164.51000000000002</ele>
   </trkpt>
   <trkpt lat="41.296710000000004" lon="28.233220000000003">
    <ele>164.51000000000002</ele>
   </trkpt>
   <trkpt lat="41.29692" lon="28.233320000000003">
    <ele>164.51000000000002</ele>
   </trkpt>
   <trkpt lat="41.29713" lon="28.233330000000002">
    <ele>164.51000000000002</ele>
   </trkpt>
   <trkpt lat="41.297320000000006" lon="28.233220000000003">
    <ele>164.51000000000002</ele>
   </trkpt>
   <trkpt lat="41.29764" lon="28.233210000000003">
    <ele>164.51000000000002</ele>
   </trkpt>
   <trkpt lat="41.29789" lon="28.233290000000004">
    <ele>164.51000000000002</ele>
   </trkpt>
   <trkpt lat="41.29804" lon="28.233220000000003">
    <ele>164.51000000000002</ele>
   </trkpt>
   <trkpt lat="41.298230000000004" lon="28.23316">
    <ele>164.51000000000002</ele>
   </trkpt>
   <trkpt lat="41.298410000000004" lon="28.233150000000002">
    <ele>164.51000000000002</ele>
   </trkpt>
   <trkpt lat="41.2986" lon="28.233240000000002">
    <ele>164.51000000000002</ele>
   </trkpt>
   <trkpt lat="41.299080001420506" lon="28.233789996080073">
    <ele>164.51000000000002</ele>
   </trkpt>
   <trkpt lat="41.29956000000001" lon="28.234340000000003">
    <ele>158.93</ele>
   </trkpt>
   <trkpt lat="41.29975" lon="28.234430000000003">
    <ele>158.93</ele>
   </trkpt>
   <trkpt lat="41.30012000000001" lon="28.2345">
    <ele>158.93</ele>
   </trkpt>
   <trkpt lat="41.300560000000004" lon="28.234700000000004">
    <ele>158.93</ele>
   </trkpt>
   <trkpt lat="41.300900000000006" lon="28.23496">
    <ele>158.93</ele>
   </trkpt>
   <trkpt lat="41.301320000000004" lon="28.235180000000003">
    <ele>158.93</ele>
   </trkpt>
   <trkpt lat="41.30162000000001" lon="28.235200000000003">
    <ele>158.93</ele>
   </trkpt>
   <trkpt lat="41.30189" lon="28.235110000000002">
    <ele>158.93</ele>
   </trkpt>
   <trkpt lat="41.3021" lon="28.235110000000002">
    <ele>158.93</ele>
   </trkpt>
   <trkpt lat="41.30225" lon="28.23522">
    <ele>158.93</ele>
   </trkpt>
   <trkpt lat="41.3029" lon="28.2358">
    <ele>158.93</ele>
   </trkpt>
   <trkpt lat="41.30308" lon="28.235820000000004">
    <ele>159.78</ele>
   </trkpt>
   <trkpt lat="41.3031" lon="28.235820000000004">
    <ele>159.82999999999998</ele>
   </trkpt>
   <trkpt lat="41.30315" lon="28.235830000000004">
    <ele>159.82999999999998</ele>
   </trkpt>
   <trkpt lat="41.30348" lon="28.235760000000003">
    <ele>163.18</ele>
   </trkpt>
   <trkpt lat="41.303740000000005" lon="28.23552">
    <ele>163.18</ele>
   </trkpt>
   <trkpt lat="41.303650000000005" lon="28.23544">
    <ele>163.4</ele>
   </trkpt>
   <trkpt lat="41.30346" lon="28.235110000000002">
    <ele>163.61</ele>
   </trkpt>
   <trkpt lat="41.30341000000001" lon="28.23485">
    <ele>163.92000000000002</ele>
   </trkpt>
   <trkpt lat="41.30350000000001" lon="28.234510000000004">
    <ele>164.12</ele>
   </trkpt>
   <trkpt lat="41.30373" lon="28.234650000000002">
    <ele>164.12</ele>
   </trkpt>
   <trkpt lat="41.30397000000001" lon="28.23467">
    <ele>164.12</ele>
   </trkpt>
   <trkpt lat="41.304460000000006" lon="28.23486">
    <ele>164.12</ele>
   </trkpt>
   <trkpt lat="41.30467" lon="28.23496">
    <ele>164.12</ele>
   </trkpt>
   <trkpt lat="41.30500000000001" lon="28.234880000000004">
    <ele>164.12</ele>
   </trkpt>
   <trkpt lat="41.30584" lon="28.235170000000004">
    <ele>189.47000000000003</ele>
   </trkpt>
   <trkpt lat="41.306340000000006" lon="28.235450000000004">
    <ele>189.47000000000003</ele>
   </trkpt>
   <trkpt lat="41.306400000000004" lon="28.235560000000003">
    <ele>189.47000000000003</ele>
   </trkpt>
   <trkpt lat="41.306760000000004" lon="28.23542">
    <ele>189.47000000000003</ele>
   </trkpt>
   <trkpt lat="41.30711" lon="28.23515">
    <ele>189.47000000000003</ele>
   </trkpt>
   <trkpt lat="41.30772" lon="28.234520000000003">
    <ele>189.47000000000003</ele>
   </trkpt>
   <trkpt lat="41.307930000000006" lon="28.233980000000003">
    <ele>194.97</ele>
   </trkpt>
   <trkpt lat="41.30821" lon="28.23372">
    <ele>194.97</ele>
   </trkpt>
   <trkpt lat="41.308350000000004" lon="28.233430000000002">
    <ele>194.97</ele>
   </trkpt>
   <trkpt lat="41.308460000000004" lon="28.233290000000004">
    <ele>194.97</ele>
   </trkpt>
   <trkpt lat="41.30868" lon="28.233120000000003">
    <ele>194.97</ele>
   </trkpt>
   <trkpt lat="41.30875" lon="28.232960000000002">
    <ele>194.97</ele>
   </trkpt>
   <trkpt lat="41.308620000000005" lon="28.23288">
    <ele>194.01000000000002</ele>
   </trkpt>
   <trkpt lat="41.308600000000006" lon="28.232870000000002">
    <ele>193.88000000000002</ele>
   </trkpt>
   <trkpt lat="41.30875" lon="28.232960000000002">
    <ele>194.97</ele>
   </trkpt>
   <trkpt lat="41.308820000000004" lon="28.232870000000002">
    <ele>194.97</ele>
   </trkpt>
   <trkpt lat="41.30892" lon="28.232460000000003">
    <ele>194.97</ele>
   </trkpt>
   <trkpt lat="41.309000000000005" lon="28.23194">
    <ele>194.97</ele>
   </trkpt>
   <trkpt lat="41.30908" lon="28.231720000000003">
    <ele>194.97</ele>
   </trkpt>
   <trkpt lat="41.309200000000004" lon="28.231600000000004">
    <ele>194.97</ele>
   </trkpt>
   <trkpt lat="41.30935" lon="28.231520000000003">
    <ele>194.97</ele>
   </trkpt>
   <trkpt lat="41.30944" lon="28.231420000000004">
    <ele>194.97</ele>
   </trkpt>
   <trkpt lat="41.30969" lon="28.23084">
    <ele>194.97</ele>
   </trkpt>
   <trkpt lat="41.30977" lon="28.230780000000003">
    <ele>194.97</ele>
   </trkpt>
   <trkpt lat="41.309850000000004" lon="28.230750000000004">
    <ele>194.97</ele>
   </trkpt>
   <trkpt lat="41.31007" lon="28.230770000000003">
    <ele>194.97</ele>
   </trkpt>
   <trkpt lat="41.310370000000006" lon="28.230700000000002">
    <ele>203.39000000000001</ele>
   </trkpt>
   <trkpt lat="41.310570000000006" lon="28.230580000000003">
    <ele>203.39000000000001</ele>
   </trkpt>
   <trkpt lat="41.31085" lon="28.23036">
    <ele>203.39000000000001</ele>
   </trkpt>
   <trkpt lat="41.31123" lon="28.230280000000004">
    <ele>203.39000000000001</ele>
   </trkpt>
   <trkpt lat="41.31129000000001" lon="28.230300000000003">
    <ele>203.39000000000001</ele>
   </trkpt>
   <trkpt lat="41.31166" lon="28.230230000000002">
    <ele>203.39000000000001</ele>
   </trkpt>
   <trkpt lat="41.31192" lon="28.230240000000002">
    <ele>203.39000000000001</ele>
   </trkpt>
   <trkpt lat="41.31208" lon="28.23009">
    <ele>203.39000000000001</ele>
   </trkpt>
   <trkpt lat="41.312200000000004" lon="28.23006">
    <ele>203.39000000000001</ele>
   </trkpt>
   <trkpt lat="41.31239" lon="28.230110000000003">
    <ele>203.39000000000001</ele>
   </trkpt>
   <trkpt lat="41.31259" lon="28.230050000000002">
    <ele>203.39000000000001</ele>
   </trkpt>
   <trkpt lat="41.313010000000006" lon="28.230030000000003">
    <ele>203.39000000000001</ele>
   </trkpt>
   <trkpt lat="41.313300000000005" lon="28.23006">
    <ele>203.39000000000001</ele>
   </trkpt>
   <trkpt lat="41.31356" lon="28.22999">
    <ele>203.39000000000001</ele>
   </trkpt>
   <trkpt lat="41.314040000000006" lon="28.23006">
    <ele>203.39000000000001</ele>
   </trkpt>
   <trkpt lat="41.314370000000004" lon="28.23017">
    <ele>203.39000000000001</ele>
   </trkpt>
   <trkpt lat="41.31483" lon="28.230120000000003">
    <ele>202.74</ele>
   </trkpt>
   <trkpt lat="41.31514000000001" lon="28.229950000000002">
    <ele>202.74</ele>
   </trkpt>
   <trkpt lat="41.31561000000001" lon="28.22943">
    <ele>202.74</ele>
   </trkpt>
   <trkpt lat="41.31575" lon="28.22932">
    <ele>202.74</ele>
   </trkpt>
   <trkpt lat="41.31582" lon="28.22912">
    <ele>202.74</ele>
   </trkpt>
   <trkpt lat="41.31584" lon="28.228910000000003">
    <ele>202.74</ele>
   </trkpt>
   <trkpt lat="41.3158" lon="28.22866">
    <ele>202.74</ele>
   </trkpt>
   <trkpt lat="41.31570000000001" lon="28.228440000000003">
    <ele>202.74</ele>
   </trkpt>
   <trkpt lat="41.31568" lon="28.228410000000004">
    <ele>202.74</ele>
   </trkpt>
   <trkpt lat="41.315470000000005" lon="28.228170000000002">
    <ele>202.74</ele>
   </trkpt>
   <trkpt lat="41.315340000000006" lon="28.227960000000003">
    <ele>202.74</ele>
   </trkpt>
   <trkpt lat="41.31521" lon="28.227960000000003">
    <ele>202.74</ele>
   </trkpt>
   <trkpt lat="41.31494" lon="28.227790000000002">
    <ele>202.74</ele>
   </trkpt>
   <trkpt lat="41.31463" lon="28.227400000000003">
    <ele>202.74</ele>
   </trkpt>
   <trkpt lat="41.314225000981516" lon="28.226939997216828">
    <ele>202.74</ele>
   </trkpt>
   <trkpt lat="41.31382000000001" lon="28.226480000000002">
    <ele>202.04000000000002</ele>
   </trkpt>
   <trkpt lat="41.31342" lon="28.226070000000004">
    <ele>202.04000000000002</ele>
   </trkpt>
   <trkpt lat="41.31306" lon="28.225970000000004">
    <ele>202.04000000000002</ele>
   </trkpt>
   <trkpt lat="41.31268" lon="28.22593">
    <ele>202.04000000000002</ele>
   </trkpt>
   <trkpt lat="41.312490000000004" lon="28.225800000000003">
    <ele>202.04000000000002</ele>
   </trkpt>
   <trkpt lat="41.31226" lon="28.225740000000002">
    <ele>202.04000000000002</ele>
   </trkpt>
   <trkpt lat="41.31148499992689" lon="28.225805000780383">
    <ele>202.04000000000002</ele>
   </trkpt>
   <trkpt lat="41.31071" lon="28.225870000000004">
    <ele>202.04000000000002</ele>
   </trkpt>
   <trkpt lat="41.310460000000006" lon="28.22613">
    <ele>202.04000000000002</ele>
   </trkpt>
   <trkpt lat="41.310280000000006" lon="28.22604">
    <ele>202.04000000000002</ele>
   </trkpt>
   <trkpt lat="41.310120000000005" lon="28.22603">
    <ele>202.04000000000002</ele>
   </trkpt>
   <trkpt lat="41.30969000027029" lon="28.226315001933518">
    <ele>174.32</ele>
   </trkpt>
   <trkpt lat="41.30926" lon="28.2266">
    <ele>174.32</ele>
   </trkpt>
   <trkpt lat="41.30923000000001" lon="28.2268">
    <ele>174.32</ele>
   </trkpt>
   <trkpt lat="41.308930000000004" lon="28.226950000000002">
    <ele>174.32</ele>
   </trkpt>
   <trkpt lat="41.30838000000001" lon="28.22718">
    <ele>174.32</ele>
   </trkpt>
   <trkpt lat="41.308170000000004" lon="28.227090000000004">
    <ele>174.32</ele>
   </trkpt>
   <trkpt lat="41.307493334941995" lon="28.226659991080247">
    <ele>174.32</ele>
   </trkpt>
   <trkpt lat="41.3068166682838" lon="28.226229991085763">
    <ele>174.32</ele>
   </trkpt>
   <trkpt lat="41.306140000000006" lon="28.225800000000003">
    <ele>174.32</ele>
   </trkpt>
   <trkpt lat="41.30542750302774" lon="28.22531748418723">
    <ele>195.37</ele>
   </trkpt>
   <trkpt lat="41.30471500404064" lon="28.22483497891913">
    <ele>195.37</ele>
   </trkpt>
   <trkpt lat="41.304002503038795" lon="28.224352484195244">
    <ele>195.37</ele>
   </trkpt>
   <trkpt lat="41.303290000000004" lon="28.22387">
    <ele>195.37</ele>
   </trkpt>
   <trkpt lat="41.30319" lon="28.223750000000003">
    <ele>195.37</ele>
   </trkpt>
   <trkpt lat="41.30315" lon="28.223860000000002">
    <ele>195.38000000000002</ele>
   </trkpt>
   <trkpt lat="41.30322" lon="28.224010000000003">
    <ele>194.44000000000003</ele>
   </trkpt>
   <trkpt lat="41.303250000000006" lon="28.224120000000003">
    <ele>194.44000000000003</ele>
   </trkpt>
   <trkpt lat="41.30324" lon="28.224110000000003">
    <ele>194.47</ele>
   </trkpt>
   <trkpt lat="41.30322" lon="28.224010000000003">
    <ele>194.47</ele>
   </trkpt>
   <trkpt lat="41.30315" lon="28.223860000000002">
    <ele>195.38000000000002</ele>
   </trkpt>
   <trkpt lat="41.30319" lon="28.223750000000003">
    <ele>195.37</ele>
   </trkpt>
   <trkpt lat="41.303200001552796" lon="28.22315000038872">
    <ele>195.37</ele>
   </trkpt>
   <trkpt lat="41.30321" lon="28.222550000000002">
    <ele>192.70000000000002</ele>
   </trkpt>
   <trkpt lat="41.303250000000006" lon="28.222330000000003">
    <ele>192.70000000000002</ele>
   </trkpt>
   <trkpt lat="41.303290000000004" lon="28.222210000000004">
    <ele>192.70000000000002</ele>
   </trkpt>
   <trkpt lat="41.30341000000001" lon="28.222060000000003">
    <ele>192.70000000000002</ele>
   </trkpt>
   <trkpt lat="41.30348" lon="28.22183">
    <ele>192.70000000000002</ele>
   </trkpt>
   <trkpt lat="41.3036" lon="28.221700000000002">
    <ele>192.46</ele>
   </trkpt>
   <trkpt lat="41.303630000000005" lon="28.221500000000002">
    <ele>191.8</ele>
   </trkpt>
   <trkpt lat="41.303580000000004" lon="28.22134">
    <ele>191.39000000000001</ele>
   </trkpt>
   <trkpt lat="41.303560000000004" lon="28.221330000000002">
    <ele>191.33</ele>
   </trkpt>
   <trkpt lat="41.30304" lon="28.220910000000003">
    <ele>189.94000000000003</ele>
   </trkpt>
   <trkpt lat="41.30292" lon="28.220900000000004">
    <ele>189.94000000000003</ele>
   </trkpt>
   <trkpt lat="41.30277" lon="28.220940000000002">
    <ele>189.94000000000003</ele>
   </trkpt>
   <trkpt lat="41.30266" lon="28.221000000000004">
    <ele>189.94000000000003</ele>
   </trkpt>
   <trkpt lat="41.302580000000006" lon="28.221000000000004">
    <ele>189.94000000000003</ele>
   </trkpt>
   <trkpt lat="41.30192" lon="28.220720000000004">
    <ele>189.94000000000003</ele>
   </trkpt>
   <trkpt lat="41.30145" lon="28.220550000000003">
    <ele>187.45</ele>
   </trkpt>
   <trkpt lat="41.301230000000004" lon="28.220540000000003">
    <ele>187.45</ele>
   </trkpt>
   <trkpt lat="41.301100000000005" lon="28.220740000000003">
    <ele>187.45</ele>
   </trkpt>
   <trkpt lat="41.301050000000004" lon="28.220940000000002">
    <ele>187.45</ele>
   </trkpt>
   <trkpt lat="41.30111" lon="28.22117">
    <ele>187.45</ele>
   </trkpt>
   <trkpt lat="41.30111" lon="28.221370000000004">
    <ele>187.45</ele>
   </trkpt>
  </trkseg>
 </trk>
</gpx>
