<?xml version="1.0" encoding="UTF-8"?>
<gpx creator="StravaGPX" version="1.1" xmlns="http://www.topografix.com/GPX/1/1" xmlns:xsi="http://www.w3.org/2001/XMLSchema-instance" xsi:schemaLocation="http://www.topografix.com/GPX/1/1 http://www.topografix.com/GPX/1/1/gpx.xsd">
 <metadata>
  <name>SİLİVRİ ULTRA TRAIL 38K</name>
  <author>
   <name>Özgür Ak</name>
   <link href="https://www.strava.com/athletes/49360761"/>
  </author>
  <copyright author="OpenStreetMap contributors">
   <year>2020</year>
   <license>https://www.openstreetmap.org/copyright</license>
  </copyright>
  <link href="https://www.strava.com/routes/3527695367981451720"/>
 </metadata>
 <trk>
  <name>SİLİVRİ ULTRA TRAIL 38K</name>
  <link href="https://www.strava.com/routes/3527695367981451720"/>
  <type>running</type>
  <trkseg>
   <trkpt lat="41.301080000000006" lon="28.22173">
    <ele>187.17</ele>
   </trkpt>
   <trkpt lat="41.30104" lon="28.221850000000003">
    <ele>187.17</ele>
   </trkpt>
   <trkpt lat="41.301" lon="28.222080000000002">
    <ele>186.7</ele>
   </trkpt>
   <trkpt lat="41.30097000000001" lon="28.22237">
    <ele>186.7</ele>
   </trkpt>
   <trkpt lat="41.3006" lon="28.222360000000002">
    <ele>185.95</ele>
   </trkpt>
   <trkpt lat="41.300270000000005" lon="28.222490000000004">
    <ele>185.95</ele>
   </trkpt>
   <trkpt lat="41.30006" lon="28.222550000000002">
    <ele>185.95</ele>
   </trkpt>
   <trkpt lat="41.29946" lon="28.222440000000002">
    <ele>185.95</ele>
   </trkpt>
   <trkpt lat="41.299020000000006" lon="28.222310000000004">
    <ele>185.95</ele>
   </trkpt>
   <trkpt lat="41.29815500015613" lon="28.222104997275142">
    <ele>192.64000000000001</ele>
   </trkpt>
   <trkpt lat="41.297290000000004" lon="28.2219">
    <ele>192.64000000000001</ele>
   </trkpt>
   <trkpt lat="41.29684" lon="28.22173">
    <ele>192.64000000000001</ele>
   </trkpt>
   <trkpt lat="41.29661" lon="28.22171">
    <ele>192.07000000000002</ele>
   </trkpt>
   <trkpt lat="41.296600000000005" lon="28.22171">
    <ele>192.05</ele>
   </trkpt>
   <trkpt lat="41.29654" lon="28.22171">
    <ele>192.05</ele>
   </trkpt>
   <trkpt lat="41.296380000000006" lon="28.221740000000004">
    <ele>192.05</ele>
   </trkpt>
   <trkpt lat="41.295950000000005" lon="28.22211">
    <ele>192.05</ele>
   </trkpt>
   <trkpt lat="41.29551500053709" lon="28.222460002328432">
    <ele>192.05</ele>
   </trkpt>
   <trkpt lat="41.295080000000006" lon="28.222810000000003">
    <ele>192.05</ele>
   </trkpt>
   <trkpt lat="41.29506000000001" lon="28.222910000000002">
    <ele>192.05</ele>
   </trkpt>
   <trkpt lat="41.29507" lon="28.223150000000004">
    <ele>192.05</ele>
   </trkpt>
   <trkpt lat="41.295" lon="28.223290000000002">
    <ele>192.05</ele>
   </trkpt>
   <trkpt lat="41.29467" lon="28.2235">
    <ele>192.05</ele>
   </trkpt>
   <trkpt lat="41.29430000000001" lon="28.223900000000004">
    <ele>192.05</ele>
   </trkpt>
   <trkpt lat="41.293890000000005" lon="28.22444">
    <ele>192.05</ele>
   </trkpt>
   <trkpt lat="41.29375" lon="28.224750000000004">
    <ele>192.05</ele>
   </trkpt>
   <trkpt lat="41.29363" lon="28.224930000000004">
    <ele>192.05</ele>
   </trkpt>
   <trkpt lat="41.29348" lon="28.225030000000004">
    <ele>192.05</ele>
   </trkpt>
   <trkpt lat="41.292860000000005" lon="28.224970000000003">
    <ele>170.90000000000003</ele>
   </trkpt>
   <trkpt lat="41.29229" lon="28.22529">
    <ele>170.90000000000003</ele>
   </trkpt>
   <trkpt lat="41.291990000000006" lon="28.225430000000003">
    <ele>170.90000000000003</ele>
   </trkpt>
   <trkpt lat="41.29162" lon="28.225510000000003">
    <ele>170.90000000000003</ele>
   </trkpt>
   <trkpt lat="41.29085500018558" lon="28.225635004400043">
    <ele>170.90000000000003</ele>
   </trkpt>
   <trkpt lat="41.290090000235935" lon="28.2257600058685">
    <ele>170.90000000000003</ele>
   </trkpt>
   <trkpt lat="41.28932500015108" lon="28.22588500440553">
    <ele>170.90000000000003</ele>
   </trkpt>
   <trkpt lat="41.288560000000004" lon="28.226010000000002">
    <ele>170.90000000000003</ele>
   </trkpt>
   <trkpt lat="41.28797" lon="28.22612">
    <ele>166.67000000000002</ele>
   </trkpt>
   <trkpt lat="41.28779" lon="28.226210000000002">
    <ele>166.67000000000002</ele>
   </trkpt>
   <trkpt lat="41.287670000000006" lon="28.22624">
    <ele>166.35000000000002</ele>
   </trkpt>
   <trkpt lat="41.28752" lon="28.226200000000002">
    <ele>166.35000000000002</ele>
   </trkpt>
   <trkpt lat="41.28727000000001" lon="28.226210000000002">
    <ele>166.35000000000002</ele>
   </trkpt>
   <trkpt lat="41.28689000000001" lon="28.226360000000003">
    <ele>165.56</ele>
   </trkpt>
   <trkpt lat="41.286660000000005" lon="28.226550000000003">
    <ele>165.56</ele>
   </trkpt>
   <trkpt lat="41.28671000000001" lon="28.22622">
    <ele>165.56</ele>
   </trkpt>
   <trkpt lat="41.28696" lon="28.225970000000004">
    <ele>165.56</ele>
   </trkpt>
   <trkpt lat="41.28725" lon="28.22538">
    <ele>165.56</ele>
   </trkpt>
   <trkpt lat="41.28736000000001" lon="28.22509">
    <ele>165.56</ele>
   </trkpt>
   <trkpt lat="41.28757" lon="28.224420000000002">
    <ele>165.56</ele>
   </trkpt>
   <trkpt lat="41.28763" lon="28.22434">
    <ele>165.56</ele>
   </trkpt>
   <trkpt lat="41.28758000182208" lon="28.223689999424263">
    <ele>165.56</ele>
   </trkpt>
   <trkpt lat="41.287530000000004" lon="28.22304">
    <ele>165.56</ele>
   </trkpt>
   <trkpt lat="41.28752" lon="28.22256">
    <ele>165.56</ele>
   </trkpt>
   <trkpt lat="41.28755" lon="28.22237">
    <ele>165.56</ele>
   </trkpt>
   <trkpt lat="41.287690000000005" lon="28.221850000000003">
    <ele>165.56</ele>
   </trkpt>
   <trkpt lat="41.28788" lon="28.22144">
    <ele>165.56</ele>
   </trkpt>
   <trkpt lat="41.2881" lon="28.221210000000003">
    <ele>193.44000000000003</ele>
   </trkpt>
   <trkpt lat="41.28817" lon="28.22089">
    <ele>193.44000000000003</ele>
   </trkpt>
   <trkpt lat="41.28811" lon="28.220570000000002">
    <ele>193.44000000000003</ele>
   </trkpt>
   <trkpt lat="41.287940000000006" lon="28.220290000000002">
    <ele>193.44000000000003</ele>
   </trkpt>
   <trkpt lat="41.287530000000004" lon="28.21985">
    <ele>193.44000000000003</ele>
   </trkpt>
   <trkpt lat="41.28736000000001" lon="28.219770000000004">
    <ele>193.44000000000003</ele>
   </trkpt>
   <trkpt lat="41.28719" lon="28.219600000000003">
    <ele>193.44000000000003</ele>
   </trkpt>
   <trkpt lat="41.2871" lon="28.2188">
    <ele>193.44000000000003</ele>
   </trkpt>
   <trkpt lat="41.28698000000001" lon="28.218370000000004">
    <ele>193.44000000000003</ele>
   </trkpt>
   <trkpt lat="41.28692" lon="28.218040000000002">
    <ele>193.44000000000003</ele>
   </trkpt>
   <trkpt lat="41.286840000000005" lon="28.21786">
    <ele>193.44000000000003</ele>
   </trkpt>
   <trkpt lat="41.28667" lon="28.217730000000003">
    <ele>193.44000000000003</ele>
   </trkpt>
   <trkpt lat="41.28625" lon="28.217260000000003">
    <ele>193.44000000000003</ele>
   </trkpt>
   <trkpt lat="41.286" lon="28.217200000000002">
    <ele>193.44000000000003</ele>
   </trkpt>
   <trkpt lat="41.28578" lon="28.217050000000004">
    <ele>193.44000000000003</ele>
   </trkpt>
   <trkpt lat="41.28575" lon="28.216800000000003">
    <ele>193.44000000000003</ele>
   </trkpt>
   <trkpt lat="41.28577000000001" lon="28.216430000000003">
    <ele>193.44000000000003</ele>
   </trkpt>
   <trkpt lat="41.28591" lon="28.215750000000003">
    <ele>193.44000000000003</ele>
   </trkpt>
   <trkpt lat="41.28586000000001" lon="28.215640000000004">
    <ele>193.44000000000003</ele>
   </trkpt>
   <trkpt lat="41.285360000000004" lon="28.215310000000002">
    <ele>195.03</ele>
   </trkpt>
   <trkpt lat="41.28484" lon="28.21515">
    <ele>195.03</ele>
   </trkpt>
   <trkpt lat="41.28477" lon="28.215030000000002">
    <ele>195.03</ele>
   </trkpt>
   <trkpt lat="41.28475" lon="28.214990000000004">
    <ele>195.05</ele>
   </trkpt>
   <trkpt lat="41.284530000000004" lon="28.2146">
    <ele>195.05</ele>
   </trkpt>
   <trkpt lat="41.2841550007662" lon="28.21415499733523">
    <ele>196.16000000000003</ele>
   </trkpt>
   <trkpt lat="41.28378" lon="28.213710000000003">
    <ele>196.16000000000003</ele>
   </trkpt>
   <trkpt lat="41.283570000000005" lon="28.21357">
    <ele>196.16000000000003</ele>
   </trkpt>
   <trkpt lat="41.28354" lon="28.213320000000003">
    <ele>196.16000000000003</ele>
   </trkpt>
   <trkpt lat="41.283280000000005" lon="28.212790000000002">
    <ele>196.16000000000003</ele>
   </trkpt>
   <trkpt lat="41.28316" lon="28.211910000000003">
    <ele>196.16000000000003</ele>
   </trkpt>
   <trkpt lat="41.283100000000005" lon="28.21167">
    <ele>196.16000000000003</ele>
   </trkpt>
   <trkpt lat="41.28296" lon="28.2115">
    <ele>196.16000000000003</ele>
   </trkpt>
   <trkpt lat="41.282770000000006" lon="28.211170000000003">
    <ele>196.16000000000003</ele>
   </trkpt>
   <trkpt lat="41.282700000000006" lon="28.210960000000004">
    <ele>206.41</ele>
   </trkpt>
   <trkpt lat="41.28222" lon="28.210580000000004">
    <ele>206.41</ele>
   </trkpt>
   <trkpt lat="41.281780000000005" lon="28.21007">
    <ele>206.41</ele>
   </trkpt>
   <trkpt lat="41.281530000000004" lon="28.21">
    <ele>206.41</ele>
   </trkpt>
   <trkpt lat="41.28137" lon="28.209850000000003">
    <ele>206.41</ele>
   </trkpt>
   <trkpt lat="41.281180000000006" lon="28.20944">
    <ele>206.41</ele>
   </trkpt>
   <trkpt lat="41.28046400380437" lon="28.20897197947171">
    <ele>206.41</ele>
   </trkpt>
   <trkpt lat="41.27974800571334" lon="28.208503969212522">
    <ele>206.41</ele>
   </trkpt>
   <trkpt lat="41.279032005727025" lon="28.208035969221978">
    <ele>182.84</ele>
   </trkpt>
   <trkpt lat="41.278316003845504" lon="28.20756797949963">
    <ele>182.84</ele>
   </trkpt>
   <trkpt lat="41.27760000000001" lon="28.207100000000004">
    <ele>182.84</ele>
   </trkpt>
   <trkpt lat="41.27754" lon="28.207790000000003">
    <ele>182.84</ele>
   </trkpt>
   <trkpt lat="41.27776" lon="28.208380000000002">
    <ele>182.84</ele>
   </trkpt>
   <trkpt lat="41.277750000000005" lon="28.2086">
    <ele>182.84</ele>
   </trkpt>
   <trkpt lat="41.27752" lon="28.209540000000004">
    <ele>182.84</ele>
   </trkpt>
   <trkpt lat="41.27747" lon="28.20991">
    <ele>182.84</ele>
   </trkpt>
   <trkpt lat="41.277480000000004" lon="28.210420000000003">
    <ele>182.84</ele>
   </trkpt>
   <trkpt lat="41.27747" lon="28.210690000000003">
    <ele>182.84</ele>
   </trkpt>
   <trkpt lat="41.277280000000005" lon="28.2112">
    <ele>178.33</ele>
   </trkpt>
   <trkpt lat="41.277210000000004" lon="28.211710000000004">
    <ele>178.33</ele>
   </trkpt>
   <trkpt lat="41.27694" lon="28.21234">
    <ele>178.33</ele>
   </trkpt>
   <trkpt lat="41.27682" lon="28.212770000000003">
    <ele>178.33</ele>
   </trkpt>
   <trkpt lat="41.276450000000004" lon="28.213210000000004">
    <ele>178.33</ele>
   </trkpt>
   <trkpt lat="41.276300000000006" lon="28.213680000000004">
    <ele>178.33</ele>
   </trkpt>
   <trkpt lat="41.27629" lon="28.213800000000003">
    <ele>178.33</ele>
   </trkpt>
   <trkpt lat="41.27651" lon="28.21412">
    <ele>178.33</ele>
   </trkpt>
   <trkpt lat="41.27675" lon="28.214290000000002">
    <ele>178.33</ele>
   </trkpt>
   <trkpt lat="41.276770000000006" lon="28.214420000000004">
    <ele>178.33</ele>
   </trkpt>
   <trkpt lat="41.276920000000004" lon="28.214660000000002">
    <ele>177.22</ele>
   </trkpt>
   <trkpt lat="41.276970000000006" lon="28.214900000000004">
    <ele>177.22</ele>
   </trkpt>
   <trkpt lat="41.276920000000004" lon="28.214940000000002">
    <ele>177.22</ele>
   </trkpt>
   <trkpt lat="41.27691" lon="28.21496">
    <ele>177.19</ele>
   </trkpt>
   <trkpt lat="41.27655" lon="28.215380000000003">
    <ele>177.19</ele>
   </trkpt>
   <trkpt lat="41.276300000000006" lon="28.215410000000002">
    <ele>177.19</ele>
   </trkpt>
   <trkpt lat="41.276070000000004" lon="28.215500000000002">
    <ele>177.19</ele>
   </trkpt>
   <trkpt lat="41.275710000000004" lon="28.215460000000004">
    <ele>177.19</ele>
   </trkpt>
   <trkpt lat="41.27553" lon="28.215470000000003">
    <ele>177.19</ele>
   </trkpt>
   <trkpt lat="41.27517" lon="28.215550000000004">
    <ele>177.19</ele>
   </trkpt>
   <trkpt lat="41.275040000000004" lon="28.215690000000002">
    <ele>168.55</ele>
   </trkpt>
   <trkpt lat="41.27479" lon="28.21571">
    <ele>168.55</ele>
   </trkpt>
   <trkpt lat="41.27463" lon="28.215830000000004">
    <ele>168.55</ele>
   </trkpt>
   <trkpt lat="41.274550000000005" lon="28.216020000000004">
    <ele>168.55</ele>
   </trkpt>
   <trkpt lat="41.27427" lon="28.216250000000002">
    <ele>168.55</ele>
   </trkpt>
   <trkpt lat="41.274080000000005" lon="28.21664">
    <ele>168.55</ele>
   </trkpt>
   <trkpt lat="41.274010000000004" lon="28.216710000000003">
    <ele>168.55</ele>
   </trkpt>
   <trkpt lat="41.273790000000005" lon="28.21713">
    <ele>168.55</ele>
   </trkpt>
   <trkpt lat="41.27369" lon="28.21722">
    <ele>168.55</ele>
   </trkpt>
   <trkpt lat="41.273340000000005" lon="28.21723">
    <ele>168.55</ele>
   </trkpt>
   <trkpt lat="41.273070000000004" lon="28.217050000000004">
    <ele>168.55</ele>
   </trkpt>
   <trkpt lat="41.272870000000005" lon="28.216880000000003">
    <ele>168.55</ele>
   </trkpt>
   <trkpt lat="41.27261" lon="28.21676">
    <ele>168.55</ele>
   </trkpt>
   <trkpt lat="41.2723" lon="28.216690000000003">
    <ele>168.55</ele>
   </trkpt>
   <trkpt lat="41.27179" lon="28.21664">
    <ele>176.70000000000002</ele>
   </trkpt>
   <trkpt lat="41.2715" lon="28.21676">
    <ele>176.70000000000002</ele>
   </trkpt>
   <trkpt lat="41.271100000000004" lon="28.216620000000002">
    <ele>176.70000000000002</ele>
   </trkpt>
   <trkpt lat="41.27056" lon="28.21627">
    <ele>176.70000000000002</ele>
   </trkpt>
   <trkpt lat="41.27042" lon="28.2159">
    <ele>176.70000000000002</ele>
   </trkpt>
   <trkpt lat="41.270410000000005" lon="28.215590000000002">
    <ele>176.70000000000002</ele>
   </trkpt>
   <trkpt lat="41.270450000000004" lon="28.21533">
    <ele>176.70000000000002</ele>
   </trkpt>
   <trkpt lat="41.27038" lon="28.21488">
    <ele>181.92000000000002</ele>
   </trkpt>
   <trkpt lat="41.27038" lon="28.21459">
    <ele>181.92000000000002</ele>
   </trkpt>
   <trkpt lat="41.270570000000006" lon="28.214440000000003">
    <ele>181.92000000000002</ele>
   </trkpt>
   <trkpt lat="41.270480000000006" lon="28.214270000000003">
    <ele>181.92000000000002</ele>
   </trkpt>
   <trkpt lat="41.2704" lon="28.213890000000003">
    <ele>181.92000000000002</ele>
   </trkpt>
   <trkpt lat="41.27047" lon="28.213510000000003">
    <ele>181.92000000000002</ele>
   </trkpt>
   <trkpt lat="41.27035" lon="28.21298">
    <ele>188.44000000000003</ele>
   </trkpt>
   <trkpt lat="41.27" lon="28.212730000000004">
    <ele>188.44000000000003</ele>
   </trkpt>
   <trkpt lat="41.26973" lon="28.212690000000002">
    <ele>188.44000000000003</ele>
   </trkpt>
   <trkpt lat="41.26955" lon="28.212580000000003">
    <ele>188.44000000000003</ele>
   </trkpt>
   <trkpt lat="41.269280001418224" lon="28.21199999752158">
    <ele>188.44000000000003</ele>
   </trkpt>
   <trkpt lat="41.26901" lon="28.211420000000004">
    <ele>188.44000000000003</ele>
   </trkpt>
   <trkpt lat="41.26883" lon="28.211150000000004">
    <ele>188.44000000000003</ele>
   </trkpt>
   <trkpt lat="41.26843" lon="28.210780000000003">
    <ele>188.44000000000003</ele>
   </trkpt>
   <trkpt lat="41.267900000000004" lon="28.210530000000002">
    <ele>188.44000000000003</ele>
   </trkpt>
   <trkpt lat="41.267720000000004" lon="28.21029">
    <ele>208.48000000000002</ele>
   </trkpt>
   <trkpt lat="41.267680000000006" lon="28.20982">
    <ele>208.48000000000002</ele>
   </trkpt>
   <trkpt lat="41.267720000000004" lon="28.209650000000003">
    <ele>208.48000000000002</ele>
   </trkpt>
   <trkpt lat="41.267860000000006" lon="28.209400000000002">
    <ele>208.48000000000002</ele>
   </trkpt>
   <trkpt lat="41.267900000000004" lon="28.209200000000003">
    <ele>208.48000000000002</ele>
   </trkpt>
   <trkpt lat="41.26778" lon="28.208140000000004">
    <ele>208.48000000000002</ele>
   </trkpt>
   <trkpt lat="41.267630000000004" lon="28.207570000000004">
    <ele>208.48000000000002</ele>
   </trkpt>
   <trkpt lat="41.267390000000006" lon="28.206970000000002">
    <ele>208.48000000000002</ele>
   </trkpt>
   <trkpt lat="41.2674" lon="28.20699">
    <ele>208.46</ele>
   </trkpt>
   <trkpt lat="41.267250000000004" lon="28.2066">
    <ele>208.46</ele>
   </trkpt>
   <trkpt lat="41.267120000000006" lon="28.205810000000003">
    <ele>208.46</ele>
   </trkpt>
   <trkpt lat="41.26726" lon="28.20538">
    <ele>208.46</ele>
   </trkpt>
   <trkpt lat="41.26758500129273" lon="28.204840002636097">
    <ele>219.58</ele>
   </trkpt>
   <trkpt lat="41.26791" lon="28.204300000000003">
    <ele>219.58</ele>
   </trkpt>
   <trkpt lat="41.267880000000005" lon="28.20341">
    <ele>219.58</ele>
   </trkpt>
   <trkpt lat="41.267920000000004" lon="28.203180000000003">
    <ele>219.58</ele>
   </trkpt>
   <trkpt lat="41.26765" lon="28.20333">
    <ele>219.58</ele>
   </trkpt>
   <trkpt lat="41.26751" lon="28.203630000000004">
    <ele>219.58</ele>
   </trkpt>
   <trkpt lat="41.26671" lon="28.20417">
    <ele>215.21</ele>
   </trkpt>
   <trkpt lat="41.266420000000004" lon="28.204520000000002">
    <ele>215.21</ele>
   </trkpt>
   <trkpt lat="41.26628" lon="28.20435">
    <ele>215.21</ele>
   </trkpt>
   <trkpt lat="41.26594" lon="28.20408">
    <ele>215.21</ele>
   </trkpt>
   <trkpt lat="41.26579" lon="28.203860000000002">
    <ele>215.21</ele>
   </trkpt>
   <trkpt lat="41.265600000000006" lon="28.203310000000002">
    <ele>215.21</ele>
   </trkpt>
   <trkpt lat="41.265390000000004" lon="28.203090000000003">
    <ele>215.21</ele>
   </trkpt>
   <trkpt lat="41.264945000398356" lon="28.20275499765142">
    <ele>215.21</ele>
   </trkpt>
   <trkpt lat="41.264500000000005" lon="28.202420000000004">
    <ele>215.21</ele>
   </trkpt>
   <trkpt lat="41.26404" lon="28.202170000000002">
    <ele>215.21</ele>
   </trkpt>
   <trkpt lat="41.263446668471424" lon="28.201719991862586">
    <ele>213.47000000000003</ele>
   </trkpt>
   <trkpt lat="41.26285333519066" lon="28.201269991902585">
    <ele>213.47000000000003</ele>
   </trkpt>
   <trkpt lat="41.262260000000005" lon="28.200820000000004">
    <ele>213.47000000000003</ele>
   </trkpt>
   <trkpt lat="41.26151500115499" lon="28.20030999420244">
    <ele>213.47000000000003</ele>
   </trkpt>
   <trkpt lat="41.26077" lon="28.199800000000003">
    <ele>213.47000000000003</ele>
   </trkpt>
   <trkpt lat="41.26044" lon="28.199550000000002">
    <ele>213.47000000000003</ele>
   </trkpt>
   <trkpt lat="41.259750000000004" lon="28.19893">
    <ele>213.47000000000003</ele>
   </trkpt>
   <trkpt lat="41.25945" lon="28.198860000000003">
    <ele>213.47000000000003</ele>
   </trkpt>
   <trkpt lat="41.2588050008457" lon="28.19842499572241">
    <ele>225.11</ele>
   </trkpt>
   <trkpt lat="41.258160000000004" lon="28.19799">
    <ele>225.11</ele>
   </trkpt>
   <trkpt lat="41.25755500078622" lon="28.197554995947446">
    <ele>224.65</ele>
   </trkpt>
   <trkpt lat="41.25695" lon="28.19712">
    <ele>224.65</ele>
   </trkpt>
   <trkpt lat="41.25641500034168" lon="28.196789997217255">
    <ele>220.50000000000003</ele>
   </trkpt>
   <trkpt lat="41.255880000000005" lon="28.196460000000002">
    <ele>220.50000000000003</ele>
   </trkpt>
   <trkpt lat="41.255160002678004" lon="28.19589998762748">
    <ele>220.50000000000003</ele>
   </trkpt>
   <trkpt lat="41.25444000264262" lon="28.19533998760017">
    <ele>220.50000000000003</ele>
   </trkpt>
   <trkpt lat="41.25372" lon="28.19478">
    <ele>220.50000000000003</ele>
   </trkpt>
   <trkpt lat="41.25293000254725" lon="28.194233320085065">
    <ele>220.50000000000003</ele>
   </trkpt>
   <trkpt lat="41.25214000250881" lon="28.19368665339204">
    <ele>220.50000000000003</ele>
   </trkpt>
   <trkpt lat="41.25135" lon="28.193140000000003">
    <ele>234.81</ele>
   </trkpt>
   <trkpt lat="41.250686003839235" lon="28.192669980904707">
    <ele>234.81</ele>
   </trkpt>
   <trkpt lat="41.25002200576714" lon="28.192199971363365">
    <ele>234.81</ele>
   </trkpt>
   <trkpt lat="41.24935800578377" lon="28.191729971375583">
    <ele>234.81</ele>
   </trkpt>
   <trkpt lat="41.24869400388921" lon="28.191259980940977">
    <ele>234.81</ele>
   </trkpt>
   <trkpt lat="41.24803" lon="28.190790000000003">
    <ele>234.81</ele>
   </trkpt>
   <trkpt lat="41.247400000000006" lon="28.191080000000003">
    <ele>234.81</ele>
   </trkpt>
   <trkpt lat="41.24714" lon="28.19114">
    <ele>234.81</ele>
   </trkpt>
   <trkpt lat="41.246970000000005" lon="28.191290000000002">
    <ele>234.81</ele>
   </trkpt>
   <trkpt lat="41.24653" lon="28.191760000000002">
    <ele>234.81</ele>
   </trkpt>
   <trkpt lat="41.246410000000004" lon="28.191850000000002">
    <ele>230.52000000000004</ele>
   </trkpt>
   <trkpt lat="41.246" lon="28.191910000000004">
    <ele>230.52000000000004</ele>
   </trkpt>
   <trkpt lat="41.24573" lon="28.191910000000004">
    <ele>230.52000000000004</ele>
   </trkpt>
   <trkpt lat="41.245380000000004" lon="28.191750000000003">
    <ele>230.52000000000004</ele>
   </trkpt>
   <trkpt lat="41.245180000000005" lon="28.191710000000004">
    <ele>230.52000000000004</ele>
   </trkpt>
   <trkpt lat="41.244910000000004" lon="28.191830000000003">
    <ele>230.52000000000004</ele>
   </trkpt>
   <trkpt lat="41.24477" lon="28.191940000000002">
    <ele>230.52000000000004</ele>
   </trkpt>
   <trkpt lat="41.24456" lon="28.192020000000003">
    <ele>230.52000000000004</ele>
   </trkpt>
   <trkpt lat="41.244350000000004" lon="28.192040000000002">
    <ele>230.52000000000004</ele>
   </trkpt>
   <trkpt lat="41.24412" lon="28.192020000000003">
    <ele>230.52000000000004</ele>
   </trkpt>
   <trkpt lat="41.24389" lon="28.192100000000003">
    <ele>230.52000000000004</ele>
   </trkpt>
   <trkpt lat="41.243590000000005" lon="28.192330000000002">
    <ele>219.61</ele>
   </trkpt>
   <trkpt lat="41.24334" lon="28.192460000000004">
    <ele>219.61</ele>
   </trkpt>
   <trkpt lat="41.242850000000004" lon="28.19255">
    <ele>219.61</ele>
   </trkpt>
   <trkpt lat="41.24212" lon="28.192580000000003">
    <ele>219.61</ele>
   </trkpt>
   <trkpt lat="41.24193" lon="28.192660000000004">
    <ele>219.61</ele>
   </trkpt>
   <trkpt lat="41.24181" lon="28.19262">
    <ele>219.61</ele>
   </trkpt>
   <trkpt lat="41.24161" lon="28.192680000000003">
    <ele>212.17000000000002</ele>
   </trkpt>
   <trkpt lat="41.24132" lon="28.19282">
    <ele>212.17000000000002</ele>
   </trkpt>
   <trkpt lat="41.241130000000005" lon="28.19301">
    <ele>212.17000000000002</ele>
   </trkpt>
   <trkpt lat="41.24072" lon="28.193080000000002">
    <ele>212.17000000000002</ele>
   </trkpt>
   <trkpt lat="41.24015" lon="28.193310000000004">
    <ele>212.17000000000002</ele>
   </trkpt>
   <trkpt lat="41.23977" lon="28.193360000000002">
    <ele>212.17000000000002</ele>
   </trkpt>
   <trkpt lat="41.23953" lon="28.193340000000003">
    <ele>201.75</ele>
   </trkpt>
   <trkpt lat="41.23906" lon="28.19321">
    <ele>201.75</ele>
   </trkpt>
   <trkpt lat="41.23884" lon="28.19299">
    <ele>201.75</ele>
   </trkpt>
   <trkpt lat="41.23856000000001" lon="28.193120000000004">
    <ele>201.75</ele>
   </trkpt>
   <trkpt lat="41.23812" lon="28.193430000000003">
    <ele>194.03</ele>
   </trkpt>
   <trkpt lat="41.237820000000006" lon="28.193710000000003">
    <ele>194.03</ele>
   </trkpt>
   <trkpt lat="41.23772" lon="28.193880000000004">
    <ele>194.03</ele>
   </trkpt>
   <trkpt lat="41.237680000000005" lon="28.194000000000003">
    <ele>194.03</ele>
   </trkpt>
   <trkpt lat="41.237730000000006" lon="28.19413">
    <ele>194.03</ele>
   </trkpt>
   <trkpt lat="41.23772" lon="28.19431">
    <ele>194.03</ele>
   </trkpt>
   <trkpt lat="41.237840000000006" lon="28.194560000000003">
    <ele>194.03</ele>
   </trkpt>
   <trkpt lat="41.237820000000006" lon="28.1947">
    <ele>194.03</ele>
   </trkpt>
   <trkpt lat="41.23715000000001" lon="28.195490000000003">
    <ele>193.73000000000002</ele>
   </trkpt>
   <trkpt lat="41.237820000000006" lon="28.1947">
    <ele>194.03</ele>
   </trkpt>
   <trkpt lat="41.237840000000006" lon="28.194560000000003">
    <ele>194.03</ele>
   </trkpt>
   <trkpt lat="41.23772" lon="28.19431">
    <ele>194.03</ele>
   </trkpt>
   <trkpt lat="41.237730000000006" lon="28.19413">
    <ele>194.03</ele>
   </trkpt>
   <trkpt lat="41.237680000000005" lon="28.194000000000003">
    <ele>194.03</ele>
   </trkpt>
   <trkpt lat="41.23772" lon="28.193880000000004">
    <ele>194.03</ele>
   </trkpt>
   <trkpt lat="41.237820000000006" lon="28.193710000000003">
    <ele>194.03</ele>
   </trkpt>
   <trkpt lat="41.23812" lon="28.193430000000003">
    <ele>194.03</ele>
   </trkpt>
   <trkpt lat="41.23856000000001" lon="28.193120000000004">
    <ele>201.75</ele>
   </trkpt>
   <trkpt lat="41.23899" lon="28.19292">
    <ele>200.60000000000002</ele>
   </trkpt>
   <trkpt lat="41.239110000000004" lon="28.19271">
    <ele>200.60000000000002</ele>
   </trkpt>
   <trkpt lat="41.23919" lon="28.192380000000004">
    <ele>200.60000000000002</ele>
   </trkpt>
   <trkpt lat="41.23900500347153" lon="28.191484997498037">
    <ele>200.60000000000002</ele>
   </trkpt>
   <trkpt lat="41.238820000000004" lon="28.190590000000004">
    <ele>215.76</ele>
   </trkpt>
   <trkpt lat="41.238820000000004" lon="28.189930000000004">
    <ele>215.76</ele>
   </trkpt>
   <trkpt lat="41.238780000000006" lon="28.18971">
    <ele>215.76</ele>
   </trkpt>
   <trkpt lat="41.23819666815361" lon="28.189289992474926">
    <ele>215.76</ele>
   </trkpt>
   <trkpt lat="41.23761333478105" lon="28.18886999244679">
    <ele>220.76000000000002</ele>
   </trkpt>
   <trkpt lat="41.237030000000004" lon="28.188450000000003">
    <ele>220.76000000000002</ele>
   </trkpt>
   <trkpt lat="41.23659000000001" lon="28.188760000000002">
    <ele>220.76000000000002</ele>
   </trkpt>
   <trkpt lat="41.236360000000005" lon="28.18877">
    <ele>220.76000000000002</ele>
   </trkpt>
   <trkpt lat="41.23619" lon="28.188840000000003">
    <ele>220.76000000000002</ele>
   </trkpt>
   <trkpt lat="41.2359" lon="28.188910000000003">
    <ele>220.76000000000002</ele>
   </trkpt>
   <trkpt lat="41.235730000000004" lon="28.188900000000004">
    <ele>220.76000000000002</ele>
   </trkpt>
   <trkpt lat="41.235510000000005" lon="28.188670000000002">
    <ele>220.76000000000002</ele>
   </trkpt>
   <trkpt lat="41.235310000000005" lon="28.188720000000004">
    <ele>220.76000000000002</ele>
   </trkpt>
   <trkpt lat="41.23508" lon="28.188740000000003">
    <ele>220.76000000000002</ele>
   </trkpt>
   <trkpt lat="41.234880000000004" lon="28.188910000000003">
    <ele>220.76000000000002</ele>
   </trkpt>
   <trkpt lat="41.23481" lon="28.189040000000002">
    <ele>220.76000000000002</ele>
   </trkpt>
   <trkpt lat="41.23481" lon="28.189310000000003">
    <ele>220.76000000000002</ele>
   </trkpt>
   <trkpt lat="41.23463" lon="28.18943">
    <ele>220.76000000000002</ele>
   </trkpt>
   <trkpt lat="41.234190000000005" lon="28.189470000000004">
    <ele>220.76000000000002</ele>
   </trkpt>
   <trkpt lat="41.23396" lon="28.18943">
    <ele>204.17000000000002</ele>
   </trkpt>
   <trkpt lat="41.233760000000004" lon="28.189500000000002">
    <ele>204.17000000000002</ele>
   </trkpt>
   <trkpt lat="41.23364" lon="28.189490000000003">
    <ele>204.17000000000002</ele>
   </trkpt>
   <trkpt lat="41.23319" lon="28.189270000000004">
    <ele>204.17000000000002</ele>
   </trkpt>
   <trkpt lat="41.23299" lon="28.189100000000003">
    <ele>204.17000000000002</ele>
   </trkpt>
   <trkpt lat="41.23225" lon="28.188820000000003">
    <ele>204.17000000000002</ele>
   </trkpt>
   <trkpt lat="41.231910000000006" lon="28.18859">
    <ele>204.17000000000002</ele>
   </trkpt>
   <trkpt lat="41.23167" lon="28.18831">
    <ele>204.17000000000002</ele>
   </trkpt>
   <trkpt lat="41.23163" lon="28.188060000000004">
    <ele>204.17000000000002</ele>
   </trkpt>
   <trkpt lat="41.231550000000006" lon="28.187900000000003">
    <ele>204.17000000000002</ele>
   </trkpt>
   <trkpt lat="41.23129" lon="28.187780000000004">
    <ele>204.17000000000002</ele>
   </trkpt>
   <trkpt lat="41.23105" lon="28.187580000000004">
    <ele>204.17000000000002</ele>
   </trkpt>
   <trkpt lat="41.23091" lon="28.18738">
    <ele>204.17000000000002</ele>
   </trkpt>
   <trkpt lat="41.230830000000005" lon="28.18711">
    <ele>204.17000000000002</ele>
   </trkpt>
   <trkpt lat="41.230540000000005" lon="28.186760000000003">
    <ele>204.17000000000002</ele>
   </trkpt>
   <trkpt lat="41.230290000000004" lon="28.186790000000002">
    <ele>204.17000000000002</ele>
   </trkpt>
   <trkpt lat="41.22974000000001" lon="28.186890000000002">
    <ele>217.53000000000003</ele>
   </trkpt>
   <trkpt lat="41.229670000000006" lon="28.18681">
    <ele>217.53000000000003</ele>
   </trkpt>
   <trkpt lat="41.22968" lon="28.186590000000002">
    <ele>217.53000000000003</ele>
   </trkpt>
   <trkpt lat="41.229470000000006" lon="28.186370000000004">
    <ele>217.53000000000003</ele>
   </trkpt>
   <trkpt lat="41.229470000000006" lon="28.186200000000003">
    <ele>217.53000000000003</ele>
   </trkpt>
   <trkpt lat="41.22925" lon="28.185830000000003">
    <ele>217.53000000000003</ele>
   </trkpt>
   <trkpt lat="41.22923" lon="28.185540000000003">
    <ele>219.46</ele>
   </trkpt>
   <trkpt lat="41.22925" lon="28.185280000000002">
    <ele>219.46</ele>
   </trkpt>
   <trkpt lat="41.229330000000004" lon="28.184990000000003">
    <ele>219.46</ele>
   </trkpt>
   <trkpt lat="41.2295" lon="28.184630000000002">
    <ele>219.46</ele>
   </trkpt>
   <trkpt lat="41.22959" lon="28.184260000000002">
    <ele>219.46</ele>
   </trkpt>
   <trkpt lat="41.22965000000001" lon="28.183310000000002">
    <ele>219.46</ele>
   </trkpt>
   <trkpt lat="41.22986" lon="28.182420000000004">
    <ele>219.46</ele>
   </trkpt>
   <trkpt lat="41.230160000000005" lon="28.181340000000002">
    <ele>212.52</ele>
   </trkpt>
   <trkpt lat="41.23049" lon="28.180480000000003">
    <ele>212.52</ele>
   </trkpt>
   <trkpt lat="41.23055500171512" lon="28.17985000064299">
    <ele>212.52</ele>
   </trkpt>
   <trkpt lat="41.23062" lon="28.17922">
    <ele>212.52</ele>
   </trkpt>
   <trkpt lat="41.230760000000004" lon="28.17902">
    <ele>212.52</ele>
   </trkpt>
   <trkpt lat="41.23082" lon="28.17856">
    <ele>212.69000000000003</ele>
   </trkpt>
   <trkpt lat="41.230740000000004" lon="28.177920000000004">
    <ele>212.69000000000003</ele>
   </trkpt>
   <trkpt lat="41.230740000000004" lon="28.177660000000003">
    <ele>212.69000000000003</ele>
   </trkpt>
   <trkpt lat="41.23106000000001" lon="28.176750000000002">
    <ele>217.43</ele>
   </trkpt>
   <trkpt lat="41.23147000684015" lon="28.17586001119028">
    <ele>217.43</ele>
   </trkpt>
   <trkpt lat="41.23188000682774" lon="28.174970011217415">
    <ele>217.43</ele>
   </trkpt>
   <trkpt lat="41.232290000000006" lon="28.174080000000004">
    <ele>217.43</ele>
   </trkpt>
   <trkpt lat="41.232620008759966" lon="28.173257512503177">
    <ele>217.43</ele>
   </trkpt>
   <trkpt lat="41.2329500116674" lon="28.172435016702433">
    <ele>241.03000000000003</ele>
   </trkpt>
   <trkpt lat="41.23328000872216" lon="28.17161251259775">
    <ele>241.03000000000003</ele>
   </trkpt>
   <trkpt lat="41.233610000000006" lon="28.170790000000004">
    <ele>241.03000000000003</ele>
   </trkpt>
   <trkpt lat="41.23369" lon="28.170460000000002">
    <ele>241.03000000000003</ele>
   </trkpt>
   <trkpt lat="41.23376667877742" lon="28.169276669496615">
    <ele>241.03000000000003</ele>
   </trkpt>
   <trkpt lat="41.233843345440604" lon="28.168093336217385">
    <ele>241.03000000000003</ele>
   </trkpt>
   <trkpt lat="41.233920000000005" lon="28.16691">
    <ele>242.50000000000003</ele>
   </trkpt>
   <trkpt lat="41.23391" lon="28.166410000000003">
    <ele>241.35</ele>
   </trkpt>
   <trkpt lat="41.23384" lon="28.16617">
    <ele>241.35</ele>
   </trkpt>
   <trkpt lat="41.233830000000005" lon="28.166140000000002">
    <ele>241.31000000000003</ele>
   </trkpt>
   <trkpt lat="41.23375" lon="28.165830000000003">
    <ele>241.31000000000003</ele>
   </trkpt>
   <trkpt lat="41.233650000000004" lon="28.165020000000002">
    <ele>241.31000000000003</ele>
   </trkpt>
   <trkpt lat="41.233650001827606" lon="28.16437000015941">
    <ele>236.91</ele>
   </trkpt>
   <trkpt lat="41.233650000000004" lon="28.16372">
    <ele>236.91</ele>
   </trkpt>
   <trkpt lat="41.233560000000004" lon="28.16325">
    <ele>236.91</ele>
   </trkpt>
   <trkpt lat="41.23386" lon="28.163050000000002">
    <ele>236.91</ele>
   </trkpt>
   <trkpt lat="41.23418000087685" lon="28.16257500247238">
    <ele>236.91</ele>
   </trkpt>
   <trkpt lat="41.234500000000004" lon="28.162100000000002">
    <ele>236.91</ele>
   </trkpt>
   <trkpt lat="41.23487" lon="28.16184">
    <ele>236.91</ele>
   </trkpt>
   <trkpt lat="41.235130000000005" lon="28.161690000000004">
    <ele>234.93000000000004</ele>
   </trkpt>
   <trkpt lat="41.2356249996898" lon="28.161625000535363">
    <ele>234.93000000000004</ele>
   </trkpt>
   <trkpt lat="41.23612000000001" lon="28.16156">
    <ele>234.93000000000004</ele>
   </trkpt>
   <trkpt lat="41.236320000000006" lon="28.161450000000002">
    <ele>234.93000000000004</ele>
   </trkpt>
   <trkpt lat="41.23659000000001" lon="28.161040000000003">
    <ele>234.93000000000004</ele>
   </trkpt>
   <trkpt lat="41.237045002998414" lon="28.160205005844823">
    <ele>234.93000000000004</ele>
   </trkpt>
   <trkpt lat="41.237500000000004" lon="28.159370000000003">
    <ele>234.03</ele>
   </trkpt>
   <trkpt lat="41.23780000528578" lon="28.158586673917252">
    <ele>234.03</ele>
   </trkpt>
   <trkpt lat="41.23810000526293" lon="28.157803340643675">
    <ele>234.03</ele>
   </trkpt>
   <trkpt lat="41.238400000000006" lon="28.157020000000003">
    <ele>234.03</ele>
   </trkpt>
   <trkpt lat="41.238605001703924" lon="28.15639000201587">
    <ele>234.03</ele>
   </trkpt>
   <trkpt lat="41.23881" lon="28.15576">
    <ele>234.03</ele>
   </trkpt>
   <trkpt lat="41.239140000000006" lon="28.15538">
    <ele>240.94</ele>
   </trkpt>
   <trkpt lat="41.239430000000006" lon="28.155310000000004">
    <ele>240.94</ele>
   </trkpt>
   <trkpt lat="41.23964" lon="28.155400000000004">
    <ele>240.94</ele>
   </trkpt>
   <trkpt lat="41.240260000000006" lon="28.155130000000003">
    <ele>240.94</ele>
   </trkpt>
   <trkpt lat="41.24053000000001" lon="28.15499">
    <ele>240.94</ele>
   </trkpt>
   <trkpt lat="41.24065" lon="28.154760000000003">
    <ele>240.94</ele>
   </trkpt>
   <trkpt lat="41.24074" lon="28.15435">
    <ele>240.94</ele>
   </trkpt>
   <trkpt lat="41.241170000000004" lon="28.15417">
    <ele>240.94</ele>
   </trkpt>
   <trkpt lat="41.2417" lon="28.154000000000003">
    <ele>240.94</ele>
   </trkpt>
   <trkpt lat="41.241800000000005" lon="28.153840000000002">
    <ele>240.94</ele>
   </trkpt>
   <trkpt lat="41.24192" lon="28.153720000000003">
    <ele>240.94</ele>
   </trkpt>
   <trkpt lat="41.242110000000004" lon="28.15369">
    <ele>240.94</ele>
   </trkpt>
   <trkpt lat="41.24279000127515" lon="28.15313500582186">
    <ele>240.94</ele>
   </trkpt>
   <trkpt lat="41.24347" lon="28.152580000000004">
    <ele>229.22</ele>
   </trkpt>
   <trkpt lat="41.24385" lon="28.152230000000003">
    <ele>229.22</ele>
   </trkpt>
   <trkpt lat="41.2442750008297" lon="28.151770003084458">
    <ele>229.22</ele>
   </trkpt>
   <trkpt lat="41.2447" lon="28.151310000000002">
    <ele>229.22</ele>
   </trkpt>
   <trkpt lat="41.24522" lon="28.151030000000002">
    <ele>229.22</ele>
   </trkpt>
   <trkpt lat="41.24611000007594" lon="28.150965000881133">
    <ele>238.23000000000002</ele>
   </trkpt>
   <trkpt lat="41.247" lon="28.150900000000004">
    <ele>238.23000000000002</ele>
   </trkpt>
   <trkpt lat="41.247220000000006" lon="28.150820000000003">
    <ele>238.23000000000002</ele>
   </trkpt>
   <trkpt lat="41.247260000000004" lon="28.15021">
    <ele>238.23000000000002</ele>
   </trkpt>
   <trkpt lat="41.24736" lon="28.149700000000003">
    <ele>238.23000000000002</ele>
   </trkpt>
   <trkpt lat="41.2475" lon="28.149510000000003">
    <ele>238.23000000000002</ele>
   </trkpt>
   <trkpt lat="41.248000000000005" lon="28.149060000000002">
    <ele>238.23000000000002</ele>
   </trkpt>
   <trkpt lat="41.248310000000004" lon="28.149050000000003">
    <ele>238.23000000000002</ele>
   </trkpt>
   <trkpt lat="41.24862" lon="28.1488">
    <ele>244.72000000000003</ele>
   </trkpt>
   <trkpt lat="41.249100000000006" lon="28.148750000000003">
    <ele>244.72000000000003</ele>
   </trkpt>
   <trkpt lat="41.24942" lon="28.14862">
    <ele>244.72000000000003</ele>
   </trkpt>
   <trkpt lat="41.24982000000001" lon="28.148560000000003">
    <ele>244.72000000000003</ele>
   </trkpt>
   <trkpt lat="41.25025" lon="28.148390000000003">
    <ele>244.72000000000003</ele>
   </trkpt>
   <trkpt lat="41.250870000000006" lon="28.147890000000004">
    <ele>244.72000000000003</ele>
   </trkpt>
   <trkpt lat="41.251540000000006" lon="28.14769">
    <ele>244.72000000000003</ele>
   </trkpt>
   <trkpt lat="41.25168" lon="28.14769">
    <ele>244.72000000000003</ele>
   </trkpt>
   <trkpt lat="41.251810000000006" lon="28.147730000000003">
    <ele>244.72000000000003</ele>
   </trkpt>
   <trkpt lat="41.252370000000006" lon="28.148100000000003">
    <ele>245.79</ele>
   </trkpt>
   <trkpt lat="41.25292333482678" lon="28.148513326342645">
    <ele>245.79</ele>
   </trkpt>
   <trkpt lat="41.253476668175416" lon="28.14892665968732">
    <ele>245.79</ele>
   </trkpt>
   <trkpt lat="41.25403" lon="28.149340000000002">
    <ele>244.73000000000002</ele>
   </trkpt>
   <trkpt lat="41.254020000000004" lon="28.149330000000003">
    <ele>244.74</ele>
   </trkpt>
   <trkpt lat="41.25381" lon="28.149160000000002">
    <ele>244.97000000000003</ele>
   </trkpt>
   <trkpt lat="41.253800000000005" lon="28.149160000000002">
    <ele>244.98000000000002</ele>
   </trkpt>
   <trkpt lat="41.25415" lon="28.149420000000003">
    <ele>244.61</ele>
   </trkpt>
   <trkpt lat="41.25439" lon="28.149310000000003">
    <ele>244.61</ele>
   </trkpt>
   <trkpt lat="41.25459" lon="28.14918">
    <ele>244.61</ele>
   </trkpt>
   <trkpt lat="41.25471" lon="28.148950000000003">
    <ele>244.61</ele>
   </trkpt>
   <trkpt lat="41.254760000000005" lon="28.14843">
    <ele>244.61</ele>
   </trkpt>
   <trkpt lat="41.25498" lon="28.148180000000004">
    <ele>238.15000000000003</ele>
   </trkpt>
   <trkpt lat="41.25569" lon="28.147660000000002">
    <ele>238.15000000000003</ele>
   </trkpt>
   <trkpt lat="41.25585" lon="28.147450000000003">
    <ele>238.15000000000003</ele>
   </trkpt>
   <trkpt lat="41.25656" lon="28.14674">
    <ele>239.01000000000002</ele>
   </trkpt>
   <trkpt lat="41.257260000437775" lon="28.14641500349194">
    <ele>239.01000000000002</ele>
   </trkpt>
   <trkpt lat="41.257960000000004" lon="28.14609">
    <ele>239.01000000000002</ele>
   </trkpt>
   <trkpt lat="41.258300000000006" lon="28.14609">
    <ele>239.01000000000002</ele>
   </trkpt>
   <trkpt lat="41.258770000000005" lon="28.146010000000004">
    <ele>233.75</ele>
   </trkpt>
   <trkpt lat="41.25936" lon="28.145940000000003">
    <ele>233.75</ele>
   </trkpt>
   <trkpt lat="41.25958000000001" lon="28.145730000000004">
    <ele>233.75</ele>
   </trkpt>
   <trkpt lat="41.25977" lon="28.145690000000002">
    <ele>233.75</ele>
   </trkpt>
   <trkpt lat="41.26005000000001" lon="28.145560000000003">
    <ele>233.75</ele>
   </trkpt>
   <trkpt lat="41.260180000000005" lon="28.14543">
    <ele>233.75</ele>
   </trkpt>
   <trkpt lat="41.260310000000004" lon="28.14515">
    <ele>233.75</ele>
   </trkpt>
   <trkpt lat="41.260360000000006" lon="28.144890000000004">
    <ele>233.75</ele>
   </trkpt>
   <trkpt lat="41.26033" lon="28.14457">
    <ele>232.9</ele>
   </trkpt>
   <trkpt lat="41.260270000000006" lon="28.144350000000003">
    <ele>232.9</ele>
   </trkpt>
   <trkpt lat="41.260270000000006" lon="28.14394">
    <ele>232.9</ele>
   </trkpt>
   <trkpt lat="41.26042" lon="28.14373">
    <ele>232.9</ele>
   </trkpt>
   <trkpt lat="41.2605" lon="28.143670000000004">
    <ele>232.9</ele>
   </trkpt>
   <trkpt lat="41.26078500205089" lon="28.142980003032456">
    <ele>232.9</ele>
   </trkpt>
   <trkpt lat="41.261070000000004" lon="28.142290000000003">
    <ele>242.69</ele>
   </trkpt>
   <trkpt lat="41.26122" lon="28.142260000000004">
    <ele>242.69</ele>
   </trkpt>
   <trkpt lat="41.26138" lon="28.142280000000003">
    <ele>242.69</ele>
   </trkpt>
   <trkpt lat="41.26176" lon="28.141920000000002">
    <ele>242.69</ele>
   </trkpt>
   <trkpt lat="41.262080000000005" lon="28.141550000000002">
    <ele>242.69</ele>
   </trkpt>
   <trkpt lat="41.26231000000001" lon="28.141510000000004">
    <ele>242.59000000000003</ele>
   </trkpt>
   <trkpt lat="41.262750000000004" lon="28.14167">
    <ele>242.68</ele>
   </trkpt>
   <trkpt lat="41.26278000000001" lon="28.141610000000004">
    <ele>242.68</ele>
   </trkpt>
   <trkpt lat="41.26357" lon="28.141430000000003">
    <ele>242.68</ele>
   </trkpt>
   <trkpt lat="41.26384" lon="28.141440000000003">
    <ele>242.68</ele>
   </trkpt>
   <trkpt lat="41.26418" lon="28.141530000000003">
    <ele>242.68</ele>
   </trkpt>
   <trkpt lat="41.26428000000001" lon="28.14158">
    <ele>246.58</ele>
   </trkpt>
   <trkpt lat="41.26467" lon="28.14185">
    <ele>246.58</ele>
   </trkpt>
   <trkpt lat="41.26482" lon="28.141900000000003">
    <ele>246.58</ele>
   </trkpt>
   <trkpt lat="41.26512" lon="28.141880000000004">
    <ele>246.58</ele>
   </trkpt>
   <trkpt lat="41.265730000000005" lon="28.141600000000004">
    <ele>246.58</ele>
   </trkpt>
   <trkpt lat="41.26596000000001" lon="28.14139">
    <ele>245.59000000000003</ele>
   </trkpt>
   <trkpt lat="41.26623" lon="28.141230000000004">
    <ele>245.59000000000003</ele>
   </trkpt>
   <trkpt lat="41.266580000000005" lon="28.141080000000002">
    <ele>245.27</ele>
   </trkpt>
   <trkpt lat="41.266690000000004" lon="28.14101">
    <ele>245.27</ele>
   </trkpt>
   <trkpt lat="41.266940000000005" lon="28.140860000000004">
    <ele>245.06000000000003</ele>
   </trkpt>
   <trkpt lat="41.267340000000004" lon="28.14082">
    <ele>243.01000000000002</ele>
   </trkpt>
   <trkpt lat="41.26766000000001" lon="28.140620000000002">
    <ele>243.01000000000002</ele>
   </trkpt>
   <trkpt lat="41.26793000000001" lon="28.14044">
    <ele>240.43000000000004</ele>
   </trkpt>
   <trkpt lat="41.268" lon="28.14028">
    <ele>240.43000000000004</ele>
   </trkpt>
   <trkpt lat="41.26842500165936" lon="28.140889996100398">
    <ele>239.64000000000001</ele>
   </trkpt>
   <trkpt lat="41.26885" lon="28.1415">
    <ele>239.64000000000001</ele>
   </trkpt>
   <trkpt lat="41.26912" lon="28.141360000000002">
    <ele>239.64000000000001</ele>
   </trkpt>
   <trkpt lat="41.26944" lon="28.141360000000002">
    <ele>239.64000000000001</ele>
   </trkpt>
   <trkpt lat="41.26961" lon="28.141320000000004">
    <ele>239.64000000000001</ele>
   </trkpt>
   <trkpt lat="41.27018" lon="28.141060000000003">
    <ele>239.64000000000001</ele>
   </trkpt>
   <trkpt lat="41.270270000000004" lon="28.141040000000004">
    <ele>239.64000000000001</ele>
   </trkpt>
   <trkpt lat="41.270340000000004" lon="28.141080000000002">
    <ele>239.64000000000001</ele>
   </trkpt>
   <trkpt lat="41.270830000000004" lon="28.141620000000003">
    <ele>224.73000000000002</ele>
   </trkpt>
   <trkpt lat="41.27102" lon="28.14168">
    <ele>224.73000000000002</ele>
   </trkpt>
   <trkpt lat="41.271480000000004" lon="28.14168">
    <ele>224.73000000000002</ele>
   </trkpt>
   <trkpt lat="41.2717" lon="28.141610000000004">
    <ele>224.73000000000002</ele>
   </trkpt>
   <trkpt lat="41.27212" lon="28.141420000000004">
    <ele>224.73000000000002</ele>
   </trkpt>
   <trkpt lat="41.272220000000004" lon="28.141360000000002">
    <ele>224.73000000000002</ele>
   </trkpt>
   <trkpt lat="41.2723" lon="28.141240000000003">
    <ele>224.73000000000002</ele>
   </trkpt>
   <trkpt lat="41.27248" lon="28.14083">
    <ele>224.73000000000002</ele>
   </trkpt>
   <trkpt lat="41.27319500098455" lon="28.14130499480299">
    <ele>220.67</ele>
   </trkpt>
   <trkpt lat="41.27391" lon="28.14178">
    <ele>218.25000000000003</ele>
   </trkpt>
   <trkpt lat="41.27467400309263" lon="28.142201980249208">
    <ele>214.23</ele>
   </trkpt>
   <trkpt lat="41.275438004644414" lon="28.142623970376313">
    <ele>209.20000000000002</ele>
   </trkpt>
   <trkpt lat="41.27620200465526" lon="28.143045970381788">
    <ele>203.37</ele>
   </trkpt>
   <trkpt lat="41.276966003125104" lon="28.143467980266117">
    <ele>196.09</ele>
   </trkpt>
   <trkpt lat="41.277730000000005" lon="28.143890000000003">
    <ele>187.76000000000002</ele>
   </trkpt>
   <trkpt lat="41.27785" lon="28.144370000000002">
    <ele>185.19000000000003</ele>
   </trkpt>
   <trkpt lat="41.27796" lon="28.145170000000004">
    <ele>185.09</ele>
   </trkpt>
   <trkpt lat="41.278090000000006" lon="28.145760000000003">
    <ele>185.26</ele>
   </trkpt>
   <trkpt lat="41.27814" lon="28.146150000000002">
    <ele>185.29000000000002</ele>
   </trkpt>
   <trkpt lat="41.278290000000005" lon="28.146790000000003">
    <ele>185.69000000000003</ele>
   </trkpt>
   <trkpt lat="41.278200000000005" lon="28.146950000000004">
    <ele>186.50000000000003</ele>
   </trkpt>
   <trkpt lat="41.278290000000005" lon="28.146790000000003">
    <ele>185.69000000000003</ele>
   </trkpt>
   <trkpt lat="41.278620000000004" lon="28.1475">
    <ele>186.03000000000003</ele>
   </trkpt>
   <trkpt lat="41.27859" lon="28.14767">
    <ele>186.17</ele>
   </trkpt>
   <trkpt lat="41.278580000000005" lon="28.14787">
    <ele>186.32000000000002</ele>
   </trkpt>
   <trkpt lat="41.27879" lon="28.148500000000002">
    <ele>186.87</ele>
   </trkpt>
   <trkpt lat="41.278890000000004" lon="28.148920000000004">
    <ele>186.97000000000003</ele>
   </trkpt>
   <trkpt lat="41.279050000000005" lon="28.14975">
    <ele>187.02</ele>
   </trkpt>
   <trkpt lat="41.279250000000005" lon="28.150340000000003">
    <ele>186.06</ele>
   </trkpt>
   <trkpt lat="41.27917" lon="28.15068">
    <ele>185.46</ele>
   </trkpt>
   <trkpt lat="41.27942" lon="28.151090000000003">
    <ele>190.14</ele>
   </trkpt>
   <trkpt lat="41.27963000306976" lon="28.151929997364913">
    <ele>189.3</ele>
   </trkpt>
   <trkpt lat="41.27984" lon="28.152770000000004">
    <ele>189.61</ele>
   </trkpt>
   <trkpt lat="41.280150000000006" lon="28.153360000000003">
    <ele>189.61</ele>
   </trkpt>
   <trkpt lat="41.280330000000006" lon="28.153850000000002">
    <ele>193.69000000000003</ele>
   </trkpt>
   <trkpt lat="41.28041" lon="28.15415">
    <ele>193.69000000000003</ele>
   </trkpt>
   <trkpt lat="41.28041" lon="28.15473">
    <ele>193.69000000000003</ele>
   </trkpt>
   <trkpt lat="41.280555001737795" lon="28.155359998689644">
    <ele>193.69000000000003</ele>
   </trkpt>
   <trkpt lat="41.2807" lon="28.155990000000003">
    <ele>193.69000000000003</ele>
   </trkpt>
   <trkpt lat="41.280710000000006" lon="28.156470000000002">
    <ele>195.71</ele>
   </trkpt>
   <trkpt lat="41.28065" lon="28.156990000000004">
    <ele>195.71</ele>
   </trkpt>
   <trkpt lat="41.28041" lon="28.15743">
    <ele>195.71</ele>
   </trkpt>
   <trkpt lat="41.28018" lon="28.157700000000002">
    <ele>195.71</ele>
   </trkpt>
   <trkpt lat="41.28009" lon="28.157870000000003">
    <ele>195.71</ele>
   </trkpt>
   <trkpt lat="41.280120000000004" lon="28.158430000000003">
    <ele>195.71</ele>
   </trkpt>
   <trkpt lat="41.280125003905646" lon="28.159380000099386">
    <ele>195.71</ele>
   </trkpt>
   <trkpt lat="41.28013000000001" lon="28.160330000000002">
    <ele>212.44000000000003</ele>
   </trkpt>
   <trkpt lat="41.28004000000001" lon="28.160670000000003">
    <ele>212.44000000000003</ele>
   </trkpt>
   <trkpt lat="41.28007" lon="28.161160000000002">
    <ele>212.44000000000003</ele>
   </trkpt>
   <trkpt lat="41.28025" lon="28.161600000000004">
    <ele>212.44000000000003</ele>
   </trkpt>
   <trkpt lat="41.28034" lon="28.161980000000003">
    <ele>212.44000000000003</ele>
   </trkpt>
   <trkpt lat="41.28036" lon="28.16251">
    <ele>212.44000000000003</ele>
   </trkpt>
   <trkpt lat="41.280440000000006" lon="28.162830000000003">
    <ele>212.44000000000003</ele>
   </trkpt>
   <trkpt lat="41.28072" lon="28.163310000000003">
    <ele>220.9</ele>
   </trkpt>
   <trkpt lat="41.280770000000004" lon="28.163500000000003">
    <ele>220.9</ele>
   </trkpt>
   <trkpt lat="41.28087" lon="28.16374">
    <ele>220.9</ele>
   </trkpt>
   <trkpt lat="41.28098000000001" lon="28.164050000000003">
    <ele>220.9</ele>
   </trkpt>
   <trkpt lat="41.28097" lon="28.164500000000004">
    <ele>220.9</ele>
   </trkpt>
   <trkpt lat="41.28099" lon="28.164710000000003">
    <ele>225.64000000000001</ele>
   </trkpt>
   <trkpt lat="41.2811" lon="28.165000000000003">
    <ele>225.64000000000001</ele>
   </trkpt>
   <trkpt lat="41.281180000000006" lon="28.16542">
    <ele>225.64000000000001</ele>
   </trkpt>
   <trkpt lat="41.281270000000006" lon="28.165670000000002">
    <ele>225.64000000000001</ele>
   </trkpt>
   <trkpt lat="41.281600000000005" lon="28.166290000000004">
    <ele>225.64000000000001</ele>
   </trkpt>
   <trkpt lat="41.281780000000005" lon="28.167030000000004">
    <ele>231.05</ele>
   </trkpt>
   <trkpt lat="41.282030000000006" lon="28.167740000000002">
    <ele>231.05</ele>
   </trkpt>
   <trkpt lat="41.28222" lon="28.16805">
    <ele>232.02000000000004</ele>
   </trkpt>
   <trkpt lat="41.28247" lon="28.168590000000002">
    <ele>232.34</ele>
   </trkpt>
   <trkpt lat="41.28264" lon="28.16889">
    <ele>232.88000000000002</ele>
   </trkpt>
   <trkpt lat="41.28273" lon="28.168910000000004">
    <ele>232.88000000000002</ele>
   </trkpt>
   <trkpt lat="41.282720000000005" lon="28.169140000000002">
    <ele>232.88000000000002</ele>
   </trkpt>
   <trkpt lat="41.282965003761454" lon="28.170069996581876">
    <ele>232.88000000000002</ele>
   </trkpt>
   <trkpt lat="41.283210000000004" lon="28.171000000000003">
    <ele>232.88000000000002</ele>
   </trkpt>
   <trkpt lat="41.28349" lon="28.171380000000003">
    <ele>232.88000000000002</ele>
   </trkpt>
   <trkpt lat="41.28399" lon="28.172220000000003">
    <ele>240.69</ele>
   </trkpt>
   <trkpt lat="41.28424500133345" lon="28.17278499768635">
    <ele>240.69</ele>
   </trkpt>
   <trkpt lat="41.2845" lon="28.173350000000003">
    <ele>240.69</ele>
   </trkpt>
   <trkpt lat="41.28473" lon="28.17368">
    <ele>240.69</ele>
   </trkpt>
   <trkpt lat="41.284760000000006" lon="28.173900000000003">
    <ele>240.69</ele>
   </trkpt>
   <trkpt lat="41.2847" lon="28.17406">
    <ele>240.69</ele>
   </trkpt>
   <trkpt lat="41.28445000000001" lon="28.174290000000003">
    <ele>240.69</ele>
   </trkpt>
   <trkpt lat="41.284130000000005" lon="28.174280000000003">
    <ele>240.69</ele>
   </trkpt>
   <trkpt lat="41.28401" lon="28.174210000000002">
    <ele>240.69</ele>
   </trkpt>
   <trkpt lat="41.283970000000004" lon="28.174190000000003">
    <ele>240.74</ele>
   </trkpt>
   <trkpt lat="41.28380000000001" lon="28.174100000000003">
    <ele>240.74</ele>
   </trkpt>
   <trkpt lat="41.283" lon="28.17376">
    <ele>240.74</ele>
   </trkpt>
   <trkpt lat="41.282590000000006" lon="28.173790000000004">
    <ele>240.74</ele>
   </trkpt>
   <trkpt lat="41.282160000000005" lon="28.174170000000004">
    <ele>245.19000000000003</ele>
   </trkpt>
   <trkpt lat="41.28181" lon="28.17499">
    <ele>245.19000000000003</ele>
   </trkpt>
   <trkpt lat="41.281710000000004" lon="28.17538">
    <ele>245.19000000000003</ele>
   </trkpt>
   <trkpt lat="41.28237000019293" lon="28.175524998555932">
    <ele>247.24</ele>
   </trkpt>
   <trkpt lat="41.283030000000004" lon="28.175670000000004">
    <ele>248.27</ele>
   </trkpt>
   <trkpt lat="41.283555000006764" lon="28.175754999312193">
    <ele>248.49</ele>
   </trkpt>
   <trkpt lat="41.28408" lon="28.17584">
    <ele>248.55</ele>
   </trkpt>
   <trkpt lat="41.28412" lon="28.176180000000002">
    <ele>248.55</ele>
   </trkpt>
   <trkpt lat="41.28427000000001" lon="28.176540000000003">
    <ele>248.55</ele>
   </trkpt>
   <trkpt lat="41.28445000000001" lon="28.17686">
    <ele>248.55</ele>
   </trkpt>
   <trkpt lat="41.28473" lon="28.17723">
    <ele>248.69000000000003</ele>
   </trkpt>
   <trkpt lat="41.285120000000006" lon="28.177580000000003">
    <ele>248.69000000000003</ele>
   </trkpt>
   <trkpt lat="41.28537" lon="28.1777">
    <ele>248.69000000000003</ele>
   </trkpt>
   <trkpt lat="41.28562" lon="28.177920000000004">
    <ele>248.69000000000003</ele>
   </trkpt>
   <trkpt lat="41.28576" lon="28.178230000000003">
    <ele>248.69000000000003</ele>
   </trkpt>
   <trkpt lat="41.28582" lon="28.178510000000003">
    <ele>248.69000000000003</ele>
   </trkpt>
   <trkpt lat="41.285790000000006" lon="28.179060000000003">
    <ele>248.69000000000003</ele>
   </trkpt>
   <trkpt lat="41.285830000000004" lon="28.17969">
    <ele>248.69000000000003</ele>
   </trkpt>
   <trkpt lat="41.286" lon="28.18007">
    <ele>239.23000000000002</ele>
   </trkpt>
   <trkpt lat="41.2862" lon="28.18035">
    <ele>239.23000000000002</ele>
   </trkpt>
   <trkpt lat="41.28631" lon="28.180590000000002">
    <ele>239.23000000000002</ele>
   </trkpt>
   <trkpt lat="41.286410000000004" lon="28.180940000000003">
    <ele>239.23000000000002</ele>
   </trkpt>
   <trkpt lat="41.286570000000005" lon="28.181340000000002">
    <ele>239.23000000000002</ele>
   </trkpt>
   <trkpt lat="41.28663" lon="28.18145">
    <ele>239.23000000000002</ele>
   </trkpt>
   <trkpt lat="41.287060000000004" lon="28.181700000000003">
    <ele>239.23000000000002</ele>
   </trkpt>
   <trkpt lat="41.28772500034364" lon="28.18199999692172">
    <ele>239.23000000000002</ele>
   </trkpt>
   <trkpt lat="41.28839000000001" lon="28.1823">
    <ele>239.23000000000002</ele>
   </trkpt>
   <trkpt lat="41.28904" lon="28.182830000000003">
    <ele>239.23000000000002</ele>
   </trkpt>
   <trkpt lat="41.289680000000004" lon="28.18325">
    <ele>239.23000000000002</ele>
   </trkpt>
   <trkpt lat="41.29027000000001" lon="28.183780000000002">
    <ele>239.23000000000002</ele>
   </trkpt>
   <trkpt lat="41.29106" lon="28.184320000000003">
    <ele>236.73000000000002</ele>
   </trkpt>
   <trkpt lat="41.291340000000005" lon="28.18457">
    <ele>236.73000000000002</ele>
   </trkpt>
   <trkpt lat="41.291700000000006" lon="28.185200000000002">
    <ele>236.73000000000002</ele>
   </trkpt>
   <trkpt lat="41.292" lon="28.185470000000002">
    <ele>236.73000000000002</ele>
   </trkpt>
   <trkpt lat="41.29248500024163" lon="28.185709998211937">
    <ele>236.73000000000002</ele>
   </trkpt>
   <trkpt lat="41.292970000000004" lon="28.185950000000002">
    <ele>236.73000000000002</ele>
   </trkpt>
   <trkpt lat="41.29343" lon="28.186390000000003">
    <ele>236.73000000000002</ele>
   </trkpt>
   <trkpt lat="41.2937750011693" lon="28.186899997367615">
    <ele>236.73000000000002</ele>
   </trkpt>
   <trkpt lat="41.29412000000001" lon="28.187410000000003">
    <ele>236.73000000000002</ele>
   </trkpt>
   <trkpt lat="41.29428" lon="28.187790000000003">
    <ele>236.95000000000002</ele>
   </trkpt>
   <trkpt lat="41.29496" lon="28.188240000000004">
    <ele>236.95000000000002</ele>
   </trkpt>
   <trkpt lat="41.29554" lon="28.18877">
    <ele>236.95000000000002</ele>
   </trkpt>
   <trkpt lat="41.29574" lon="28.189000000000004">
    <ele>236.95000000000002</ele>
   </trkpt>
   <trkpt lat="41.29634" lon="28.18963">
    <ele>236.95000000000002</ele>
   </trkpt>
   <trkpt lat="41.29646" lon="28.189680000000003">
    <ele>236.95000000000002</ele>
   </trkpt>
   <trkpt lat="41.296710000000004" lon="28.189860000000003">
    <ele>236.95000000000002</ele>
   </trkpt>
   <trkpt lat="41.29712500181183" lon="28.190484996206553">
    <ele>228.58</ele>
   </trkpt>
   <trkpt lat="41.297540000000005" lon="28.191110000000002">
    <ele>228.58</ele>
   </trkpt>
   <trkpt lat="41.29775" lon="28.191250000000004">
    <ele>228.58</ele>
   </trkpt>
   <trkpt lat="41.29791" lon="28.191240000000004">
    <ele>228.58</ele>
   </trkpt>
   <trkpt lat="41.29852" lon="28.19169">
    <ele>228.58</ele>
   </trkpt>
   <trkpt lat="41.29887" lon="28.19215">
    <ele>228.58</ele>
   </trkpt>
   <trkpt lat="41.298950000000005" lon="28.192370000000004">
    <ele>228.58</ele>
   </trkpt>
   <trkpt lat="41.29914" lon="28.192510000000002">
    <ele>228.58</ele>
   </trkpt>
   <trkpt lat="41.299760000000006" lon="28.1932">
    <ele>228.58</ele>
   </trkpt>
   <trkpt lat="41.300090000000004" lon="28.192690000000002">
    <ele>228.58</ele>
   </trkpt>
   <trkpt lat="41.300455000855564" lon="28.1922150028155">
    <ele>228.58</ele>
   </trkpt>
   <trkpt lat="41.30082" lon="28.191740000000003">
    <ele>228.58</ele>
   </trkpt>
   <trkpt lat="41.30118" lon="28.19121">
    <ele>228.58</ele>
   </trkpt>
   <trkpt lat="41.30147" lon="28.190700000000003">
    <ele>228.58</ele>
   </trkpt>
   <trkpt lat="41.301590000000004" lon="28.19038">
    <ele>228.58</ele>
   </trkpt>
   <trkpt lat="41.301640000000006" lon="28.190120000000004">
    <ele>228.58</ele>
   </trkpt>
   <trkpt lat="41.301820000000006" lon="28.189740000000004">
    <ele>228.58</ele>
   </trkpt>
   <trkpt lat="41.30194" lon="28.189380000000003">
    <ele>228.58</ele>
   </trkpt>
   <trkpt lat="41.30238000000001" lon="28.188760000000002">
    <ele>223.13000000000002</ele>
   </trkpt>
   <trkpt lat="41.30266" lon="28.188250000000004">
    <ele>223.13000000000002</ele>
   </trkpt>
   <trkpt lat="41.30284" lon="28.188050000000004">
    <ele>223.13000000000002</ele>
   </trkpt>
   <trkpt lat="41.302980000000005" lon="28.187990000000003">
    <ele>223.13000000000002</ele>
   </trkpt>
   <trkpt lat="41.303270000000005" lon="28.187810000000002">
    <ele>223.13000000000002</ele>
   </trkpt>
   <trkpt lat="41.30348" lon="28.187730000000002">
    <ele>223.13000000000002</ele>
   </trkpt>
   <trkpt lat="41.30364" lon="28.187730000000002">
    <ele>223.13000000000002</ele>
   </trkpt>
   <trkpt lat="41.303760000000004" lon="28.187810000000002">
    <ele>223.13000000000002</ele>
   </trkpt>
   <trkpt lat="41.304320000000004" lon="28.18775">
    <ele>223.13000000000002</ele>
   </trkpt>
   <trkpt lat="41.30507" lon="28.187530000000002">
    <ele>223.13000000000002</ele>
   </trkpt>
   <trkpt lat="41.305420000000005" lon="28.187400000000004">
    <ele>223.13000000000002</ele>
   </trkpt>
   <trkpt lat="41.305490000000006" lon="28.18729">
    <ele>223.13000000000002</ele>
   </trkpt>
   <trkpt lat="41.305930000000004" lon="28.187040000000003">
    <ele>223.13000000000002</ele>
   </trkpt>
   <trkpt lat="41.30595" lon="28.187780000000004">
    <ele>223.13000000000002</ele>
   </trkpt>
   <trkpt lat="41.30585000000001" lon="28.188150000000004">
    <ele>223.13000000000002</ele>
   </trkpt>
   <trkpt lat="41.30572" lon="28.18917">
    <ele>223.13000000000002</ele>
   </trkpt>
   <trkpt lat="41.30581" lon="28.189860000000003">
    <ele>231.27000000000004</ele>
   </trkpt>
   <trkpt lat="41.30596000234397" lon="28.190599998171596">
    <ele>231.27000000000004</ele>
   </trkpt>
   <trkpt lat="41.306110000000004" lon="28.191340000000004">
    <ele>231.27000000000004</ele>
   </trkpt>
   <trkpt lat="41.30622" lon="28.192300000000003">
    <ele>231.27000000000004</ele>
   </trkpt>
   <trkpt lat="41.30641000000001" lon="28.19255">
    <ele>231.27000000000004</ele>
   </trkpt>
   <trkpt lat="41.30655" lon="28.192780000000003">
    <ele>231.27000000000004</ele>
   </trkpt>
   <trkpt lat="41.30684000213651" lon="28.193484996829937">
    <ele>231.27000000000004</ele>
   </trkpt>
   <trkpt lat="41.30713" lon="28.194190000000003">
    <ele>231.27000000000004</ele>
   </trkpt>
   <trkpt lat="41.307550000000006" lon="28.194830000000003">
    <ele>231.27000000000004</ele>
   </trkpt>
   <trkpt lat="41.307790000000004" lon="28.195140000000002">
    <ele>231.27000000000004</ele>
   </trkpt>
   <trkpt lat="41.308130000000006" lon="28.19543">
    <ele>231.27000000000004</ele>
   </trkpt>
   <trkpt lat="41.30836" lon="28.19572">
    <ele>222.06</ele>
   </trkpt>
   <trkpt lat="41.30848" lon="28.195940000000004">
    <ele>222.06</ele>
   </trkpt>
   <trkpt lat="41.308710000000005" lon="28.19611">
    <ele>222.06</ele>
   </trkpt>
   <trkpt lat="41.30895" lon="28.19656">
    <ele>222.06</ele>
   </trkpt>
   <trkpt lat="41.30959" lon="28.197360000000003">
    <ele>222.06</ele>
   </trkpt>
   <trkpt lat="41.31002" lon="28.197680000000002">
    <ele>222.06</ele>
   </trkpt>
   <trkpt lat="41.31038500090793" lon="28.198129997519665">
    <ele>222.06</ele>
   </trkpt>
   <trkpt lat="41.310750000000006" lon="28.198580000000003">
    <ele>222.06</ele>
   </trkpt>
   <trkpt lat="41.311" lon="28.198980000000002">
    <ele>222.06</ele>
   </trkpt>
   <trkpt lat="41.311460000000004" lon="28.199810000000003">
    <ele>222.84</ele>
   </trkpt>
   <trkpt lat="41.31172" lon="28.20003">
    <ele>222.84</ele>
   </trkpt>
   <trkpt lat="41.31201" lon="28.200400000000002">
    <ele>222.84</ele>
   </trkpt>
   <trkpt lat="41.3121" lon="28.200570000000003">
    <ele>222.84</ele>
   </trkpt>
   <trkpt lat="41.31248" lon="28.20088">
    <ele>222.84</ele>
   </trkpt>
   <trkpt lat="41.31291" lon="28.201150000000002">
    <ele>222.84</ele>
   </trkpt>
   <trkpt lat="41.31331" lon="28.201520000000002">
    <ele>222.84</ele>
   </trkpt>
   <trkpt lat="41.31374" lon="28.201880000000003">
    <ele>222.84</ele>
   </trkpt>
   <trkpt lat="41.313900000000004" lon="28.202080000000002">
    <ele>222.84</ele>
   </trkpt>
   <trkpt lat="41.314530000000005" lon="28.20258">
    <ele>222.84</ele>
   </trkpt>
   <trkpt lat="41.314840000000004" lon="28.20294">
    <ele>231.16000000000003</ele>
   </trkpt>
   <trkpt lat="41.31521" lon="28.20306">
    <ele>231.16000000000003</ele>
   </trkpt>
   <trkpt lat="41.31546" lon="28.203260000000004">
    <ele>231.16000000000003</ele>
   </trkpt>
   <trkpt lat="41.31577" lon="28.203360000000004">
    <ele>231.16000000000003</ele>
   </trkpt>
   <trkpt lat="41.31606" lon="28.203360000000004">
    <ele>231.16000000000003</ele>
   </trkpt>
   <trkpt lat="41.316320000000005" lon="28.203480000000003">
    <ele>231.16000000000003</ele>
   </trkpt>
   <trkpt lat="41.316590000000005" lon="28.203740000000003">
    <ele>231.16000000000003</ele>
   </trkpt>
   <trkpt lat="41.31691" lon="28.203960000000002">
    <ele>231.16000000000003</ele>
   </trkpt>
   <trkpt lat="41.316860000000005" lon="28.203930000000003">
    <ele>231.09</ele>
   </trkpt>
   <trkpt lat="41.317330000000005" lon="28.204220000000003">
    <ele>231.09</ele>
   </trkpt>
   <trkpt lat="41.31754" lon="28.204430000000002">
    <ele>232.79000000000002</ele>
   </trkpt>
   <trkpt lat="41.317600000000006" lon="28.204580000000004">
    <ele>232.79000000000002</ele>
   </trkpt>
   <trkpt lat="41.317750000000004" lon="28.20465">
    <ele>232.79000000000002</ele>
   </trkpt>
   <trkpt lat="41.31774002933071" lon="28.20358714188917">
    <ele>229.92000000000002</ele>
   </trkpt>
   <trkpt lat="41.31773004888453" lon="28.202524284103678">
    <ele>224.61</ele>
   </trkpt>
   <trkpt lat="41.31772005866148" lon="28.201461426643856">
    <ele>222.65</ele>
   </trkpt>
   <trkpt lat="41.31771005866155" lon="28.20039856951001">
    <ele>217.73</ele>
   </trkpt>
   <trkpt lat="41.317700048884774" lon="28.199335712702464">
    <ele>214.03000000000003</ele>
   </trkpt>
   <trkpt lat="41.31769002933114" lon="28.19827285622154">
    <ele>216.44000000000003</ele>
   </trkpt>
   <trkpt lat="41.31768" lon="28.197210000000002">
    <ele>220.41000000000003</ele>
   </trkpt>
   <trkpt lat="41.31767669561381" lon="28.196053333026907">
    <ele>221.81</ele>
   </trkpt>
   <trkpt lat="41.31767337964875" lon="28.194896666171296">
    <ele>222.35000000000002</ele>
   </trkpt>
   <trkpt lat="41.31767005210483" lon="28.19373999943359">
    <ele>220.18</ele>
   </trkpt>
   <trkpt lat="41.317666712982025" lon="28.19258333281419">
    <ele>216.3</ele>
   </trkpt>
   <trkpt lat="41.317663362280356" lon="28.191426666313507">
    <ele>216.75000000000003</ele>
   </trkpt>
   <trkpt lat="41.317660000000004" lon="28.19027">
    <ele>217.74</ele>
   </trkpt>
   <trkpt lat="41.31756" lon="28.190330000000003">
    <ele>217.39000000000001</ele>
   </trkpt>
   <trkpt lat="41.317660000000004" lon="28.19027">
    <ele>217.74</ele>
   </trkpt>
   <trkpt lat="41.317660000000004" lon="28.18964">
    <ele>217.32000000000002</ele>
   </trkpt>
   <trkpt lat="41.3183" lon="28.190020000000004">
    <ele>217.55</ele>
   </trkpt>
   <trkpt lat="41.31897666790423" lon="28.190396658850663">
    <ele>217.55</ele>
   </trkpt>
   <trkpt lat="41.31965333458059" lon="28.190773325522596">
    <ele>217.98</ele>
   </trkpt>
   <trkpt lat="41.320330000000006" lon="28.191150000000004">
    <ele>217.98</ele>
   </trkpt>
   <trkpt lat="41.32049000000001" lon="28.191270000000003">
    <ele>217.98</ele>
   </trkpt>
   <trkpt lat="41.32059" lon="28.19142">
    <ele>217.98</ele>
   </trkpt>
   <trkpt lat="41.320750000000004" lon="28.191460000000003">
    <ele>217.98</ele>
   </trkpt>
   <trkpt lat="41.321487502510486" lon="28.191899985060086">
    <ele>217.98</ele>
   </trkpt>
   <trkpt lat="41.322225003345444" lon="28.19233998007867">
    <ele>216.00000000000003</ele>
   </trkpt>
   <trkpt lat="41.32296250250484" lon="28.19277998505622">
    <ele>216.00000000000003</ele>
   </trkpt>
   <trkpt lat="41.3237" lon="28.193220000000004">
    <ele>216.00000000000003</ele>
   </trkpt>
   <trkpt lat="41.324396003117336" lon="28.193645981784655">
    <ele>216.00000000000003</ele>
   </trkpt>
   <trkpt lat="41.32509200466411" lon="28.194071972669267">
    <ele>216.00000000000003</ele>
   </trkpt>
   <trkpt lat="41.325788004640245" lon="28.194497972654222">
    <ele>216.00000000000003</ele>
   </trkpt>
   <trkpt lat="41.326484003045685" lon="28.19492398173991">
    <ele>216.00000000000003</ele>
   </trkpt>
   <trkpt lat="41.327180000000006" lon="28.19535">
    <ele>216.00000000000003</ele>
   </trkpt>
   <trkpt lat="41.32785400280236" lon="28.195753983269107">
    <ele>216.63000000000002</ele>
   </trkpt>
   <trkpt lat="41.328528004192144" lon="28.19615797489644">
    <ele>216.63000000000002</ele>
   </trkpt>
   <trkpt lat="41.32920200416933" lon="28.19656197488237">
    <ele>216.63000000000002</ele>
   </trkpt>
   <trkpt lat="41.329876002733826" lon="28.196965983227248">
    <ele>216.63000000000002</ele>
   </trkpt>
   <trkpt lat="41.33055" lon="28.197370000000003">
    <ele>216.63000000000002</ele>
   </trkpt>
   <trkpt lat="41.33059" lon="28.197490000000002">
    <ele>216.63000000000002</ele>
   </trkpt>
   <trkpt lat="41.330690000000004" lon="28.197540000000004">
    <ele>216.63000000000002</ele>
   </trkpt>
   <trkpt lat="41.33082" lon="28.19742">
    <ele>216.63000000000002</ele>
   </trkpt>
   <trkpt lat="41.330920000000006" lon="28.19743">
    <ele>216.63000000000002</ele>
   </trkpt>
   <trkpt lat="41.33095" lon="28.197570000000002">
    <ele>216.63000000000002</ele>
   </trkpt>
   <trkpt lat="41.33149" lon="28.197940000000003">
    <ele>216.63000000000002</ele>
   </trkpt>
   <trkpt lat="41.331590000000006" lon="28.198100000000004">
    <ele>216.63000000000002</ele>
   </trkpt>
   <trkpt lat="41.331810000000004" lon="28.198330000000002">
    <ele>216.63000000000002</ele>
   </trkpt>
   <trkpt lat="41.332" lon="28.19874">
    <ele>216.63000000000002</ele>
   </trkpt>
   <trkpt lat="41.332280000000004" lon="28.19873">
    <ele>216.63000000000002</ele>
   </trkpt>
   <trkpt lat="41.33236" lon="28.198680000000003">
    <ele>216.63000000000002</ele>
   </trkpt>
   <trkpt lat="41.332480000000004" lon="28.19855">
    <ele>216.63000000000002</ele>
   </trkpt>
   <trkpt lat="41.33301500034881" lon="28.198849997513374">
    <ele>216.63000000000002</ele>
   </trkpt>
   <trkpt lat="41.33355" lon="28.199150000000003">
    <ele>216.63000000000002</ele>
   </trkpt>
   <trkpt lat="41.334283335062835" lon="28.199596656611238">
    <ele>236.61</ele>
   </trkpt>
   <trkpt lat="41.33501666839888" lon="28.200043323279385">
    <ele>236.61</ele>
   </trkpt>
   <trkpt lat="41.335750000000004" lon="28.200490000000002">
    <ele>236.61</ele>
   </trkpt>
   <trkpt lat="41.33587" lon="28.200390000000002">
    <ele>236.71000000000004</ele>
   </trkpt>
   <trkpt lat="41.33587" lon="28.200400000000002">
    <ele>236.70000000000002</ele>
   </trkpt>
   <trkpt lat="41.335750000000004" lon="28.200490000000002">
    <ele>236.61</ele>
   </trkpt>
   <trkpt lat="41.33545" lon="28.20061">
    <ele>236.61</ele>
   </trkpt>
   <trkpt lat="41.334920000000004" lon="28.200930000000003">
    <ele>236.61</ele>
   </trkpt>
   <trkpt lat="41.33435" lon="28.201240000000002">
    <ele>236.61</ele>
   </trkpt>
   <trkpt lat="41.33381000000001" lon="28.201660000000004">
    <ele>233.25</ele>
   </trkpt>
   <trkpt lat="41.3333" lon="28.201870000000003">
    <ele>233.25</ele>
   </trkpt>
   <trkpt lat="41.33279" lon="28.202170000000002">
    <ele>233.25</ele>
   </trkpt>
   <trkpt lat="41.33208500136326" lon="28.202735006129053">
    <ele>235.02</ele>
   </trkpt>
   <trkpt lat="41.33138" lon="28.203300000000002">
    <ele>235.02</ele>
   </trkpt>
   <trkpt lat="41.330850000000005" lon="28.20361">
    <ele>234.36</ele>
   </trkpt>
   <trkpt lat="41.33053" lon="28.2037">
    <ele>234.36</ele>
   </trkpt>
   <trkpt lat="41.33037" lon="28.203960000000002">
    <ele>234.36</ele>
   </trkpt>
   <trkpt lat="41.3299" lon="28.204040000000003">
    <ele>234.16</ele>
   </trkpt>
   <trkpt lat="41.32968" lon="28.20416">
    <ele>234.16</ele>
   </trkpt>
   <trkpt lat="41.328880000000005" lon="28.204250000000002">
    <ele>233.37</ele>
   </trkpt>
   <trkpt lat="41.32853" lon="28.20435">
    <ele>233.37</ele>
   </trkpt>
   <trkpt lat="41.32836" lon="28.204500000000003">
    <ele>232.31</ele>
   </trkpt>
   <trkpt lat="41.32811" lon="28.20465">
    <ele>232.31</ele>
   </trkpt>
   <trkpt lat="41.32793" lon="28.204520000000002">
    <ele>232.93000000000004</ele>
   </trkpt>
   <trkpt lat="41.3277" lon="28.204510000000003">
    <ele>232.93000000000004</ele>
   </trkpt>
   <trkpt lat="41.32717" lon="28.204580000000004">
    <ele>233.9</ele>
   </trkpt>
   <trkpt lat="41.32654" lon="28.20473">
    <ele>233.9</ele>
   </trkpt>
   <trkpt lat="41.32594" lon="28.20502">
    <ele>233.9</ele>
   </trkpt>
   <trkpt lat="41.325720000000004" lon="28.2052">
    <ele>235.5</ele>
   </trkpt>
   <trkpt lat="41.324940000000005" lon="28.20557">
    <ele>235.5</ele>
   </trkpt>
   <trkpt lat="41.32446" lon="28.205730000000003">
    <ele>235.5</ele>
   </trkpt>
   <trkpt lat="41.32390000040667" lon="28.2059750020412">
    <ele>236.41</ele>
   </trkpt>
   <trkpt lat="41.32334" lon="28.206220000000002">
    <ele>236.41</ele>
   </trkpt>
   <trkpt lat="41.322880000000005" lon="28.206480000000003">
    <ele>236.41</ele>
   </trkpt>
   <trkpt lat="41.32209000052214" lon="28.206845004449864">
    <ele>238.61</ele>
   </trkpt>
   <trkpt lat="41.3213" lon="28.207210000000003">
    <ele>238.61</ele>
   </trkpt>
   <trkpt lat="41.32065" lon="28.207320000000003">
    <ele>238.61</ele>
   </trkpt>
   <trkpt lat="41.320440000000005" lon="28.207420000000003">
    <ele>238.61</ele>
   </trkpt>
   <trkpt lat="41.320280000000004" lon="28.207600000000003">
    <ele>238.61</ele>
   </trkpt>
   <trkpt lat="41.320130000000006" lon="28.207880000000003">
    <ele>238.61</ele>
   </trkpt>
   <trkpt lat="41.319840000000006" lon="28.20822">
    <ele>238.61</ele>
   </trkpt>
   <trkpt lat="41.31922500100883" lon="28.20872500484311">
    <ele>232.20000000000002</ele>
   </trkpt>
   <trkpt lat="41.31861000000001" lon="28.20923">
    <ele>232.20000000000002</ele>
   </trkpt>
   <trkpt lat="41.31804" lon="28.20972">
    <ele>232.20000000000002</ele>
   </trkpt>
   <trkpt lat="41.317730000000005" lon="28.20981">
    <ele>232.20000000000002</ele>
   </trkpt>
   <trkpt lat="41.317730000000005" lon="28.210060000000002">
    <ele>231.73000000000002</ele>
   </trkpt>
   <trkpt lat="41.317730000000005" lon="28.210030000000003">
    <ele>231.76000000000002</ele>
   </trkpt>
   <trkpt lat="41.317730000000005" lon="28.21036">
    <ele>231.07000000000002</ele>
   </trkpt>
   <trkpt lat="41.317080000000004" lon="28.211070000000003">
    <ele>229.11</ele>
   </trkpt>
   <trkpt lat="41.31689" lon="28.211330000000004">
    <ele>229.11</ele>
   </trkpt>
   <trkpt lat="41.316790000000005" lon="28.211550000000003">
    <ele>229.11</ele>
   </trkpt>
   <trkpt lat="41.316460000000006" lon="28.21215">
    <ele>229.11</ele>
   </trkpt>
   <trkpt lat="41.31627" lon="28.21253">
    <ele>229.11</ele>
   </trkpt>
   <trkpt lat="41.316120000000005" lon="28.212730000000004">
    <ele>229.11</ele>
   </trkpt>
   <trkpt lat="41.315960000000004" lon="28.213">
    <ele>229.11</ele>
   </trkpt>
   <trkpt lat="41.315780000000004" lon="28.21338">
    <ele>229.11</ele>
   </trkpt>
   <trkpt lat="41.315670000000004" lon="28.214270000000003">
    <ele>217.00000000000003</ele>
   </trkpt>
   <trkpt lat="41.31557" lon="28.214720000000003">
    <ele>217.00000000000003</ele>
   </trkpt>
   <trkpt lat="41.31535" lon="28.21525">
    <ele>217.00000000000003</ele>
   </trkpt>
   <trkpt lat="41.31513" lon="28.215680000000003">
    <ele>217.00000000000003</ele>
   </trkpt>
   <trkpt lat="41.314840000000004" lon="28.215960000000003">
    <ele>217.00000000000003</ele>
   </trkpt>
   <trkpt lat="41.31436" lon="28.216610000000003">
    <ele>217.00000000000003</ele>
   </trkpt>
   <trkpt lat="41.31412" lon="28.21685">
    <ele>217.00000000000003</ele>
   </trkpt>
   <trkpt lat="41.313680000000005" lon="28.216790000000003">
    <ele>217.00000000000003</ele>
   </trkpt>
   <trkpt lat="41.31311" lon="28.216820000000002">
    <ele>217.00000000000003</ele>
   </trkpt>
   <trkpt lat="41.31262" lon="28.21703">
    <ele>217.00000000000003</ele>
   </trkpt>
   <trkpt lat="41.31209500012672" lon="28.21720000136852">
    <ele>217.00000000000003</ele>
   </trkpt>
   <trkpt lat="41.31157" lon="28.217370000000003">
    <ele>217.00000000000003</ele>
   </trkpt>
   <trkpt lat="41.311220000000006" lon="28.217610000000004">
    <ele>217.00000000000003</ele>
   </trkpt>
   <trkpt lat="41.31084500098822" lon="28.21805000235438">
    <ele>194.38000000000002</ele>
   </trkpt>
   <trkpt lat="41.31047" lon="28.218490000000003">
    <ele>194.38000000000002</ele>
   </trkpt>
   <trkpt lat="41.30984" lon="28.218970000000002">
    <ele>194.38000000000002</ele>
   </trkpt>
   <trkpt lat="41.309610000000006" lon="28.219410000000003">
    <ele>194.38000000000002</ele>
   </trkpt>
   <trkpt lat="41.30901" lon="28.220050000000004">
    <ele>194.38000000000002</ele>
   </trkpt>
   <trkpt lat="41.30886" lon="28.22033">
    <ele>194.38000000000002</ele>
   </trkpt>
   <trkpt lat="41.308420000000005" lon="28.220750000000002">
    <ele>194.38000000000002</ele>
   </trkpt>
   <trkpt lat="41.308150000000005" lon="28.22108">
    <ele>194.38000000000002</ele>
   </trkpt>
   <trkpt lat="41.307950000000005" lon="28.22117">
    <ele>194.38000000000002</ele>
   </trkpt>
   <trkpt lat="41.307700000000004" lon="28.22108">
    <ele>194.38000000000002</ele>
   </trkpt>
   <trkpt lat="41.306830000000005" lon="28.22125">
    <ele>194.38000000000002</ele>
   </trkpt>
   <trkpt lat="41.306359999921135" lon="28.22131500048197">
    <ele>194.38000000000002</ele>
   </trkpt>
   <trkpt lat="41.305890000000005" lon="28.221380000000003">
    <ele>194.38000000000002</ele>
   </trkpt>
   <trkpt lat="41.30508666688169" lon="28.221530003692127">
    <ele>192.70000000000002</ele>
   </trkpt>
   <trkpt lat="41.30428333356868" lon="28.22168000368827">
    <ele>192.70000000000002</ele>
   </trkpt>
   <trkpt lat="41.30348" lon="28.22183">
    <ele>192.70000000000002</ele>
   </trkpt>
   <trkpt lat="41.3036" lon="28.221700000000002">
    <ele>192.32000000000002</ele>
   </trkpt>
   <trkpt lat="41.303630000000005" lon="28.221500000000002">
    <ele>191.65</ele>
   </trkpt>
   <trkpt lat="41.303580000000004" lon="28.22134">
    <ele>191.65</ele>
   </trkpt>
   <trkpt lat="41.30304" lon="28.220910000000003">
    <ele>189.94000000000003</ele>
   </trkpt>
   <trkpt lat="41.30292" lon="28.220900000000004">
    <ele>189.94000000000003</ele>
   </trkpt>
   <trkpt lat="41.30277" lon="28.220940000000002">
    <ele>189.94000000000003</ele>
   </trkpt>
   <trkpt lat="41.30266" lon="28.221000000000004">
    <ele>189.94000000000003</ele>
   </trkpt>
   <trkpt lat="41.302580000000006" lon="28.221000000000004">
    <ele>189.94000000000003</ele>
   </trkpt>
   <trkpt lat="41.30192" lon="28.220720000000004">
    <ele>189.94000000000003</ele>
   </trkpt>
   <trkpt lat="41.30145" lon="28.220550000000003">
    <ele>187.14000000000001</ele>
   </trkpt>
   <trkpt lat="41.301230000000004" lon="28.220540000000003">
    <ele>187.14000000000001</ele>
   </trkpt>
   <trkpt lat="41.301100000000005" lon="28.220740000000003">
    <ele>187.14000000000001</ele>
   </trkpt>
   <trkpt lat="41.301050000000004" lon="28.220940000000002">
    <ele>187.14000000000001</ele>
   </trkpt>
   <trkpt lat="41.30111" lon="28.22117">
    <ele>187.14000000000001</ele>
   </trkpt>
   <trkpt lat="41.301120000000004" lon="28.221410000000002">
    <ele>187.14000000000001</ele>
   </trkpt>
   <trkpt lat="41.30111" lon="28.221650000000004">
    <ele>187.14000000000001</ele>
   </trkpt>
   <trkpt lat="41.30106000000001" lon="28.221770000000003">
    <ele>187.14000000000001</ele>
   </trkpt>
  </trkseg>
 </trk>
</gpx>
