<?xml version="1.0" encoding="UTF-8"?>
<gpx creator="StravaGPX" version="1.1" xmlns="http://www.topografix.com/GPX/1/1" xmlns:xsi="http://www.w3.org/2001/XMLSchema-instance" xsi:schemaLocation="http://www.topografix.com/GPX/1/1 http://www.topografix.com/GPX/1/1/gpx.xsd">
 <metadata>
  <name>SİLİVRİ ULTRA TRAIL 18 K</name>
  <author>
   <name>Özgür Ak</name>
   <link href="https://www.strava.com/athletes/49360761"/>
  </author>
  <copyright author="OpenStreetMap contributors">
   <year>2020</year>
   <license>https://www.openstreetmap.org/copyright</license>
  </copyright>
  <link href="https://www.strava.com/routes/3526935272977817906"/>
 </metadata>
 <trk>
  <name>SİLİVRİ ULTRA TRAIL 18 K</name>
  <link href="https://www.strava.com/routes/3526935272977817906"/>
  <type>trail_running</type>
  <trkseg>
   <trkpt lat="41.30111" lon="28.221210000000003">
    <ele>187.56</ele>
   </trkpt>
   <trkpt lat="41.30111" lon="28.221650000000004">
    <ele>187.56</ele>
   </trkpt>
   <trkpt lat="41.30104" lon="28.221850000000003">
    <ele>186.7</ele>
   </trkpt>
   <trkpt lat="41.301" lon="28.222080000000002">
    <ele>186.7</ele>
   </trkpt>
   <trkpt lat="41.30097000000001" lon="28.22237">
    <ele>186.7</ele>
   </trkpt>
   <trkpt lat="41.3006" lon="28.222360000000002">
    <ele>185.95</ele>
   </trkpt>
   <trkpt lat="41.300270000000005" lon="28.222490000000004">
    <ele>185.95</ele>
   </trkpt>
   <trkpt lat="41.30006" lon="28.222550000000002">
    <ele>185.95</ele>
   </trkpt>
   <trkpt lat="41.29946" lon="28.222440000000002">
    <ele>185.95</ele>
   </trkpt>
   <trkpt lat="41.299020000000006" lon="28.222310000000004">
    <ele>185.95</ele>
   </trkpt>
   <trkpt lat="41.29815500015613" lon="28.222104997275142">
    <ele>192.64000000000001</ele>
   </trkpt>
   <trkpt lat="41.297290000000004" lon="28.2219">
    <ele>192.64000000000001</ele>
   </trkpt>
   <trkpt lat="41.29684" lon="28.22173">
    <ele>192.64000000000001</ele>
   </trkpt>
   <trkpt lat="41.29654" lon="28.22171">
    <ele>192.64000000000001</ele>
   </trkpt>
   <trkpt lat="41.296380000000006" lon="28.221740000000004">
    <ele>192.64000000000001</ele>
   </trkpt>
   <trkpt lat="41.295950000000005" lon="28.22211">
    <ele>192.64000000000001</ele>
   </trkpt>
   <trkpt lat="41.29551500053709" lon="28.222460002328432">
    <ele>192.64000000000001</ele>
   </trkpt>
   <trkpt lat="41.295080000000006" lon="28.222810000000003">
    <ele>192.64000000000001</ele>
   </trkpt>
   <trkpt lat="41.29506000000001" lon="28.222910000000002">
    <ele>192.64000000000001</ele>
   </trkpt>
   <trkpt lat="41.29507" lon="28.223150000000004">
    <ele>192.64000000000001</ele>
   </trkpt>
   <trkpt lat="41.295" lon="28.223290000000002">
    <ele>192.64000000000001</ele>
   </trkpt>
   <trkpt lat="41.29467" lon="28.2235">
    <ele>192.64000000000001</ele>
   </trkpt>
   <trkpt lat="41.29430000000001" lon="28.223900000000004">
    <ele>192.64000000000001</ele>
   </trkpt>
   <trkpt lat="41.293890000000005" lon="28.22444">
    <ele>192.64000000000001</ele>
   </trkpt>
   <trkpt lat="41.29375" lon="28.224750000000004">
    <ele>192.64000000000001</ele>
   </trkpt>
   <trkpt lat="41.29363" lon="28.224930000000004">
    <ele>192.64000000000001</ele>
   </trkpt>
   <trkpt lat="41.29348" lon="28.225030000000004">
    <ele>170.90000000000003</ele>
   </trkpt>
   <trkpt lat="41.292860000000005" lon="28.224970000000003">
    <ele>170.90000000000003</ele>
   </trkpt>
   <trkpt lat="41.29229" lon="28.22529">
    <ele>170.90000000000003</ele>
   </trkpt>
   <trkpt lat="41.291990000000006" lon="28.225430000000003">
    <ele>170.90000000000003</ele>
   </trkpt>
   <trkpt lat="41.29162" lon="28.225510000000003">
    <ele>170.90000000000003</ele>
   </trkpt>
   <trkpt lat="41.29085500018558" lon="28.225635004400043">
    <ele>170.90000000000003</ele>
   </trkpt>
   <trkpt lat="41.290090000235935" lon="28.2257600058685">
    <ele>170.90000000000003</ele>
   </trkpt>
   <trkpt lat="41.28932500015108" lon="28.22588500440553">
    <ele>170.90000000000003</ele>
   </trkpt>
   <trkpt lat="41.288560000000004" lon="28.226010000000002">
    <ele>170.90000000000003</ele>
   </trkpt>
   <trkpt lat="41.28797" lon="28.22612">
    <ele>166.35000000000002</ele>
   </trkpt>
   <trkpt lat="41.28779" lon="28.22622">
    <ele>166.35000000000002</ele>
   </trkpt>
   <trkpt lat="41.287670000000006" lon="28.22624">
    <ele>166.35000000000002</ele>
   </trkpt>
   <trkpt lat="41.28752" lon="28.226200000000002">
    <ele>166.35000000000002</ele>
   </trkpt>
   <trkpt lat="41.28727000000001" lon="28.226210000000002">
    <ele>165.91</ele>
   </trkpt>
   <trkpt lat="41.2871" lon="28.226270000000003">
    <ele>165.91</ele>
   </trkpt>
   <trkpt lat="41.287130000000005" lon="28.226260000000003">
    <ele>165.94</ele>
   </trkpt>
   <trkpt lat="41.28712" lon="28.226260000000003">
    <ele>165.93</ele>
   </trkpt>
   <trkpt lat="41.28689000000001" lon="28.226360000000003">
    <ele>165.93</ele>
   </trkpt>
   <trkpt lat="41.286660000000005" lon="28.226550000000003">
    <ele>165.56</ele>
   </trkpt>
   <trkpt lat="41.28671000000001" lon="28.22622">
    <ele>165.56</ele>
   </trkpt>
   <trkpt lat="41.28696" lon="28.225970000000004">
    <ele>165.56</ele>
   </trkpt>
   <trkpt lat="41.28725" lon="28.22538">
    <ele>165.56</ele>
   </trkpt>
   <trkpt lat="41.28736000000001" lon="28.22509">
    <ele>165.56</ele>
   </trkpt>
   <trkpt lat="41.28757" lon="28.224420000000002">
    <ele>165.56</ele>
   </trkpt>
   <trkpt lat="41.28763" lon="28.22434">
    <ele>165.56</ele>
   </trkpt>
   <trkpt lat="41.28758000182208" lon="28.223689999424263">
    <ele>165.56</ele>
   </trkpt>
   <trkpt lat="41.287530000000004" lon="28.22304">
    <ele>165.56</ele>
   </trkpt>
   <trkpt lat="41.28752" lon="28.22256">
    <ele>165.56</ele>
   </trkpt>
   <trkpt lat="41.28755" lon="28.22237">
    <ele>165.56</ele>
   </trkpt>
   <trkpt lat="41.287690000000005" lon="28.221850000000003">
    <ele>165.56</ele>
   </trkpt>
   <trkpt lat="41.28788" lon="28.22144">
    <ele>165.56</ele>
   </trkpt>
   <trkpt lat="41.2881" lon="28.221210000000003">
    <ele>193.44000000000003</ele>
   </trkpt>
   <trkpt lat="41.28817" lon="28.22089">
    <ele>193.44000000000003</ele>
   </trkpt>
   <trkpt lat="41.28811" lon="28.220570000000002">
    <ele>193.44000000000003</ele>
   </trkpt>
   <trkpt lat="41.287940000000006" lon="28.220290000000002">
    <ele>193.44000000000003</ele>
   </trkpt>
   <trkpt lat="41.287530000000004" lon="28.21985">
    <ele>193.44000000000003</ele>
   </trkpt>
   <trkpt lat="41.28736000000001" lon="28.219770000000004">
    <ele>193.44000000000003</ele>
   </trkpt>
   <trkpt lat="41.28719" lon="28.219600000000003">
    <ele>193.44000000000003</ele>
   </trkpt>
   <trkpt lat="41.2871" lon="28.2188">
    <ele>193.44000000000003</ele>
   </trkpt>
   <trkpt lat="41.28698000000001" lon="28.218370000000004">
    <ele>193.44000000000003</ele>
   </trkpt>
   <trkpt lat="41.28692" lon="28.218040000000002">
    <ele>193.44000000000003</ele>
   </trkpt>
   <trkpt lat="41.286840000000005" lon="28.21786">
    <ele>193.44000000000003</ele>
   </trkpt>
   <trkpt lat="41.28667" lon="28.217730000000003">
    <ele>193.44000000000003</ele>
   </trkpt>
   <trkpt lat="41.28625" lon="28.217260000000003">
    <ele>193.44000000000003</ele>
   </trkpt>
   <trkpt lat="41.286" lon="28.217200000000002">
    <ele>193.44000000000003</ele>
   </trkpt>
   <trkpt lat="41.28578" lon="28.217050000000004">
    <ele>193.44000000000003</ele>
   </trkpt>
   <trkpt lat="41.28575" lon="28.216800000000003">
    <ele>193.44000000000003</ele>
   </trkpt>
   <trkpt lat="41.28577000000001" lon="28.216430000000003">
    <ele>193.44000000000003</ele>
   </trkpt>
   <trkpt lat="41.28591" lon="28.215750000000003">
    <ele>193.44000000000003</ele>
   </trkpt>
   <trkpt lat="41.28586000000001" lon="28.215640000000004">
    <ele>193.44000000000003</ele>
   </trkpt>
   <trkpt lat="41.285360000000004" lon="28.215310000000002">
    <ele>193.44000000000003</ele>
   </trkpt>
   <trkpt lat="41.28484" lon="28.21515">
    <ele>196.16000000000003</ele>
   </trkpt>
   <trkpt lat="41.284530000000004" lon="28.2146">
    <ele>196.16000000000003</ele>
   </trkpt>
   <trkpt lat="41.2841550007662" lon="28.21415499733523">
    <ele>196.16000000000003</ele>
   </trkpt>
   <trkpt lat="41.28378" lon="28.213710000000003">
    <ele>196.16000000000003</ele>
   </trkpt>
   <trkpt lat="41.283570000000005" lon="28.21357">
    <ele>196.16000000000003</ele>
   </trkpt>
   <trkpt lat="41.28354" lon="28.213320000000003">
    <ele>196.16000000000003</ele>
   </trkpt>
   <trkpt lat="41.283280000000005" lon="28.212790000000002">
    <ele>196.16000000000003</ele>
   </trkpt>
   <trkpt lat="41.28316" lon="28.211910000000003">
    <ele>200.55</ele>
   </trkpt>
   <trkpt lat="41.283100000000005" lon="28.21167">
    <ele>200.55</ele>
   </trkpt>
   <trkpt lat="41.282920000000004" lon="28.211440000000003">
    <ele>200.55</ele>
   </trkpt>
   <trkpt lat="41.28291" lon="28.21141">
    <ele>200.59</ele>
   </trkpt>
   <trkpt lat="41.282770000000006" lon="28.211170000000003">
    <ele>200.59</ele>
   </trkpt>
   <trkpt lat="41.282700000000006" lon="28.210960000000004">
    <ele>200.59</ele>
   </trkpt>
   <trkpt lat="41.28222" lon="28.210580000000004">
    <ele>200.59</ele>
   </trkpt>
   <trkpt lat="41.281780000000005" lon="28.21007">
    <ele>206.41</ele>
   </trkpt>
   <trkpt lat="41.281530000000004" lon="28.21">
    <ele>206.41</ele>
   </trkpt>
   <trkpt lat="41.28137" lon="28.209850000000003">
    <ele>206.41</ele>
   </trkpt>
   <trkpt lat="41.281180000000006" lon="28.20944">
    <ele>206.41</ele>
   </trkpt>
   <trkpt lat="41.281220000000005" lon="28.209300000000002">
    <ele>206.41</ele>
   </trkpt>
   <trkpt lat="41.28121" lon="28.209100000000003">
    <ele>206.41</ele>
   </trkpt>
   <trkpt lat="41.28123" lon="28.208750000000002">
    <ele>206.41</ele>
   </trkpt>
   <trkpt lat="41.281310000000005" lon="28.208350000000003">
    <ele>206.41</ele>
   </trkpt>
   <trkpt lat="41.281330000000004" lon="28.20812">
    <ele>206.41</ele>
   </trkpt>
   <trkpt lat="41.28128" lon="28.20784">
    <ele>206.41</ele>
   </trkpt>
   <trkpt lat="41.28126" lon="28.207600000000003">
    <ele>206.41</ele>
   </trkpt>
   <trkpt lat="41.2813" lon="28.207340000000002">
    <ele>208.04000000000002</ele>
   </trkpt>
   <trkpt lat="41.28152" lon="28.207060000000002">
    <ele>208.04000000000002</ele>
   </trkpt>
   <trkpt lat="41.28161" lon="28.206770000000002">
    <ele>208.04000000000002</ele>
   </trkpt>
   <trkpt lat="41.282140000000005" lon="28.206020000000002">
    <ele>208.04000000000002</ele>
   </trkpt>
   <trkpt lat="41.28239000000001" lon="28.205810000000003">
    <ele>208.04000000000002</ele>
   </trkpt>
   <trkpt lat="41.28251" lon="28.20566">
    <ele>208.04000000000002</ele>
   </trkpt>
   <trkpt lat="41.282540000000004" lon="28.205510000000004">
    <ele>208.04000000000002</ele>
   </trkpt>
   <trkpt lat="41.282500000000006" lon="28.205230000000004">
    <ele>208.04000000000002</ele>
   </trkpt>
   <trkpt lat="41.282520000000005" lon="28.204870000000003">
    <ele>208.04000000000002</ele>
   </trkpt>
   <trkpt lat="41.28267" lon="28.20473">
    <ele>208.04000000000002</ele>
   </trkpt>
   <trkpt lat="41.28286000000001" lon="28.204760000000004">
    <ele>209.1</ele>
   </trkpt>
   <trkpt lat="41.28293" lon="28.20484">
    <ele>209.1</ele>
   </trkpt>
   <trkpt lat="41.28302" lon="28.204880000000003">
    <ele>209.1</ele>
   </trkpt>
   <trkpt lat="41.28338" lon="28.204950000000004">
    <ele>209.1</ele>
   </trkpt>
   <trkpt lat="41.283860000000004" lon="28.20493">
    <ele>209.1</ele>
   </trkpt>
   <trkpt lat="41.284240000000004" lon="28.204790000000003">
    <ele>209.1</ele>
   </trkpt>
   <trkpt lat="41.284560000000006" lon="28.204760000000004">
    <ele>209.1</ele>
   </trkpt>
   <trkpt lat="41.28544" lon="28.204590000000003">
    <ele>209.1</ele>
   </trkpt>
   <trkpt lat="41.28605" lon="28.203770000000002">
    <ele>213.71</ele>
   </trkpt>
   <trkpt lat="41.286640000000006" lon="28.20332">
    <ele>213.71</ele>
   </trkpt>
   <trkpt lat="41.28667" lon="28.203300000000002">
    <ele>213.75000000000003</ele>
   </trkpt>
   <trkpt lat="41.286910000000006" lon="28.20315">
    <ele>213.75000000000003</ele>
   </trkpt>
   <trkpt lat="41.28698000000001" lon="28.203000000000003">
    <ele>213.75000000000003</ele>
   </trkpt>
   <trkpt lat="41.2874000003478" lon="28.202720001796653">
    <ele>213.75000000000003</ele>
   </trkpt>
   <trkpt lat="41.28782" lon="28.202440000000003">
    <ele>213.75000000000003</ele>
   </trkpt>
   <trkpt lat="41.28844" lon="28.201940000000004">
    <ele>213.75000000000003</ele>
   </trkpt>
   <trkpt lat="41.288610000000006" lon="28.201710000000002">
    <ele>213.75000000000003</ele>
   </trkpt>
   <trkpt lat="41.288900000000005" lon="28.201570000000004">
    <ele>213.75000000000003</ele>
   </trkpt>
   <trkpt lat="41.289210000000004" lon="28.20125">
    <ele>222.52</ele>
   </trkpt>
   <trkpt lat="41.289460000000005" lon="28.200920000000004">
    <ele>222.52</ele>
   </trkpt>
   <trkpt lat="41.2896" lon="28.200650000000003">
    <ele>222.52</ele>
   </trkpt>
   <trkpt lat="41.289970000000004" lon="28.20022">
    <ele>222.52</ele>
   </trkpt>
   <trkpt lat="41.290310000000005" lon="28.200200000000002">
    <ele>222.52</ele>
   </trkpt>
   <trkpt lat="41.29057" lon="28.200070000000004">
    <ele>222.52</ele>
   </trkpt>
   <trkpt lat="41.29083000000001" lon="28.199800000000003">
    <ele>222.52</ele>
   </trkpt>
   <trkpt lat="41.29086" lon="28.199810000000003">
    <ele>222.52</ele>
   </trkpt>
   <trkpt lat="41.29111" lon="28.19901">
    <ele>221.95000000000002</ele>
   </trkpt>
   <trkpt lat="41.291270000000004" lon="28.198990000000002">
    <ele>221.95000000000002</ele>
   </trkpt>
   <trkpt lat="41.291990000000006" lon="28.19854">
    <ele>221.95000000000002</ele>
   </trkpt>
   <trkpt lat="41.29245" lon="28.19836">
    <ele>220.34</ele>
   </trkpt>
   <trkpt lat="41.292880000000004" lon="28.19825">
    <ele>220.34</ele>
   </trkpt>
   <trkpt lat="41.293220000000005" lon="28.19808">
    <ele>220.34</ele>
   </trkpt>
   <trkpt lat="41.293870000000005" lon="28.1979">
    <ele>220.34</ele>
   </trkpt>
   <trkpt lat="41.294360000000005" lon="28.197910000000004">
    <ele>220.34</ele>
   </trkpt>
   <trkpt lat="41.294760000000004" lon="28.197750000000003">
    <ele>220.34</ele>
   </trkpt>
   <trkpt lat="41.295100000000005" lon="28.19741">
    <ele>224.49</ele>
   </trkpt>
   <trkpt lat="41.29542" lon="28.19714">
    <ele>224.49</ele>
   </trkpt>
   <trkpt lat="41.295660000000005" lon="28.196590000000004">
    <ele>224.49</ele>
   </trkpt>
   <trkpt lat="41.29599" lon="28.196180000000002">
    <ele>224.49</ele>
   </trkpt>
   <trkpt lat="41.29621" lon="28.196">
    <ele>224.49</ele>
   </trkpt>
   <trkpt lat="41.296490000000006" lon="28.195610000000002">
    <ele>224.49</ele>
   </trkpt>
   <trkpt lat="41.29681" lon="28.195200000000003">
    <ele>224.49</ele>
   </trkpt>
   <trkpt lat="41.296960000000006" lon="28.19508">
    <ele>224.49</ele>
   </trkpt>
   <trkpt lat="41.297380000000004" lon="28.194820000000004">
    <ele>224.49</ele>
   </trkpt>
   <trkpt lat="41.29762" lon="28.194620000000004">
    <ele>224.49</ele>
   </trkpt>
   <trkpt lat="41.29827" lon="28.19452">
    <ele>228.58</ele>
   </trkpt>
   <trkpt lat="41.29838" lon="28.1946">
    <ele>228.58</ele>
   </trkpt>
   <trkpt lat="41.298680000000004" lon="28.19443">
    <ele>228.58</ele>
   </trkpt>
   <trkpt lat="41.2988" lon="28.194270000000003">
    <ele>228.58</ele>
   </trkpt>
   <trkpt lat="41.299040000000005" lon="28.194100000000002">
    <ele>228.58</ele>
   </trkpt>
   <trkpt lat="41.29937" lon="28.19375">
    <ele>228.58</ele>
   </trkpt>
   <trkpt lat="41.299760000000006" lon="28.1932">
    <ele>228.58</ele>
   </trkpt>
   <trkpt lat="41.300090000000004" lon="28.192690000000002">
    <ele>228.58</ele>
   </trkpt>
   <trkpt lat="41.300455000855564" lon="28.1922150028155">
    <ele>228.58</ele>
   </trkpt>
   <trkpt lat="41.30082" lon="28.191740000000003">
    <ele>228.58</ele>
   </trkpt>
   <trkpt lat="41.30118" lon="28.19121">
    <ele>228.58</ele>
   </trkpt>
   <trkpt lat="41.30147" lon="28.190700000000003">
    <ele>228.58</ele>
   </trkpt>
   <trkpt lat="41.301590000000004" lon="28.19038">
    <ele>228.58</ele>
   </trkpt>
   <trkpt lat="41.301640000000006" lon="28.190120000000004">
    <ele>228.58</ele>
   </trkpt>
   <trkpt lat="41.301820000000006" lon="28.189740000000004">
    <ele>228.58</ele>
   </trkpt>
   <trkpt lat="41.30194" lon="28.189380000000003">
    <ele>228.58</ele>
   </trkpt>
   <trkpt lat="41.30238000000001" lon="28.188760000000002">
    <ele>223.13000000000002</ele>
   </trkpt>
   <trkpt lat="41.30266" lon="28.188250000000004">
    <ele>223.13000000000002</ele>
   </trkpt>
   <trkpt lat="41.30284" lon="28.188050000000004">
    <ele>223.13000000000002</ele>
   </trkpt>
   <trkpt lat="41.302980000000005" lon="28.187990000000003">
    <ele>223.13000000000002</ele>
   </trkpt>
   <trkpt lat="41.303270000000005" lon="28.187810000000002">
    <ele>223.13000000000002</ele>
   </trkpt>
   <trkpt lat="41.30348" lon="28.187730000000002">
    <ele>223.13000000000002</ele>
   </trkpt>
   <trkpt lat="41.30364" lon="28.187730000000002">
    <ele>223.13000000000002</ele>
   </trkpt>
   <trkpt lat="41.303760000000004" lon="28.187810000000002">
    <ele>223.13000000000002</ele>
   </trkpt>
   <trkpt lat="41.304320000000004" lon="28.18775">
    <ele>223.13000000000002</ele>
   </trkpt>
   <trkpt lat="41.30507" lon="28.187530000000002">
    <ele>223.13000000000002</ele>
   </trkpt>
   <trkpt lat="41.305420000000005" lon="28.187400000000004">
    <ele>223.13000000000002</ele>
   </trkpt>
   <trkpt lat="41.305490000000006" lon="28.18729">
    <ele>223.13000000000002</ele>
   </trkpt>
   <trkpt lat="41.305930000000004" lon="28.187040000000003">
    <ele>223.13000000000002</ele>
   </trkpt>
   <trkpt lat="41.30595" lon="28.18661">
    <ele>223.13000000000002</ele>
   </trkpt>
   <trkpt lat="41.30577" lon="28.186120000000003">
    <ele>223.13000000000002</ele>
   </trkpt>
   <trkpt lat="41.305780000000006" lon="28.18558">
    <ele>223.13000000000002</ele>
   </trkpt>
   <trkpt lat="41.305910000000004" lon="28.18456">
    <ele>214.13000000000002</ele>
   </trkpt>
   <trkpt lat="41.30584" lon="28.183660000000003">
    <ele>214.13000000000002</ele>
   </trkpt>
   <trkpt lat="41.3059" lon="28.183460000000004">
    <ele>214.13000000000002</ele>
   </trkpt>
   <trkpt lat="41.30621" lon="28.18267">
    <ele>214.13000000000002</ele>
   </trkpt>
   <trkpt lat="41.30639500136036" lon="28.182125001325073">
    <ele>213.59000000000003</ele>
   </trkpt>
   <trkpt lat="41.306580000000004" lon="28.181580000000004">
    <ele>213.53000000000003</ele>
   </trkpt>
   <trkpt lat="41.30695" lon="28.181130000000003">
    <ele>213.53000000000003</ele>
   </trkpt>
   <trkpt lat="41.307140000000004" lon="28.18109">
    <ele>213.53000000000003</ele>
   </trkpt>
   <trkpt lat="41.30736" lon="28.180860000000003">
    <ele>213.53000000000003</ele>
   </trkpt>
   <trkpt lat="41.307610000000004" lon="28.180650000000004">
    <ele>203.34</ele>
   </trkpt>
   <trkpt lat="41.307880000000004" lon="28.180450000000004">
    <ele>203.34</ele>
   </trkpt>
   <trkpt lat="41.308020000000006" lon="28.18024">
    <ele>203.34</ele>
   </trkpt>
   <trkpt lat="41.30816" lon="28.179890000000004">
    <ele>203.34</ele>
   </trkpt>
   <trkpt lat="41.30872" lon="28.17969">
    <ele>199.56</ele>
   </trkpt>
   <trkpt lat="41.30895" lon="28.179520000000004">
    <ele>199.56</ele>
   </trkpt>
   <trkpt lat="41.30938500020241" lon="28.179195002358686">
    <ele>199.54000000000002</ele>
   </trkpt>
   <trkpt lat="41.30982" lon="28.178870000000003">
    <ele>199.54000000000002</ele>
   </trkpt>
   <trkpt lat="41.310520000000004" lon="28.178150000000002">
    <ele>200.12</ele>
   </trkpt>
   <trkpt lat="41.310790000000004" lon="28.178030000000003">
    <ele>200.12</ele>
   </trkpt>
   <trkpt lat="41.310930000000006" lon="28.178">
    <ele>200.12</ele>
   </trkpt>
   <trkpt lat="41.31109" lon="28.178040000000003">
    <ele>200.12</ele>
   </trkpt>
   <trkpt lat="41.31157" lon="28.17808">
    <ele>200.12</ele>
   </trkpt>
   <trkpt lat="41.311930000000004" lon="28.178050000000002">
    <ele>200.12</ele>
   </trkpt>
   <trkpt lat="41.31224" lon="28.17779">
    <ele>200.8</ele>
   </trkpt>
   <trkpt lat="41.31256000066282" lon="28.177345002454302">
    <ele>200.8</ele>
   </trkpt>
   <trkpt lat="41.31288000000001" lon="28.176900000000003">
    <ele>200.8</ele>
   </trkpt>
   <trkpt lat="41.31321000194454" lon="28.17757999644147">
    <ele>202.01000000000002</ele>
   </trkpt>
   <trkpt lat="41.31354" lon="28.17826">
    <ele>204.22</ele>
   </trkpt>
   <trkpt lat="41.313886670925314" lon="28.178963325806837">
    <ele>205.41</ele>
   </trkpt>
   <trkpt lat="41.31423333756948" lon="28.179666659094423">
    <ele>206.03</ele>
   </trkpt>
   <trkpt lat="41.31458000000001" lon="28.180370000000003">
    <ele>206.52</ele>
   </trkpt>
   <trkpt lat="41.31457" lon="28.180370000000003">
    <ele>206.52</ele>
   </trkpt>
   <trkpt lat="41.3150150032937" lon="28.18123499420349">
    <ele>207.51000000000002</ele>
   </trkpt>
   <trkpt lat="41.31546" lon="28.182100000000002">
    <ele>209.29</ele>
   </trkpt>
   <trkpt lat="41.3157000019111" lon="28.182764997544474">
    <ele>210.69</ele>
   </trkpt>
   <trkpt lat="41.315940000000005" lon="28.18343">
    <ele>210.8</ele>
   </trkpt>
   <trkpt lat="41.31625334078063" lon="28.1843566578033">
    <ele>210.21</ele>
   </trkpt>
   <trkpt lat="41.31656667412952" lon="28.18528332451585">
    <ele>210.81000000000003</ele>
   </trkpt>
   <trkpt lat="41.316880000000005" lon="28.186210000000003">
    <ele>211.38</ele>
   </trkpt>
   <trkpt lat="41.31722000372172" lon="28.187139995091368">
    <ele>210.62000000000003</ele>
   </trkpt>
   <trkpt lat="41.31756" lon="28.188070000000003">
    <ele>211.75000000000003</ele>
   </trkpt>
   <trkpt lat="41.317660000000004" lon="28.188660000000002">
    <ele>213.15</ele>
   </trkpt>
   <trkpt lat="41.317660000000004" lon="28.189610000000002">
    <ele>217.25000000000003</ele>
   </trkpt>
   <trkpt lat="41.317660000000004" lon="28.18964">
    <ele>217.32000000000002</ele>
   </trkpt>
   <trkpt lat="41.3183" lon="28.190020000000004">
    <ele>217.55</ele>
   </trkpt>
   <trkpt lat="41.31897666790423" lon="28.190396658850663">
    <ele>217.55</ele>
   </trkpt>
   <trkpt lat="41.31965333458059" lon="28.190773325522596">
    <ele>217.94000000000003</ele>
   </trkpt>
   <trkpt lat="41.320330000000006" lon="28.191150000000004">
    <ele>217.94000000000003</ele>
   </trkpt>
   <trkpt lat="41.32045" lon="28.191240000000004">
    <ele>217.94000000000003</ele>
   </trkpt>
   <trkpt lat="41.32043" lon="28.19123">
    <ele>217.94000000000003</ele>
   </trkpt>
   <trkpt lat="41.32049000000001" lon="28.191270000000003">
    <ele>217.94000000000003</ele>
   </trkpt>
   <trkpt lat="41.32059" lon="28.19142">
    <ele>217.98</ele>
   </trkpt>
   <trkpt lat="41.32086" lon="28.192100000000003">
    <ele>220.25000000000003</ele>
   </trkpt>
   <trkpt lat="41.321100002429745" lon="28.192854997103236">
    <ele>220.25000000000003</ele>
   </trkpt>
   <trkpt lat="41.321340000000006" lon="28.193610000000003">
    <ele>220.25000000000003</ele>
   </trkpt>
   <trkpt lat="41.32173" lon="28.194440000000004">
    <ele>231.32000000000002</ele>
   </trkpt>
   <trkpt lat="41.32194500172015" lon="28.195059998118023">
    <ele>231.32000000000002</ele>
   </trkpt>
   <trkpt lat="41.322160000000004" lon="28.195680000000003">
    <ele>231.32000000000002</ele>
   </trkpt>
   <trkpt lat="41.322280000000006" lon="28.1961">
    <ele>231.32000000000002</ele>
   </trkpt>
   <trkpt lat="41.32231" lon="28.19639">
    <ele>231.32000000000002</ele>
   </trkpt>
   <trkpt lat="41.32246000000001" lon="28.19668">
    <ele>231.32000000000002</ele>
   </trkpt>
   <trkpt lat="41.32262000201728" lon="28.197359998399563">
    <ele>231.82000000000002</ele>
   </trkpt>
   <trkpt lat="41.32278" lon="28.198040000000002">
    <ele>231.82000000000002</ele>
   </trkpt>
   <trkpt lat="41.32289" lon="28.198220000000003">
    <ele>231.82000000000002</ele>
   </trkpt>
   <trkpt lat="41.32289" lon="28.198320000000002">
    <ele>231.82000000000002</ele>
   </trkpt>
   <trkpt lat="41.32289" lon="28.198280000000004">
    <ele>231.81</ele>
   </trkpt>
   <trkpt lat="41.322900000000004" lon="28.198480000000004">
    <ele>231.81</ele>
   </trkpt>
   <trkpt lat="41.323100000000004" lon="28.199050000000003">
    <ele>231.81</ele>
   </trkpt>
   <trkpt lat="41.32360000787176" lon="28.2000033187147">
    <ele>231.81</ele>
   </trkpt>
   <trkpt lat="41.32410000787768" lon="28.20095665205908">
    <ele>232.85000000000002</ele>
   </trkpt>
   <trkpt lat="41.324600000000004" lon="28.20191">
    <ele>232.85000000000002</ele>
   </trkpt>
   <trkpt lat="41.324630000000006" lon="28.201940000000004">
    <ele>232.85000000000002</ele>
   </trkpt>
   <trkpt lat="41.324600000000004" lon="28.20191">
    <ele>232.84</ele>
   </trkpt>
   <trkpt lat="41.3248" lon="28.202130000000004">
    <ele>232.84</ele>
   </trkpt>
   <trkpt lat="41.32509" lon="28.20229">
    <ele>232.84</ele>
   </trkpt>
   <trkpt lat="41.325500000000005" lon="28.202880000000004">
    <ele>233.33</ele>
   </trkpt>
   <trkpt lat="41.325660000000006" lon="28.203080000000003">
    <ele>233.33</ele>
   </trkpt>
   <trkpt lat="41.32576" lon="28.20324">
    <ele>233.33</ele>
   </trkpt>
   <trkpt lat="41.32574" lon="28.20322">
    <ele>233.33</ele>
   </trkpt>
   <trkpt lat="41.32591" lon="28.203480000000003">
    <ele>233.33</ele>
   </trkpt>
   <trkpt lat="41.3262" lon="28.20369">
    <ele>233.33</ele>
   </trkpt>
   <trkpt lat="41.326480000000004" lon="28.204030000000003">
    <ele>233.9</ele>
   </trkpt>
   <trkpt lat="41.326840000000004" lon="28.204220000000003">
    <ele>233.9</ele>
   </trkpt>
   <trkpt lat="41.32717" lon="28.204580000000004">
    <ele>233.9</ele>
   </trkpt>
   <trkpt lat="41.3277" lon="28.204510000000003">
    <ele>232.95000000000002</ele>
   </trkpt>
   <trkpt lat="41.32790000000001" lon="28.204520000000002">
    <ele>232.95000000000002</ele>
   </trkpt>
   <trkpt lat="41.32793" lon="28.204520000000002">
    <ele>232.93000000000004</ele>
   </trkpt>
   <trkpt lat="41.32811" lon="28.20465">
    <ele>232.31</ele>
   </trkpt>
   <trkpt lat="41.32867" lon="28.20549">
    <ele>230.83</ele>
   </trkpt>
   <trkpt lat="41.32914" lon="28.205980000000004">
    <ele>230.83</ele>
   </trkpt>
   <trkpt lat="41.32925" lon="28.206020000000002">
    <ele>230.83</ele>
   </trkpt>
   <trkpt lat="41.32952" lon="28.206190000000003">
    <ele>230.83</ele>
   </trkpt>
   <trkpt lat="41.32969000000001" lon="28.206260000000004">
    <ele>230.83</ele>
   </trkpt>
   <trkpt lat="41.33005" lon="28.206500000000002">
    <ele>230.83</ele>
   </trkpt>
   <trkpt lat="41.330690000000004" lon="28.206970000000002">
    <ele>230.83</ele>
   </trkpt>
   <trkpt lat="41.3308" lon="28.207120000000003">
    <ele>230.83</ele>
   </trkpt>
   <trkpt lat="41.33106" lon="28.207900000000002">
    <ele>230.83</ele>
   </trkpt>
   <trkpt lat="41.33127" lon="28.208180000000002">
    <ele>230.98000000000002</ele>
   </trkpt>
   <trkpt lat="41.33153" lon="28.208460000000002">
    <ele>230.98000000000002</ele>
   </trkpt>
   <trkpt lat="41.33164" lon="28.208710000000004">
    <ele>230.98000000000002</ele>
   </trkpt>
   <trkpt lat="41.33187" lon="28.208990000000004">
    <ele>230.98000000000002</ele>
   </trkpt>
   <trkpt lat="41.33221" lon="28.20925">
    <ele>230.98000000000002</ele>
   </trkpt>
   <trkpt lat="41.33243" lon="28.209360000000004">
    <ele>230.98000000000002</ele>
   </trkpt>
   <trkpt lat="41.33269000000001" lon="28.20961">
    <ele>230.98000000000002</ele>
   </trkpt>
   <trkpt lat="41.33281" lon="28.20979">
    <ele>230.98000000000002</ele>
   </trkpt>
   <trkpt lat="41.33308" lon="28.2099">
    <ele>230.98000000000002</ele>
   </trkpt>
   <trkpt lat="41.33334000000001" lon="28.210060000000002">
    <ele>230.98000000000002</ele>
   </trkpt>
   <trkpt lat="41.333490000000005" lon="28.210340000000002">
    <ele>230.98000000000002</ele>
   </trkpt>
   <trkpt lat="41.3335" lon="28.210350000000002">
    <ele>230.98000000000002</ele>
   </trkpt>
   <trkpt lat="41.333490000000005" lon="28.21065">
    <ele>230.99000000000004</ele>
   </trkpt>
   <trkpt lat="41.333400000000005" lon="28.210880000000003">
    <ele>230.99000000000004</ele>
   </trkpt>
   <trkpt lat="41.33317" lon="28.21167">
    <ele>230.99000000000004</ele>
   </trkpt>
   <trkpt lat="41.33317" lon="28.212130000000002">
    <ele>230.99000000000004</ele>
   </trkpt>
   <trkpt lat="41.332980000000006" lon="28.21224">
    <ele>230.99000000000004</ele>
   </trkpt>
   <trkpt lat="41.33279" lon="28.21263">
    <ele>230.99000000000004</ele>
   </trkpt>
   <trkpt lat="41.33268" lon="28.212960000000002">
    <ele>230.99000000000004</ele>
   </trkpt>
   <trkpt lat="41.33265" lon="28.213300000000004">
    <ele>230.99000000000004</ele>
   </trkpt>
   <trkpt lat="41.33265" lon="28.213630000000002">
    <ele>217.67000000000002</ele>
   </trkpt>
   <trkpt lat="41.33268" lon="28.213950000000004">
    <ele>217.67000000000002</ele>
   </trkpt>
   <trkpt lat="41.33263" lon="28.214430000000004">
    <ele>217.67000000000002</ele>
   </trkpt>
   <trkpt lat="41.332660000000004" lon="28.214720000000003">
    <ele>217.67000000000002</ele>
   </trkpt>
   <trkpt lat="41.33296" lon="28.215570000000003">
    <ele>217.67000000000002</ele>
   </trkpt>
   <trkpt lat="41.33324" lon="28.216130000000003">
    <ele>217.67000000000002</ele>
   </trkpt>
   <trkpt lat="41.33352" lon="28.216450000000002">
    <ele>217.67000000000002</ele>
   </trkpt>
   <trkpt lat="41.333800000000004" lon="28.21657">
    <ele>217.67000000000002</ele>
   </trkpt>
   <trkpt lat="41.333850000000005" lon="28.21684">
    <ele>217.47000000000003</ele>
   </trkpt>
   <trkpt lat="41.333780000000004" lon="28.217170000000003">
    <ele>217.47000000000003</ele>
   </trkpt>
   <trkpt lat="41.33359000188147" lon="28.217830001937777">
    <ele>215.8</ele>
   </trkpt>
   <trkpt lat="41.333400000000005" lon="28.218490000000003">
    <ele>215.8</ele>
   </trkpt>
   <trkpt lat="41.33343" lon="28.218940000000003">
    <ele>215.8</ele>
   </trkpt>
   <trkpt lat="41.33357" lon="28.219780000000004">
    <ele>215.8</ele>
   </trkpt>
   <trkpt lat="41.33357" lon="28.22031">
    <ele>217.7</ele>
   </trkpt>
   <trkpt lat="41.33335" lon="28.22106">
    <ele>217.7</ele>
   </trkpt>
   <trkpt lat="41.33335" lon="28.221190000000004">
    <ele>217.7</ele>
   </trkpt>
   <trkpt lat="41.33335" lon="28.221220000000002">
    <ele>217.72000000000003</ele>
   </trkpt>
   <trkpt lat="41.333360000000006" lon="28.22164">
    <ele>217.72000000000003</ele>
   </trkpt>
   <trkpt lat="41.33326" lon="28.222220000000004">
    <ele>218.65</ele>
   </trkpt>
   <trkpt lat="41.33321" lon="28.222320000000003">
    <ele>218.65</ele>
   </trkpt>
   <trkpt lat="41.33250600374079" lon="28.22185597995192">
    <ele>218.65</ele>
   </trkpt>
   <trkpt lat="41.33180200561803" lon="28.22139196993288">
    <ele>218.65</ele>
   </trkpt>
   <trkpt lat="41.3310980056318" lon="28.220927969942444">
    <ele>218.65</ele>
   </trkpt>
   <trkpt lat="41.33039400378219" lon="28.22046397998018">
    <ele>210.44</ele>
   </trkpt>
   <trkpt lat="41.32969000000001" lon="28.220000000000002">
    <ele>210.44</ele>
   </trkpt>
   <trkpt lat="41.32943" lon="28.219910000000002">
    <ele>210.44</ele>
   </trkpt>
   <trkpt lat="41.329" lon="28.219880000000003">
    <ele>210.44</ele>
   </trkpt>
   <trkpt lat="41.328590000000005" lon="28.21976">
    <ele>210.44</ele>
   </trkpt>
   <trkpt lat="41.328070000000004" lon="28.21947">
    <ele>210.44</ele>
   </trkpt>
   <trkpt lat="41.327920000000006" lon="28.219450000000002">
    <ele>210.44</ele>
   </trkpt>
   <trkpt lat="41.327690000000004" lon="28.219520000000003">
    <ele>211.41</ele>
   </trkpt>
   <trkpt lat="41.32779" lon="28.219310000000004">
    <ele>211.41</ele>
   </trkpt>
   <trkpt lat="41.32797" lon="28.219130000000003">
    <ele>211.41</ele>
   </trkpt>
   <trkpt lat="41.328" lon="28.21901">
    <ele>211.41</ele>
   </trkpt>
   <trkpt lat="41.32795" lon="28.218890000000002">
    <ele>211.41</ele>
   </trkpt>
   <trkpt lat="41.32784" lon="28.218790000000002">
    <ele>211.41</ele>
   </trkpt>
   <trkpt lat="41.327206668058274" lon="28.218393325640616">
    <ele>219.04000000000002</ele>
   </trkpt>
   <trkpt lat="41.3265733347547" lon="28.217996658992703">
    <ele>219.04000000000002</ele>
   </trkpt>
   <trkpt lat="41.32594" lon="28.2176">
    <ele>219.04000000000002</ele>
   </trkpt>
   <trkpt lat="41.3251775121009" lon="28.217095768440668">
    <ele>221.47000000000003</ele>
   </trkpt>
   <trkpt lat="41.32441502200134" lon="28.216591548681908">
    <ele>223.20000000000002</ele>
   </trkpt>
   <trkpt lat="41.32365252970143" lon="28.216087340723167">
    <ele>223.18</ele>
   </trkpt>
   <trkpt lat="41.32289003520126" lon="28.215583144563883">
    <ele>223.09</ele>
   </trkpt>
   <trkpt lat="41.322127538500986" lon="28.215078960203492">
    <ele>222.72000000000003</ele>
   </trkpt>
   <trkpt lat="41.32136503960066" lon="28.214574787641446">
    <ele>223.19000000000003</ele>
   </trkpt>
   <trkpt lat="41.320602538500445" lon="28.21407062687717">
    <ele>223.19000000000003</ele>
   </trkpt>
   <trkpt lat="41.319840035200414" lon="28.213566477910124">
    <ele>223.19000000000003</ele>
   </trkpt>
   <trkpt lat="41.3190775297007" lon="28.21306234073974">
    <ele>224.18</ele>
   </trkpt>
   <trkpt lat="41.31831502200141" lon="28.212558215365462">
    <ele>224.18</ele>
   </trkpt>
   <trkpt lat="41.317552512102644" lon="28.21205410178673">
    <ele>224.18</ele>
   </trkpt>
   <trkpt lat="41.316790000000005" lon="28.211550000000003">
    <ele>229.11</ele>
   </trkpt>
   <trkpt lat="41.316460000000006" lon="28.21215">
    <ele>229.11</ele>
   </trkpt>
   <trkpt lat="41.31627" lon="28.21253">
    <ele>229.11</ele>
   </trkpt>
   <trkpt lat="41.316120000000005" lon="28.212730000000004">
    <ele>229.11</ele>
   </trkpt>
   <trkpt lat="41.315960000000004" lon="28.213">
    <ele>229.11</ele>
   </trkpt>
   <trkpt lat="41.315780000000004" lon="28.21338">
    <ele>229.11</ele>
   </trkpt>
   <trkpt lat="41.315670000000004" lon="28.214270000000003">
    <ele>217.00000000000003</ele>
   </trkpt>
   <trkpt lat="41.31557" lon="28.214720000000003">
    <ele>217.00000000000003</ele>
   </trkpt>
   <trkpt lat="41.31535" lon="28.21525">
    <ele>217.00000000000003</ele>
   </trkpt>
   <trkpt lat="41.31513" lon="28.215680000000003">
    <ele>217.00000000000003</ele>
   </trkpt>
   <trkpt lat="41.314840000000004" lon="28.215960000000003">
    <ele>217.00000000000003</ele>
   </trkpt>
   <trkpt lat="41.31436" lon="28.216610000000003">
    <ele>217.00000000000003</ele>
   </trkpt>
   <trkpt lat="41.31412" lon="28.21685">
    <ele>217.00000000000003</ele>
   </trkpt>
   <trkpt lat="41.313680000000005" lon="28.216790000000003">
    <ele>217.00000000000003</ele>
   </trkpt>
   <trkpt lat="41.31311" lon="28.216820000000002">
    <ele>217.00000000000003</ele>
   </trkpt>
   <trkpt lat="41.31262" lon="28.21703">
    <ele>217.00000000000003</ele>
   </trkpt>
   <trkpt lat="41.31209500012672" lon="28.21720000136852">
    <ele>217.00000000000003</ele>
   </trkpt>
   <trkpt lat="41.31157" lon="28.217370000000003">
    <ele>217.00000000000003</ele>
   </trkpt>
   <trkpt lat="41.311220000000006" lon="28.217610000000004">
    <ele>217.00000000000003</ele>
   </trkpt>
   <trkpt lat="41.31084500098822" lon="28.21805000235438">
    <ele>194.38000000000002</ele>
   </trkpt>
   <trkpt lat="41.31047" lon="28.218490000000003">
    <ele>194.38000000000002</ele>
   </trkpt>
   <trkpt lat="41.30984" lon="28.218970000000002">
    <ele>194.38000000000002</ele>
   </trkpt>
   <trkpt lat="41.309610000000006" lon="28.219410000000003">
    <ele>194.38000000000002</ele>
   </trkpt>
   <trkpt lat="41.30901" lon="28.220050000000004">
    <ele>194.38000000000002</ele>
   </trkpt>
   <trkpt lat="41.30886" lon="28.22033">
    <ele>194.38000000000002</ele>
   </trkpt>
   <trkpt lat="41.308420000000005" lon="28.220750000000002">
    <ele>194.38000000000002</ele>
   </trkpt>
   <trkpt lat="41.308150000000005" lon="28.22108">
    <ele>194.38000000000002</ele>
   </trkpt>
   <trkpt lat="41.307950000000005" lon="28.22117">
    <ele>194.38000000000002</ele>
   </trkpt>
   <trkpt lat="41.307700000000004" lon="28.22108">
    <ele>194.38000000000002</ele>
   </trkpt>
   <trkpt lat="41.306830000000005" lon="28.22125">
    <ele>194.38000000000002</ele>
   </trkpt>
   <trkpt lat="41.306359999921135" lon="28.22131500048197">
    <ele>194.38000000000002</ele>
   </trkpt>
   <trkpt lat="41.305890000000005" lon="28.221380000000003">
    <ele>194.38000000000002</ele>
   </trkpt>
   <trkpt lat="41.30508666688169" lon="28.221530003692127">
    <ele>192.70000000000002</ele>
   </trkpt>
   <trkpt lat="41.30428333356868" lon="28.22168000368827">
    <ele>192.70000000000002</ele>
   </trkpt>
   <trkpt lat="41.30348" lon="28.22183">
    <ele>192.57000000000002</ele>
   </trkpt>
   <trkpt lat="41.3036" lon="28.221700000000002">
    <ele>192.32000000000002</ele>
   </trkpt>
   <trkpt lat="41.303630000000005" lon="28.221500000000002">
    <ele>191.65</ele>
   </trkpt>
   <trkpt lat="41.303580000000004" lon="28.22134">
    <ele>190.99</ele>
   </trkpt>
   <trkpt lat="41.30304" lon="28.220910000000003">
    <ele>189.94000000000003</ele>
   </trkpt>
   <trkpt lat="41.30292" lon="28.220900000000004">
    <ele>189.94000000000003</ele>
   </trkpt>
   <trkpt lat="41.30277" lon="28.220940000000002">
    <ele>189.94000000000003</ele>
   </trkpt>
   <trkpt lat="41.30266" lon="28.221000000000004">
    <ele>189.94000000000003</ele>
   </trkpt>
   <trkpt lat="41.302580000000006" lon="28.221000000000004">
    <ele>189.94000000000003</ele>
   </trkpt>
   <trkpt lat="41.30192" lon="28.220720000000004">
    <ele>188.13000000000002</ele>
   </trkpt>
   <trkpt lat="41.30145" lon="28.220550000000003">
    <ele>188.13000000000002</ele>
   </trkpt>
   <trkpt lat="41.301230000000004" lon="28.220540000000003">
    <ele>188.13000000000002</ele>
   </trkpt>
   <trkpt lat="41.30125" lon="28.220540000000003">
    <ele>188.14</ele>
   </trkpt>
   <trkpt lat="41.301230000000004" lon="28.220540000000003">
    <ele>188.14</ele>
   </trkpt>
   <trkpt lat="41.301100000000005" lon="28.220740000000003">
    <ele>188.14</ele>
   </trkpt>
   <trkpt lat="41.301050000000004" lon="28.220940000000002">
    <ele>187.53</ele>
   </trkpt>
   <trkpt lat="41.30111" lon="28.22117">
    <ele>187.53</ele>
   </trkpt>
   <trkpt lat="41.30111" lon="28.22125">
    <ele>187.53</ele>
   </trkpt>
  </trkseg>
 </trk>
</gpx>
